<?xml version='1.0' encoding='UTF-8'?>
<kml xmlns="http://www.opengis.net/kml/2.2">
  <Document>
    <name>Maritime Warnings</name>
    <Placemark>
      <name>NAVAREA XII 595/26</name>
      <description>310941Z AUG 26  NAVAREA XII 595/26.  NORTH PACIFIC.  JOHNSTON ATOLL.  1. HAZARDOUS OPERATIONS, SPACE DEBRIS     2133Z TO 2355Z DAILY 04 THRU 10 SEP     IN AREA BOUND BY     27-28.71N 171-24.34W, 13-38.98N 174-00.45W,     01-35.98N 175-48.45W, 00-54.72N 172-43.89W,     12-22.59N 170-40.14W, 16-45.76N 170-06.75W,     26-43.75N 168-39.09W.  2. CANCEL THIS MSG 110055Z SEP 26.</description>
      <Polygon>
        <outerBoundaryIs>
          <LinearRing>
            <coordinates>-171.405667,27.4785,0 -174.0075,13.649667,0 -175.8075,1.599667,0 -172.7315,0.912,0 -170.669,12.3765,0 -170.1125,16.762667,0 -168.6515,26.729167,0 -171.405667,27.4785,0</coordinates>
          </LinearRing>
        </outerBoundaryIs>
      </Polygon>
    </Placemark>
    <Placemark>
      <name>NAVAREA XII 593/26</name>
      <description>252341Z AUG 26  NAVAREA XII 593/26.  NORTH PACIFIC.  CALIFORNIA.  1. HAZARDOUS OPERATIONS, ROCKET LAUNCHING:     A. 041128Z TO 041553Z SEP, ALTERNATE        051113Z TO 051538Z, 061059Z TO 061524Z,        071045Z TO 071510Z, 081030Z TO 081455Z,        091016Z TO 091441Z AND 101001Z TO 101426Z SEP        IN AREA BOUND BY        29-48.00N 117-39.00W, 34-28.00N 120-18.00W,        34-40.00N 120-36.00W, 34-39.00N 120-39.00W,        34-30.00N 120-39.00W, 29-35.00N 118-12.00W,        29-52.00N 117-54.00</description>
      <MultiGeometry>
        <Polygon>
          <outerBoundaryIs>
            <LinearRing>
              <coordinates>-117.65,29.8,0 -120.3,34.466667,0 -120.6,34.666667,0 -120.65,34.65,0 -120.65,34.5,0 -118.2,29.583333,0 -117.9,29.866667,0 -117.65,29.8,0</coordinates>
            </LinearRing>
          </outerBoundaryIs>
        </Polygon>
        <Polygon>
          <outerBoundaryIs>
            <LinearRing>
              <coordinates>-117.65,29.8,0 -117.9,29.866667,0 -118.2,29.583333,0 -118.133333,29.4,0 -118.033333,29.25,0 -117.983333,29.033333,0 -117.316667,28.2,0 -117.316667,28.833333,0 -117.266667,29.6,0 -117.65,29.8,0</coordinates>
            </LinearRing>
          </outerBoundaryIs>
        </Polygon>
      </MultiGeometry>
    </Placemark>
    <Placemark>
      <name>NAVAREA XII 587/26</name>
      <description>212338Z AUG 26  NAVAREA XII 587/26.  NORTH PACIFIC.  CALIFORNIA.  1. HAZARDOUS OPERATIONS, ROCKET LAUNCHING:     A. 010801ZTO 011226Z SEP, ALTERNATE         020746Z TO 021211Z, 030732Z TO 031157Z,         040718Z TO 041143Z, 050703Z TO 051128Z,        060649Z TO 061114Z AND         070634Z TO 071059Z SEP IN AREA BOUND BY        29-48.00N 117-39.00W, 34-28.00N 120-18.00W,        34-40.00N 120-36.00W, 34-39.00N 120-39.00W,        34-30.00N 120-39.00W, 29-35.00N 118-12.00W,        29-52.00N 117-54.</description>
      <MultiGeometry>
        <Polygon>
          <outerBoundaryIs>
            <LinearRing>
              <coordinates>-117.65,29.8,0 -120.3,34.466667,0 -120.6,34.666667,0 -120.65,34.65,0 -120.65,34.5,0 -118.2,29.583333,0 -117.9,29.866667,0 -117.65,29.8,0</coordinates>
            </LinearRing>
          </outerBoundaryIs>
        </Polygon>
        <Polygon>
          <outerBoundaryIs>
            <LinearRing>
              <coordinates>-117.65,29.8,0 -117.9,29.866667,0 -118.2,29.583333,0 -118.133333,29.4,0 -118.033333,29.25,0 -117.983333,29.033333,0 -117.316667,28.2,0 -117.316667,28.833333,0 -117.266667,29.6,0 -117.65,29.8,0</coordinates>
            </LinearRing>
          </outerBoundaryIs>
        </Polygon>
      </MultiGeometry>
    </Placemark>
    <Placemark>
      <name>HYDROLANT 1644/26</name>
      <description>221041Z AUG 26  HYDROLANT 1644/26  NORTH ATLANTIC.  1. HAZARDOUS OPERATIONS, ROCKET LAUNCHING      1900Z TO 0001Z DAILY 27 AUG THRU 06 SEP     IN AREAS BOUND BY:     A. 04-07.00N 032-44.00W, 03-39.00N 028-39.00W,        03-05.00N 028-43.00W, 03-34.00N 032-48.00W.     B. 05-37.00N 050-14.00W, 05-45.00N 048-54.00W,        05-35.00N 048-53.00W, 05-27.00N 050-13.00W.     C. 05-41.00N 048-34.00W, 05-43.00N 047-02.00W,        05-19.00N 047-01.00W, 05-17.00N 048-34.00W.     D. 04-29.00N 033-35.00W, 03-</description>
      <MultiGeometry>
        <Polygon>
          <outerBoundaryIs>
            <LinearRing>
              <coordinates>-32.733333,4.116667,0 -28.65,3.65,0 -28.716667,3.083333,0 -32.8,3.566667,0 -32.733333,4.116667,0</coordinates>
            </LinearRing>
          </outerBoundaryIs>
        </Polygon>
        <Polygon>
          <outerBoundaryIs>
            <LinearRing>
              <coordinates>-50.233333,5.616667,0 -48.9,5.75,0 -48.883333,5.583333,0 -50.216667,5.45,0 -50.233333,5.616667,0</coordinates>
            </LinearRing>
          </outerBoundaryIs>
        </Polygon>
        <Polygon>
          <outerBoundaryIs>
            <LinearRing>
              <coordinates>-48.566667,5.683333,0 -47.033333,5.716667,0 -47.016667,5.316667,0 -48.566667,5.283333,0 -48.566667,5.683333,0</coordinates>
            </LinearRing>
          </outerBoundaryIs>
        </Polygon>
        <Polygon>
          <outerBoundaryIs>
            <LinearRing>
              <coordinates>-33.583333,4.483333,0 -28.283333,3.85,0 -28.416667,2.75,0 -33.7,3.383333,0 -33.583333,4.483333,0</coordinates>
            </LinearRing>
          </outerBoundaryIs>
        </Polygon>
      </MultiGeometry>
    </Placemark>
    <Placemark>
      <name>HYDROLANT 237/26(54)</name>
      <description>031744Z FEB 26  HYDROLANT 237/26(54).  AEGEAN SEA.  DNC 09.  1. MISSILE OPERATIONS 0530Z TO SUNSET DAILY EVERY     WEDNESDAY THRU SATURDAY UNTIL 14 JUN AND     16 SEB THRU 31 DEC IN AREAS:     A. BOUND BY        35-36.00N 024-07.00E, 36-18.00N 024-07.00E,        36-18.00N 025-59.00E, 36-25.00N 026-12.00E,        36-16.00N 026-40.00E, 35-36.00N 026-41.00E,        35-31.00N 024-11.00E.     B. WITHIN ONE MILE OF 35-32.00N 024-13.00E.     C. WITHIN ONE MILE OF 35-36.33N 024-10.00E.  2. CANCEL THIS M</description>
      <MultiGeometry>
        <Polygon>
          <outerBoundaryIs>
            <LinearRing>
              <coordinates>24.116667,35.6,0 24.116667,36.3,0 25.983333,36.3,0 26.2,36.416667,0 26.666667,36.266667,0 26.683333,35.6,0 24.183333,35.516667,0 24.116667,35.6,0</coordinates>
            </LinearRing>
          </outerBoundaryIs>
        </Polygon>
        <Polygon>
          <outerBoundaryIs>
            <LinearRing>
              <coordinates>24.216667,35.533333,0</coordinates>
            </LinearRing>
          </outerBoundaryIs>
        </Polygon>
        <Polygon>
          <outerBoundaryIs>
            <LinearRing>
              <coordinates>24.166667,35.6055,0</coordinates>
            </LinearRing>
          </outerBoundaryIs>
        </Polygon>
      </MultiGeometry>
    </Placemark>
    <Placemark>
      <name>HYDROPAC 2491/26</name>
      <description>310931Z AUG 26  HYDROPAC 2491/26.  SOUTH PACIFIC.  1. HAZARDOUS OPERATIONS, SPACE DEBRIS     012119Z TO 012145Z SEP IN AREA BOUND BY     28-16.00S 170-42.00W, 29-09.00S 164-42.00W,     30-09.00S 163-42.00W, 29-16.00S 169-42.00W.  2. CANCEL HYDROPAC 2456/26.  3. CANCEL THIS MSG 012245Z SEP 26.</description>
      <Polygon>
        <outerBoundaryIs>
          <LinearRing>
            <coordinates>-170.7,-28.266667,0 -164.7,-29.15,0 -163.7,-30.15,0 -169.7,-29.266667,0 -170.7,-28.266667,0</coordinates>
          </LinearRing>
        </outerBoundaryIs>
      </Polygon>
    </Placemark>
    <Placemark>
      <name>HYDROPAC 2489/26</name>
      <description>310835Z AUG 26  HYDROPAC 2489/26.  NORTH PACIFIC.  SEA OF OKHOTSK.  KAMCHATKA.  1. MISSILE OPERATIONS 1400Z TO 0900Z      DAILY 04 THRU 11 SEP IN AREA BOUND BY     56-34.00N 154-14.00E, 56-34.00N 156-18.20E,     55-44.00N 155-32.00E, 52-35.00N 155-32.00E,     52-13.10N 158-25.00E, 52-54.30N 159-42.00E,     52-46.00N 160-30.00E, 51-40.00N 160-30.00E,     50-26.00N 158-48.00E, 49-23.50N 157-28.50E,     50-13.60N 156-03.00E, 51-30.10N 158-03.10E,     52-06.00N 154-14.00E.  2. CANCEL THIS MSG 121000</description>
      <Polygon>
        <outerBoundaryIs>
          <LinearRing>
            <coordinates>154.233333,56.566667,0 156.303333,56.566667,0 155.533333,55.733333,0 155.533333,52.583333,0 158.416667,52.218333,0 159.7,52.905,0 160.5,52.766667,0 160.5,51.666667,0 158.8,50.433333,0 157.475,49.391667,0 156.05,50.226667,0 158.051667,51.501667,0 154.233333,52.1,0 154.233333,56.566667,0</coordinates>
          </LinearRing>
        </outerBoundaryIs>
      </Polygon>
    </Placemark>
    <Placemark>
      <name>HYDROPAC 2488/26</name>
      <description>281658Z AUG 26  HYDROPAC 2488/26.  SOUTH PACIFIC.  1. HAZARDOUS OPERATIONS, SPACE DEBRIS     051300Z TO 051738Z, 061246Z TO 061724Z,       071232Z TO 071710Z, 081217Z TO 081655Z,       091203Z TO 091641Z, 101148Z TO 101626Z      AND 111134Z TO 111612Z SEP      IN AREA BOUND BY     27-59.00S 122-44.00W, 27-09.00S 120-43.00W,     38-21.00S 115-04.00W, 49-09.00S 107-22.00W,     59-09.00S 095-34.00W, 59-58.00S 099-05.00W,     44-34.00S 114-13.00W.  2. CANCEL THIS MSG 111712Z SEP 26.</description>
      <Polygon>
        <outerBoundaryIs>
          <LinearRing>
            <coordinates>-122.733333,-27.983333,0 -120.716667,-27.15,0 -115.066667,-38.35,0 -107.366667,-49.15,0 -95.566667,-59.15,0 -99.083333,-59.966667,0 -114.216667,-44.566667,0 -122.733333,-27.983333,0</coordinates>
          </LinearRing>
        </outerBoundaryIs>
      </Polygon>
    </Placemark>
    <Placemark>
      <name>HYDROPAC 2451/26</name>
      <description>240825Z AUG 26  HYDROPAC 2451/26.  SOUTH PACIFIC.  1. HAZARDOUS OPERATIONS, SPACE DEBRIS     010948Z TO 011426Z, 020933Z TO 021411Z,      030919Z TO 031357Z, 040905Z TO 041343Z,     050850Z TO 051328Z, 060836Z TO 061314Z      AND 070821Z TO 071259Z SEP     IN AREA BOUND BY     27-59.00S 122-44.00W, 27-09.00S 120-43.00W,     38-21.00S 115-04.00W, 49-09.00S 107-22.00W,     59-09.00S 095-34.00W, 59-58.00S 099-05.00W,     44-34.00S 114-13.00W.  2. CANCEL THIS MSG 071359Z SEP 26.</description>
      <Polygon>
        <outerBoundaryIs>
          <LinearRing>
            <coordinates>-122.733333,-27.983333,0 -120.716667,-27.15,0 -115.066667,-38.35,0 -107.366667,-49.15,0 -95.566667,-59.15,0 -99.083333,-59.966667,0 -114.216667,-44.566667,0 -122.733333,-27.983333,0</coordinates>
          </LinearRing>
        </outerBoundaryIs>
      </Polygon>
    </Placemark>
    <Placemark>
      <name>HYDROPAC 2442/26</name>
      <description>261201Z AUG 26  HYDROPAC 2442/26.  NORTH PACIFIC.  1. HAZARDOUS OPERATIONS, ROCKET LAUNCHING      2100Z TO 1300Z DAILY 30 AUG THRU 02, 05 AND 06 SEP,      ALTERNATE 2100Z TO 1300Z DAILY 07 THRU 09 SEP     IN AREA WITHIN 25 MILES OF 31-14.21N 144-26.80E.  2. CANCEL THIS MSG 101400Z SEP 26.</description>
      <Polygon>
        <outerBoundaryIs>
          <LinearRing>
            <coordinates>144.446667,31.236833,0</coordinates>
          </LinearRing>
        </outerBoundaryIs>
      </Polygon>
    </Placemark>
    <Placemark>
      <name>HYDROPAC 2437/26</name>
      <description>260105Z AUG 26  HYDROPAC 2437/26.  SOUTH PACIFIC.  1. HAZARDOUS OPERATIONS, SPACE DEBRIS     0345Z TO 1330Z DAILY 31 AUG THRU 14 SEP     IN AREAS BOUND BY:     A. 38-00.00S 178-00.00W, 37-00.00S 173-00.00W,        38-30.00S 173-00.00W, 39-30.00S 178-00.00W.     B. 35-30.00S 165-00.00W, 34-30.00S 160-00.00W,        36-00.00S 160-00.00W, 37-00.00S 165-00.00W.  2. CANCEL THIS MSG 141430Z SEP 26.</description>
      <MultiGeometry>
        <Polygon>
          <outerBoundaryIs>
            <LinearRing>
              <coordinates>-178.0,-38.0,0 -173.0,-37.0,0 -173.0,-38.5,0 -178.0,-39.5,0 -178.0,-38.0,0</coordinates>
            </LinearRing>
          </outerBoundaryIs>
        </Polygon>
        <Polygon>
          <outerBoundaryIs>
            <LinearRing>
              <coordinates>-165.0,-35.5,0 -160.0,-34.5,0 -160.0,-36.0,0 -165.0,-37.0,0 -165.0,-35.5,0</coordinates>
            </LinearRing>
          </outerBoundaryIs>
        </Polygon>
      </MultiGeometry>
    </Placemark>
    <Placemark>
      <name>HYDROPAC 2435/26</name>
      <description>260022Z AUG 26  HYDROPAC 2435/26.  SOUTH PACIFIC.  NEW ZEALAND.  1. HAZARDOUS OPERATIONS, ROCKET LAUNCHING      0345Z TO 1330Z DAILY 31 AUG THRU 14 SEP     IN AREA BOUND BY     39-12.00S 177-48.00E, 39-12.00S 177-57.00E,     39-06.00S 178-30.00E, 39-18.00S 178-30.00E,     39-24.00S 177-48.00E.  2. CANCEL THIS MSG 141430Z SEP 26.</description>
      <Polygon>
        <outerBoundaryIs>
          <LinearRing>
            <coordinates>177.8,-39.2,0 177.95,-39.2,0 178.5,-39.1,0 178.5,-39.3,0 177.8,-39.4,0 177.8,-39.2,0</coordinates>
          </LinearRing>
        </outerBoundaryIs>
      </Polygon>
    </Placemark>
    <Placemark>
      <name>NAVAREA IV 825/26</name>
      <description>241921Z AUG 26  NAVAREA IV 825/26.  NORTH ATLANTIC.  FLORIDA.  1. HAZARDOUS OPERATIONS, ROCKET LAUNCHING      301110Z TO 301216Z AUG, ALTERNATE     311110Z TO 311216Z AUG, 011107Z TO 011214Z,     021104Z TO 021211Z, 031104Z TO 031211Z,     041101Z TO 041208Z AND 051056Z TO 051203Z SEP     IN AREAS BOUND BY:     A. 32-38.00N 067-27.00W, 33-34.00N 064-52.00W,        33-24.00N 063-48.00W, 33-12.00N 063-44.00W,        32-44.00N 064-13.00W, 32-27.00N 067-24.00W.     B. 29-35.00N 078-19.00W, 30-08.00N</description>
      <MultiGeometry>
        <Polygon>
          <outerBoundaryIs>
            <LinearRing>
              <coordinates>-67.45,32.633333,0 -64.866667,33.566667,0 -63.8,33.4,0 -63.733333,33.2,0 -64.216667,32.733333,0 -67.4,32.45,0 -67.45,32.633333,0</coordinates>
            </LinearRing>
          </outerBoundaryIs>
        </Polygon>
        <Polygon>
          <outerBoundaryIs>
            <LinearRing>
              <coordinates>-78.316667,29.583333,0 -77.283333,30.133333,0 -76.55,30.166667,0 -76.5,30.05,0 -77.066667,29.683333,0 -78.25,29.45,0 -78.316667,29.583333,0</coordinates>
            </LinearRing>
          </outerBoundaryIs>
        </Polygon>
        <Polygon>
          <outerBoundaryIs>
            <LinearRing>
              <coordinates>-80.665,28.686667,0 -80.45,28.783333,0 -80.016667,28.95,0 -79.8,28.966667,0 -79.883333,28.833333,0 -80.183333,28.566667,0 -80.522833,28.457,0 -80.665,28.686667,0</coordinates>
            </LinearRing>
          </outerBoundaryIs>
        </Polygon>
      </MultiGeometry>
    </Placemark>
    <Placemark>
      <name>HYDROPAC 2456/26</name>
      <description>271158Z AUG 26  HYDROPAC 2456/26.  SOUTH PACIFIC.  NEW ZEALAND.  1. HAZARDOUS OPERATIONS, ROCKET LAUNCHING      012112Z TO 012157Z SEP IN AREA BOUND BY     28-47.00S 172-56.00W, 28-41.00S 168-50.00W,     29-36.00S 162-44.00W, 29-40.00S 167-03.00W.  2. CANCEL THIS MSG 012257Z SEP 26.</description>
      <Polygon>
        <outerBoundaryIs>
          <LinearRing>
            <coordinates>-172.933333,-28.783333,0 -168.833333,-28.683333,0 -162.733333,-29.6,0 -167.05,-29.666667,0 -172.933333,-28.783333,0</coordinates>
          </LinearRing>
        </outerBoundaryIs>
      </Polygon>
    </Placemark>
  </Document>
</kml>