<?xml version='1.0' encoding='UTF-8'?>
<kml xmlns="http://www.opengis.net/kml/2.2">
  <Document>
    <name>Maritime Warnings</name>
    <Placemark>
      <name>NAVAREA IV 755/26</name>
      <description>050309Z AUG 26  NAVAREA IV 755/26.  NORTH ATLANTIC.  FLORIDA.  1. HAZARDOUS OPERATIONS, ROCKET LAUNCHING      101449Z TO 101931Z AUG, ALTERNATE     111426Z TO 111908Z, 121404Z TO 121846Z,      131342Z TO 131824Z, 141319Z TO 141801Z,      151257Z TO 151739Z AND 161235Z TO 161717Z AUG     IN AREAS BOUND BY:     A. 31-37.00N 077-09.00W, 32-23.00N 076-52.00W,        33-08.00N 075-40.00W, 33-12.00N 075-13.00W,        32-54.00N 074-58.00W, 32-36.00N 075-02.00W,        31-51.00N 076-13.00W, 31-32.00N 0</description>
      <MultiGeometry>
        <Polygon>
          <outerBoundaryIs>
            <LinearRing>
              <coordinates>-77.15,31.616667,0 -76.866667,32.383333,0 -75.666667,33.133333,0 -75.216667,33.2,0 -74.966667,32.9,0 -75.033333,32.6,0 -76.216667,31.85,0 -77.05,31.533333,0 -77.15,31.616667,0</coordinates>
            </LinearRing>
          </outerBoundaryIs>
        </Polygon>
        <Polygon>
          <outerBoundaryIs>
            <LinearRing>
              <coordinates>-80.630333,28.653,0 -80.233333,29.0,0 -80.083333,28.883333,0 -80.542,28.490333,0 -80.630333,28.653,0</coordinates>
            </LinearRing>
          </outerBoundaryIs>
        </Polygon>
      </MultiGeometry>
    </Placemark>
    <Placemark>
      <name>NAVAREA XII 529/26</name>
      <description>050015Z AUG 26  NAVAREA XII 529/26.  NORTH PACIFIC.  CALIFORNIA.  1. HAZARDOUS OPERATIONS, ROCKET LAUNCHING:     A. 061400Z TO 061852Z AUG, ALTERNATE         1400Z TO 1852Z DAILY 07 THRU 12 AUG        IN AREA BOUND BY        34-29.00N 120-29.00W, 34-40.00N 120-37.00W,        34-38.00N 120-42.00W, 33-49.00N 120-55.00W,        29-13.00N 121-56.00W, 29-13.00N 121-36.00W.     B. 061400Z TO 161843Z AUG, ALTERNATE        1400Z TO 1843Z DAILY 07 THRU 12 AUG        IN AREA BOUND BY        29-13.00N 121-</description>
      <MultiGeometry>
        <Polygon>
          <outerBoundaryIs>
            <LinearRing>
              <coordinates>-120.483333,34.483333,0 -120.616667,34.666667,0 -120.7,34.633333,0 -120.916667,33.816667,0 -121.933333,29.216667,0 -121.6,29.216667,0 -120.483333,34.483333,0</coordinates>
            </LinearRing>
          </outerBoundaryIs>
        </Polygon>
        <Polygon>
          <outerBoundaryIs>
            <LinearRing>
              <coordinates>-121.516667,29.216667,0 -122.05,29.216667,0 -122.233333,28.816667,0 -122.1,27.683333,0 -121.416667,28.7,0 -121.516667,29.216667,0</coordinates>
            </LinearRing>
          </outerBoundaryIs>
        </Polygon>
      </MultiGeometry>
    </Placemark>
    <Placemark>
      <name>HYDROLANT 237/26(54)</name>
      <description>031744Z FEB 26  HYDROLANT 237/26(54).  AEGEAN SEA.  DNC 09.  1. MISSILE OPERATIONS 0530Z TO SUNSET DAILY EVERY     WEDNESDAY THRU SATURDAY UNTIL 14 JUN AND     16 SEB THRU 31 DEC IN AREAS:     A. BOUND BY        35-36.00N 024-07.00E, 36-18.00N 024-07.00E,        36-18.00N 025-59.00E, 36-25.00N 026-12.00E,        36-16.00N 026-40.00E, 35-36.00N 026-41.00E,        35-31.00N 024-11.00E.     B. WITHIN ONE MILE OF 35-32.00N 024-13.00E.     C. WITHIN ONE MILE OF 35-36.33N 024-10.00E.  2. CANCEL THIS M</description>
      <MultiGeometry>
        <Polygon>
          <outerBoundaryIs>
            <LinearRing>
              <coordinates>24.116667,35.6,0 24.116667,36.3,0 25.983333,36.3,0 26.2,36.416667,0 26.666667,36.266667,0 26.683333,35.6,0 24.183333,35.516667,0 24.116667,35.6,0</coordinates>
            </LinearRing>
          </outerBoundaryIs>
        </Polygon>
        <Polygon>
          <outerBoundaryIs>
            <LinearRing>
              <coordinates>24.216667,35.533333,0</coordinates>
            </LinearRing>
          </outerBoundaryIs>
        </Polygon>
        <Polygon>
          <outerBoundaryIs>
            <LinearRing>
              <coordinates>24.166667,35.6055,0</coordinates>
            </LinearRing>
          </outerBoundaryIs>
        </Polygon>
      </MultiGeometry>
    </Placemark>
    <Placemark>
      <name>HYDROPAC 2235/26</name>
      <description>021629Z AUG 26  HYDROPAC 2235/26.  EASTERN INDIAN OCEAN.  SOUTH PACIFIC.  1. HAZARDOUS OPERATIONS, SPACE DEBRIS      101709Z TO 102205Z, 111646Z TO 112142Z,       121624Z TO 122120Z, 131602Z TO 132058Z,       141539Z TO 142035Z, 151517Z TO 152013Z,       AND 161455Z TO 161951Z AUG IN AREA BOUND BY     48-02.00S 159-55.00E, 47-11.00S 158-59.00E,     51-17.00S 115-27.00E, 39-52.00S 082-05.00E,     41-36.00S 080-09.00E, 53-37.00S 114-28.00E,     49-27.00S 159-48.00E.  2. CANCEL THIS MSG 162051Z AUG</description>
      <Polygon>
        <outerBoundaryIs>
          <LinearRing>
            <coordinates>159.916667,-48.033333,0 158.983333,-47.183333,0 115.45,-51.283333,0 82.083333,-39.866667,0 80.15,-41.6,0 114.466667,-53.616667,0 159.8,-49.45,0 159.916667,-48.033333,0</coordinates>
          </LinearRing>
        </outerBoundaryIs>
      </Polygon>
    </Placemark>
    <Placemark>
      <name>HYDROPAC 2211/26</name>
      <description>311948Z JUL 26  HYDROPAC 2211/26.  SOUTH PACIFIC.  1. HAZARDOUS OPERATIONS, SPACE DEBRIS     1543Z TO 2029Z DAILY 08 THRU 14 AUG     IN AREA BOUND BY     25-23.00S 156-56.00W, 26-03.00S 153-24.00W,      43-04.00S 157-03.00W, 59-49.00S 163-34.00W,      59-13.00S 168-58.00W, 42-28.00S 161-17.00W.  2. CANCEL THIS MSG 142129Z AUG 26.</description>
      <Polygon>
        <outerBoundaryIs>
          <LinearRing>
            <coordinates>-156.933333,-25.383333,0 -153.4,-26.05,0 -157.05,-43.066667,0 -163.566667,-59.816667,0 -168.966667,-59.216667,0 -161.283333,-42.466667,0 -156.933333,-25.383333,0</coordinates>
          </LinearRing>
        </outerBoundaryIs>
      </Polygon>
    </Placemark>
    <Placemark>
      <name>HYDROPAC 2185/26</name>
      <description>292317Z JUL 26  HYDROPAC 2185/26.  SOUTH PACIFIC.  1. HAZARDOUS OPERATIONS, SPACE DEBRIS     0200Z TO 1115Z DAILY 05 THRU 18 AUG     IN AREAS BOUND BY:     A. 39-42.00S 176-36.00W, 40-30.00S 170-54.00W,        41-54.00S 171-06.00W, 41-00.00S 177-12.00W.     B. 41-24.00S 161-42.00W, 41-18.00S 155-54.00W,        42-42.00S 155-48.00W, 42-48.00S 161-54.00W.  2. CANCEL THIS MSG 181215Z AUG 26.</description>
      <MultiGeometry>
        <Polygon>
          <outerBoundaryIs>
            <LinearRing>
              <coordinates>-176.6,-39.7,0 -170.9,-40.5,0 -171.1,-41.9,0 -177.2,-41.0,0 -176.6,-39.7,0</coordinates>
            </LinearRing>
          </outerBoundaryIs>
        </Polygon>
        <Polygon>
          <outerBoundaryIs>
            <LinearRing>
              <coordinates>-161.7,-41.4,0 -155.9,-41.3,0 -155.8,-42.7,0 -161.9,-42.8,0 -161.7,-41.4,0</coordinates>
            </LinearRing>
          </outerBoundaryIs>
        </Polygon>
      </MultiGeometry>
    </Placemark>
  </Document>
</kml>