<?xml version='1.0' encoding='UTF-8'?>
<kml xmlns="http://www.opengis.net/kml/2.2">
  <Document>
    <name>Maritime Warnings</name>
    <Placemark>
      <name>NAVAREA IV 806/26</name>
      <description>190742Z AUG 26  NAVAREA IV 806/26.  NORTH ATLANTIC.  FLORIDA.  1. HAZARDOUS OPERATIONS, ROCKET LAUNCHING      250549Z TO 251032Z AUG, ALTERNATE      260852Z TO 261335Z, 270830Z TO 271313Z,      280808Z TO 281251Z, 290745Z TO 291228Z,      300723Z TO 301206Z AND      310701Z TO 311144Z AUG IN AREAS BOUND BY:     A. 31-34.00N 077-10.00W, 32-23.00N 076-52.00W,        33-08.00N 075-40.00W, 33-12.00N 075-13.00W,        32-54.00N 074-58.00W, 32-39.00N 074-57.00W,        31-51.00N 076-13.00W, 31-31.00N</description>
      <MultiGeometry>
        <Polygon>
          <outerBoundaryIs>
            <LinearRing>
              <coordinates>-77.166667,31.566667,0 -76.866667,32.383333,0 -75.666667,33.133333,0 -75.216667,33.2,0 -74.966667,32.9,0 -74.95,32.65,0 -76.216667,31.85,0 -77.1,31.516667,0 -77.166667,31.566667,0</coordinates>
            </LinearRing>
          </outerBoundaryIs>
        </Polygon>
        <Polygon>
          <outerBoundaryIs>
            <LinearRing>
              <coordinates>-80.630333,28.653,0 -80.066667,29.15,0 -79.95,29.05,0 -80.542,28.490333,0 -80.630333,28.653,0</coordinates>
            </LinearRing>
          </outerBoundaryIs>
        </Polygon>
      </MultiGeometry>
    </Placemark>
    <Placemark>
      <name>NAVAREA IV 803/26</name>
      <description>190136Z AUG 26  NAVAREA IV 803/26.  NORTH ATLANTIC.  FLORIDA.  1. HAZARDOUS OPERATIONS, ROCKET LAUNCHING      201519Z TO 202001Z AUG, ALTERNATE     211457Z TO 211939Z, 221435Z TO 221917Z,     231412Z TO 231854Z, 241350Z TO 241832Z,     251328Z TO 251810Z AND     261305Z TO 261747Z AUG IN AREAS BOUND BY:     A. 31-37.00N 077-09.00W, 32-23.00N 076-52.00W,        33-08.00N 075-40.00W, 33-12.00N 075-13.00W,        32-54.00N 074-58.00W, 32-36.00N 075-02.00W,        31-51.00N 076-13.00W, 31-32.00N 077</description>
      <MultiGeometry>
        <Polygon>
          <outerBoundaryIs>
            <LinearRing>
              <coordinates>-77.15,31.616667,0 -76.866667,32.383333,0 -75.666667,33.133333,0 -75.216667,33.2,0 -74.966667,32.9,0 -75.033333,32.6,0 -76.216667,31.85,0 -77.05,31.533333,0 -77.15,31.616667,0</coordinates>
            </LinearRing>
          </outerBoundaryIs>
        </Polygon>
        <Polygon>
          <outerBoundaryIs>
            <LinearRing>
              <coordinates>-80.630333,28.653,0 -80.233333,29.0,0 -80.083333,28.883333,0 -80.542,28.490333,0 -80.630333,28.653,0</coordinates>
            </LinearRing>
          </outerBoundaryIs>
        </Polygon>
      </MultiGeometry>
    </Placemark>
    <Placemark>
      <name>NAVAREA XII 563/26</name>
      <description>200537Z AUG 26  NAVAREA XII 563/26.  NORTH PACIFIC.  CALIFORNIA.  1. HAZARDOUS OPERATIONS, ROCKET LAUNCHING:      A. 250942Z TO 251405Z AUG, ALTERNATE        260927Z TO 261350Z, 270913Z TO 271336Z,        280858Z TO 281321Z, 290844Z TO 291307Z,        300830Z TO 301253Z AND        310815Z TO 311238Z AUG IN AREA BOUND BY        34-28.00N 120-21.00W, 34-40.00N 120-37.00W,        34-39.00N 120-39.00W, 34-34.00N 120-39.00W,        34-19.00N 120-34.00W, 33-04.00N 119-51.00W,        32-20.00N 119-20.0</description>
      <MultiGeometry>
        <Polygon>
          <outerBoundaryIs>
            <LinearRing>
              <coordinates>-120.35,34.466667,0 -120.616667,34.666667,0 -120.65,34.65,0 -120.65,34.566667,0 -120.566667,34.316667,0 -119.85,33.066667,0 -119.333333,32.333333,0 -119.3,32.35,0 -119.616667,33.05,0 -120.35,34.466667,0</coordinates>
            </LinearRing>
          </outerBoundaryIs>
        </Polygon>
        <Polygon>
          <outerBoundaryIs>
            <LinearRing>
              <coordinates>-117.65,29.8,0 -118.816667,31.333333,0 -118.833333,31.316667,0 -118.65,30.6,0 -118.366667,29.9,0 -118.133333,29.4,0 -117.65,29.8,0</coordinates>
            </LinearRing>
          </outerBoundaryIs>
        </Polygon>
        <Polygon>
          <outerBoundaryIs>
            <LinearRing>
              <coordinates>-117.65,29.8,0 -118.133333,29.4,0 -118.033333,29.25,0 -117.983333,29.033333,0 -117.35,28.216667,0 -117.266667,29.6,0 -117.65,29.8,0</coordinates>
            </LinearRing>
          </outerBoundaryIs>
        </Polygon>
      </MultiGeometry>
    </Placemark>
    <Placemark>
      <name>NAVAREA XII 558/26</name>
      <description>130156Z AUG 26  NAVAREA XII 558/26.  NORTH PACIFIC.  CALIFORNIA.  1. HAZARDOUS OPERATIONS, ROCKET LAUNCHING:     A. 220725Z TO 221148Z AUG, ALTERNATE        230711Z TO 231134Z, 240656Z TO 241119Z,        250920Z TO 251343Z, 260906Z TO 261329Z,        270851Z TO 271314Z AND         280837Z TO 281300Z AUG IN AREA BOUND BY        34-28.00N 120-21.00W, 34-40.00N 120-37.00W,        34-39.00N 120-39.00W, 34-34.00N 120-39.00W,        34-19.00N 120-34.00W, 33-04.00N 119-51.00W,        32-20.00N 119-20.0</description>
      <MultiGeometry>
        <Polygon>
          <outerBoundaryIs>
            <LinearRing>
              <coordinates>-120.35,34.466667,0 -120.616667,34.666667,0 -120.65,34.65,0 -120.65,34.566667,0 -120.566667,34.316667,0 -119.85,33.066667,0 -119.333333,32.333333,0 -119.3,32.35,0 -119.616667,33.05,0 -120.35,34.466667,0</coordinates>
            </LinearRing>
          </outerBoundaryIs>
        </Polygon>
        <Polygon>
          <outerBoundaryIs>
            <LinearRing>
              <coordinates>-117.65,29.8,0 -118.816667,31.333333,0 -118.833333,31.316667,0 -118.65,30.6,0 -118.366667,29.9,0 -118.133333,29.4,0 -117.65,29.8,0</coordinates>
            </LinearRing>
          </outerBoundaryIs>
        </Polygon>
        <Polygon>
          <outerBoundaryIs>
            <LinearRing>
              <coordinates>-117.65,29.8,0 -118.133333,29.4,0 -118.033333,29.25,0 -117.983333,29.033333,0 -117.35,28.216667,0 -117.266667,29.6,0 -117.65,29.8,0</coordinates>
            </LinearRing>
          </outerBoundaryIs>
        </Polygon>
      </MultiGeometry>
    </Placemark>
    <Placemark>
      <name>NAVAREA XII 540/26</name>
      <description>100530Z AUG 26  NAVAREA XII 540/26.  NORTH PACIFIC.  1. HAZARDOUS OPERATIONS, SPACE DEBRIS     2100Z TO 1800Z DAILY 13 THRU 26 AUG     IN AREAS BOUND BY:     A. 33-06.05N 128-42.07W, 32-50.48N 127-12.42W,        28-19.72N 128-15.70W, 28-36.02N 129-37.43W.     B. 38-46.77N 172-48.63W, 38-15.70N 170-15.70W,        31-07.28N 172-31.87W, 31-32.10N 174-48.60W.  2. CANCEL THIS MSG 271900Z AUG 26.</description>
      <MultiGeometry>
        <Polygon>
          <outerBoundaryIs>
            <LinearRing>
              <coordinates>-128.701167,33.100833,0 -127.207,32.841333,0 -128.261667,28.328667,0 -129.623833,28.600333,0 -128.701167,33.100833,0</coordinates>
            </LinearRing>
          </outerBoundaryIs>
        </Polygon>
        <Polygon>
          <outerBoundaryIs>
            <LinearRing>
              <coordinates>-172.8105,38.7795,0 -170.261667,38.261667,0 -172.531167,31.121333,0 -174.81,31.535,0 -172.8105,38.7795,0</coordinates>
            </LinearRing>
          </outerBoundaryIs>
        </Polygon>
      </MultiGeometry>
    </Placemark>
    <Placemark>
      <name>HYDROLANT 1569/26</name>
      <description>140058Z AUG 26  HYDROLANT 1569/26.  SOUTH ATLANTIC.  BRAZIL.  1. HAZARDOUS OPERATIONS, SPACE DEBRIS     181300Z TO 282130Z AUG IN AREA BOUND BY     02-16.27S 044-22.65W, 02-14.29S 044-20.98W,     00-28.51S 043-53.40W, 01-36.26S 042-17.77W,     02-17.69S 044-17.52W, 02-22.08S 044-20.92W,     02-22.12S 044-22.31W, 02-21.30S 044-22.37W,     02-20.41S 044-21.42W.  2. CANCEL THIS MSG 282230Z AUG 26.</description>
      <Polygon>
        <outerBoundaryIs>
          <LinearRing>
            <coordinates>-44.3775,-2.271167,0 -44.349667,-2.238167,0 -43.89,-0.475167,0 -42.296167,-1.604333,0 -44.292,-2.294833,0 -44.348667,-2.368,0 -44.371833,-2.368667,0 -44.372833,-2.355,0 -44.357,-2.340167,0 -44.3775,-2.271167,0</coordinates>
          </LinearRing>
        </outerBoundaryIs>
      </Polygon>
    </Placemark>
    <Placemark>
      <name>HYDROLANT 237/26(54)</name>
      <description>031744Z FEB 26  HYDROLANT 237/26(54).  AEGEAN SEA.  DNC 09.  1. MISSILE OPERATIONS 0530Z TO SUNSET DAILY EVERY     WEDNESDAY THRU SATURDAY UNTIL 14 JUN AND     16 SEB THRU 31 DEC IN AREAS:     A. BOUND BY        35-36.00N 024-07.00E, 36-18.00N 024-07.00E,        36-18.00N 025-59.00E, 36-25.00N 026-12.00E,        36-16.00N 026-40.00E, 35-36.00N 026-41.00E,        35-31.00N 024-11.00E.     B. WITHIN ONE MILE OF 35-32.00N 024-13.00E.     C. WITHIN ONE MILE OF 35-36.33N 024-10.00E.  2. CANCEL THIS M</description>
      <MultiGeometry>
        <Polygon>
          <outerBoundaryIs>
            <LinearRing>
              <coordinates>24.116667,35.6,0 24.116667,36.3,0 25.983333,36.3,0 26.2,36.416667,0 26.666667,36.266667,0 26.683333,35.6,0 24.183333,35.516667,0 24.116667,35.6,0</coordinates>
            </LinearRing>
          </outerBoundaryIs>
        </Polygon>
        <Polygon>
          <outerBoundaryIs>
            <LinearRing>
              <coordinates>24.216667,35.533333,0</coordinates>
            </LinearRing>
          </outerBoundaryIs>
        </Polygon>
        <Polygon>
          <outerBoundaryIs>
            <LinearRing>
              <coordinates>24.166667,35.6055,0</coordinates>
            </LinearRing>
          </outerBoundaryIs>
        </Polygon>
      </MultiGeometry>
    </Placemark>
    <Placemark>
      <name>HYDROPAC 2395/26</name>
      <description>201210Z AUG 26  HYDROPAC 2395/26  SEA OF JAPAN.  RUSSIA.  1. MISSILE OPERATIONS 1400Z TO 0800Z DAILY     25 THRU 30 AUG IN AREA BOUND BY     42-43.90N 132-50.60E, 42-30.50N 133-14.00E,     41-24.40N 133-11.30E, 41-21.20N 132-24.60E,     42-21.60N 132-08.00E, 42-48.30N 132-28.50E,     42-51.50N 132-30.80E.  2. CANCEL THIS MSG 310900Z AUG 26.</description>
      <Polygon>
        <outerBoundaryIs>
          <LinearRing>
            <coordinates>132.843333,42.731667,0 133.233333,42.508333,0 133.188333,41.406667,0 132.41,41.353333,0 132.133333,42.36,0 132.475,42.805,0 132.513333,42.858333,0 132.843333,42.731667,0</coordinates>
          </LinearRing>
        </outerBoundaryIs>
      </Polygon>
    </Placemark>
    <Placemark>
      <name>HYDROPAC 2392/26</name>
      <description>201038Z AUG 26  HYDROPAC 2392/26  SOUTH PACIFIC.  1. HAZARDOUS OPERATIONS, SPACE DEBRIS     1002Z TO 1607Z DAILY 25 THRU 31 AUG     IN AREA BOUND BY     27-59.00S 122-44.00W, 27-09.00S 120-43.00W,     38-21.00S 115-04.00W, 49-09.00S 107-22.00W,     59-09.00S 095-34.00W, 59-58.00S 099-05.00W,     44-34.00S 114-13.00W.  2. CANCEL HYDROPAC 2389/26.  3. CANCEL THIS MSG 311707Z AUG 26.</description>
      <Polygon>
        <outerBoundaryIs>
          <LinearRing>
            <coordinates>-122.733333,-27.983333,0 -120.716667,-27.15,0 -115.066667,-38.35,0 -107.366667,-49.15,0 -95.566667,-59.15,0 -99.083333,-59.966667,0 -114.216667,-44.566667,0 -122.733333,-27.983333,0</coordinates>
          </LinearRing>
        </outerBoundaryIs>
      </Polygon>
    </Placemark>
    <Placemark>
      <name>HYDROPAC 2388/26</name>
      <description>170739Z AUG 26  HYDROPAC 2388/26.  EASTERN INDIAN OCEAN.  SOUTH PACIFIC.  TASMAN SEA.  1. HAZARDOUS OPERATIONS, SPACE DEBRIS     250809Z TO 251305Z, 261112Z TO 261608Z,      271050Z TO 271546Z, 281028Z TO 281524Z,      291005Z TO 291501Z, 300943Z TO 301439Z      AND 310921Z TO 311417Z AUG     IN AREA BOUND BY     39-52.00S 082-05.00E, 46-48.00S 097-01.00E,     51-17.00S 115-27.00E, 51-19.00S 138-10.00E,     47-11.00S 158-59.00E, 48-02.00S 159-55.00E,     49-27.00S 159-48.00E, 53-45.00S 138-13.00</description>
      <Polygon>
        <outerBoundaryIs>
          <LinearRing>
            <coordinates>82.083333,-39.866667,0 97.016667,-46.8,0 115.45,-51.283333,0 138.166667,-51.316667,0 158.983333,-47.183333,0 159.916667,-48.033333,0 159.8,-49.45,0 138.216667,-53.75,0 114.466667,-53.616667,0 95.283333,-48.883333,0 80.15,-41.6,0 82.083333,-39.866667,0</coordinates>
          </LinearRing>
        </outerBoundaryIs>
      </Polygon>
    </Placemark>
    <Placemark>
      <name>HYDROPAC 2383/26</name>
      <description>191329Z AUG 26  HYDROPAC 2383/26.  NORTH PACIFIC.  1. HAZARDOUS OPERATIONS, ROCKET LAUNCHING      2200Z TO 1300Z DAILY 23 AND 29 AUG IN AREA      WITHIN 25 MILES OF 31-14.14N 144-26.48E.  2. CANCEL THIS MSG 301400Z AUG 26.</description>
      <Polygon>
        <outerBoundaryIs>
          <LinearRing>
            <coordinates>144.441333,31.235667,0</coordinates>
          </LinearRing>
        </outerBoundaryIs>
      </Polygon>
    </Placemark>
    <Placemark>
      <name>HYDROPAC 2356/26</name>
      <description>140859Z AUG 26  HYDROPAC 2356/26.  SOUTH PACIFIC.  1. HAZARDOUS OPERATIONS, SPACE DEBRIS     220912Z TO 221350Z, 230858Z TO 231336Z,      240843Z TO 241321Z, 251107Z TO 251545Z,      261053Z TO 261531Z, 271038Z TO 271516Z      AND 281024Z TO 281502Z AUG     IN AREA BOUND BY     27-59.00S 122-44.00W, 27-09.00S 120-43.00W,     38-21.00S 115-04.00W, 49-09.00S 107-22.00W,     59-09.00S 095-34.00W, 59-58.00S 099-05.00W,     44-34.00S 114-13.00W.  2. CANCEL THIS MSG 281602Z AUG 26.</description>
      <Polygon>
        <outerBoundaryIs>
          <LinearRing>
            <coordinates>-122.733333,-27.983333,0 -120.716667,-27.15,0 -115.066667,-38.35,0 -107.366667,-49.15,0 -95.566667,-59.15,0 -99.083333,-59.966667,0 -114.216667,-44.566667,0 -122.733333,-27.983333,0</coordinates>
          </LinearRing>
        </outerBoundaryIs>
      </Polygon>
    </Placemark>
    <Placemark>
      <name>HYDROPAC 2341/26</name>
      <description>150302Z AUG 26  HYDROPAC 2341/26.  EASTERN INDIAN OCEAN.  SOUTH PACIFIC.  TASMAN SEA.  1. HAZARDOUS OPERATIONS, SPACE DEBRIS     201739Z TO 202235Z, 211717Z TO 212213Z,     221655Z TO 222151Z, 231632Z TO 232128Z,     241610Z TO 242106Z, 251548Z TO 252044Z     AND 261525Z TO 262021Z AUG     IN AREA BOUND BY     39-52.00S 082-05.00E, 46-48.00S 097-01.00E,     51-17.00S 115-27.00E, 51-19.00S 138-10.00E,     47-11.00S 158-59.00E, 48-02.00S 159-55.00E,     49-27.00S 159-48.00E, 53-45.00S 138-13.00E, </description>
      <Polygon>
        <outerBoundaryIs>
          <LinearRing>
            <coordinates>82.083333,-39.866667,0 97.016667,-46.8,0 115.45,-51.283333,0 138.166667,-51.316667,0 158.983333,-47.183333,0 159.916667,-48.033333,0 159.8,-49.45,0 138.216667,-53.75,0 114.466667,-53.616667,0 95.283333,-48.883333,0 80.15,-41.6,0 82.083333,-39.866667,0</coordinates>
          </LinearRing>
        </outerBoundaryIs>
      </Polygon>
    </Placemark>
    <Placemark>
      <name>HYDROPAC 2289/26</name>
      <description>100808Z AUG 26  HYDROPAC 2289/26.  SOUTH PACIFIC.  1. HAZARDOUS OPERATIONS, SPACE DEBRIS     2100Z TO 1800Z DAILY 13 THRU 26 AUG     IN AREAS BOUND BY:     A. 59-42.60S 165-49.20E, 59-42.60S 180-00.00E,        62-33.00S 180-00.00E, 62-33.00S 162-33.60E.     B. 59-42.60S 180-00.00W, 58-39.87S 161-41.05W,        57-28.80S 126-01.20W, 60-23.40S 122-04.80W,        61-31.90S 161-16.02W, 62-33.00S 180-00.00W.  2. CANCEL THIS MSG 271900Z AUG 26.</description>
      <MultiGeometry>
        <Polygon>
          <outerBoundaryIs>
            <LinearRing>
              <coordinates>165.82,-59.71,0 180.0,-59.71,0 180.0,-62.55,0 162.56,-62.55,0 165.82,-59.71,0</coordinates>
            </LinearRing>
          </outerBoundaryIs>
        </Polygon>
        <Polygon>
          <outerBoundaryIs>
            <LinearRing>
              <coordinates>-180.0,-59.71,0 -161.684167,-58.6645,0 -126.02,-57.48,0 -122.08,-60.39,0 -161.267,-61.531667,0 -180.0,-62.55,0 -180.0,-59.71,0</coordinates>
            </LinearRing>
          </outerBoundaryIs>
        </Polygon>
      </MultiGeometry>
    </Placemark>
    <Placemark>
      <name>HYDROARC 178/26</name>
      <description>200038Z AUG 26  HYDROARC 178/26.  BARENTS SEA.  RUSSIA.  1. HAZARDOUS OPERATIONS, ROCKET LAUNCHING     202100Z TO 202359Z, 0001Z TO 1800Z AND     2100Z TO 2359Z DAILY 21 THRU 29 AND     300001Z TO 301800Z IN AREAS BOUND BY:     A. 70-13.00N 045-43.00E, 70-02.00N 047-12.00E,        68-49.00N 045-50.00E, 69-00.00N 044-27.00E.     B. 77-52.00N 061-55.00E, 77-37.00N 063-39.00E,        76-39.00N 060-30.00E, 76-56.00N 058-52.00E.  2. CANCEL THIS MSG 301900Z AUG 26.</description>
      <MultiGeometry>
        <Polygon>
          <outerBoundaryIs>
            <LinearRing>
              <coordinates>45.716667,70.216667,0 47.2,70.033333,0 45.833333,68.816667,0 44.45,69.0,0 45.716667,70.216667,0</coordinates>
            </LinearRing>
          </outerBoundaryIs>
        </Polygon>
        <Polygon>
          <outerBoundaryIs>
            <LinearRing>
              <coordinates>61.916667,77.866667,0 63.65,77.616667,0 60.5,76.65,0 58.866667,76.933333,0 61.916667,77.866667,0</coordinates>
            </LinearRing>
          </outerBoundaryIs>
        </Polygon>
      </MultiGeometry>
    </Placemark>
    <Placemark>
      <name>HYDROARC 175/26</name>
      <description>181756Z AUG 26  HYDROARC 175/26.  BARENTS SEA.  RUSSIA.  1. HAZARDOUS OPERATIONS, ROCKET LAUNCHING      232100Z TO 240001Z, 0001Z TO 1800Z AND      2100Z TO 0001Z DAILY 24 THRU 29 AND      300000Z TO 301800Z AUG IN AREA BOUND BY     68-44.00N 049-49.00E, 68-30.00N 050-37.00E,     67-56.00N 049-25.00E, 67-52.00N 048-48.00E,     68-01.00N 048-18.00E.  2. CANCEL THIS MSG 301900Z AUG 26.</description>
      <Polygon>
        <outerBoundaryIs>
          <LinearRing>
            <coordinates>49.816667,68.733333,0 50.616667,68.5,0 49.416667,67.933333,0 48.8,67.866667,0 48.3,68.016667,0 49.816667,68.733333,0</coordinates>
          </LinearRing>
        </outerBoundaryIs>
      </Polygon>
    </Placemark>
    <Placemark>
      <name>HYDROARC 168/26</name>
      <description>122001Z AUG 26  HYDROARC 168/26.  BARENTS SEA.  RUSSIA.  1. HAZARDOUS OPERATIONS, ROCKET LAUNCHING      132100Z TO 132359Z, 0001Z TO 1800Z AND     2100Z TO 2359Z DAILY 14 THRU 26 AND     270001Z TO 271800Z AUG IN AREAS BOUND BY:     A. 69-17.00N 051-14.00E, 69-01.00N 052-02.00E,        68-19.00N 050-27.00E, 68-33.00N 049-48.00E.     B. 70-33.94N 032-36.68E, 70-46.27N 033-52.16E,        69-45.82N 035-13.22E, 69-34.82N 033-57.43E.     C. 72-47.18N 029-27.88E, 73-01.54N 030-54.23E,        71-53.17N</description>
      <MultiGeometry>
        <Polygon>
          <outerBoundaryIs>
            <LinearRing>
              <coordinates>51.233333,69.283333,0 52.033333,69.016667,0 50.45,68.316667,0 49.8,68.55,0 51.233333,69.283333,0</coordinates>
            </LinearRing>
          </outerBoundaryIs>
        </Polygon>
        <Polygon>
          <outerBoundaryIs>
            <LinearRing>
              <coordinates>32.611333,70.565667,0 33.869333,70.771167,0 35.220333,69.763667,0 33.957167,69.580333,0 32.611333,70.565667,0</coordinates>
            </LinearRing>
          </outerBoundaryIs>
        </Polygon>
        <Polygon>
          <outerBoundaryIs>
            <LinearRing>
              <coordinates>29.464667,72.786333,0 30.903833,73.025667,0 32.914333,71.886167,0 31.420333,71.659667,0 29.464667,72.786333,0</coordinates>
            </LinearRing>
          </outerBoundaryIs>
        </Polygon>
      </MultiGeometry>
    </Placemark>
  </Document>
</kml>