<?xml version='1.0' encoding='UTF-8'?>
<kml xmlns="http://www.opengis.net/kml/2.2">
  <Document>
    <name>Maritime Warnings</name>
    <Placemark>
      <name>NAVAREA IV 951/26</name>
      <description>301435Z SEP 26  NAVAREA IV 951/26  NORTH ATLANTIC.  FLORIDA.  1. HAZARDOUS OPERATIONS, ROCKET LAUNCHING      011500Z TO 011550Z OCT, ALTERNATE      021438Z TO 021528Z, 031415Z TO 031505Z,     041352Z TO 041442Z, 051330Z TO 051420Z,     061304Z TO 061354Z, 071242Z TO 071332Z OCT     IN AREAS BOUND BY:     A. 30-43.00N 078-30.00W, 31-53.00N 077-11.00W,        31-43.00N 076-57.00W, 30-31.00N 078-19.00W.        B. 28-39.38N 080-37.95W, 28-43.23N 080-32.73W,        28-51.00N 080-24.00W, 28-51.00N 080</description>
      <MultiGeometry>
        <Polygon>
          <outerBoundaryIs>
            <LinearRing>
              <coordinates>-78.5,30.716667,0 -77.183333,31.883333,0 -76.95,31.716667,0 -78.316667,30.516667,0 -78.5,30.716667,0</coordinates>
            </LinearRing>
          </outerBoundaryIs>
        </Polygon>
        <Polygon>
          <outerBoundaryIs>
            <LinearRing>
              <coordinates>-80.6325,28.656333,0 -80.5455,28.7205,0 -80.4,28.85,0 -80.3,28.85,0 -80.266667,28.833333,0 -80.266667,28.733333,0 -80.45,28.55,0 -80.5505,28.508333,0 -80.6325,28.656333,0</coordinates>
            </LinearRing>
          </outerBoundaryIs>
        </Polygon>
      </MultiGeometry>
    </Placemark>
    <Placemark>
      <name>NAVAREA IV 870/26</name>
      <description>021815Z SEP 26  NAVAREA IV 870/26.  NORTH ATLANTIC.  FRENCH GUIANA.  1. HAZARDOUS OPERATIONS, SPACE DEBRIS     0111Z TO 0151Z DAILY 15 SEP THRU 15 OCT     IN AREA BOUND BY     05-48.00N 052-54.00W, 05-50.55N 052-26.40W,     05-12.60N 052-40.98W, 05-23.46N 052-53.80W.  2. CANCEL THIS MSG 150251Z OCT 26.</description>
      <Polygon>
        <outerBoundaryIs>
          <LinearRing>
            <coordinates>-52.9,5.8,0 -52.44,5.8425,0 -52.683,5.21,0 -52.896667,5.391,0 -52.9,5.8,0</coordinates>
          </LinearRing>
        </outerBoundaryIs>
      </Polygon>
    </Placemark>
    <Placemark>
      <name>NAVAREA XII 693/26</name>
      <description>252011Z SEP 26  NAVAREA XII 693/26.  NORTH PACIFIC.  1. HAZARDOUS OPERATIONS, SPACE DEBRIS     1050Z TO 0030Z DAILY 05 THRU 19 OCT     IN AREAS BOUND BY:     A. 33-47.00N 119-15.00W, 33-45.00N 119-18.00W,        33-36.00N 119-18.00W, 33-33.00N 119-14.00W,        33-33.00N 119-07.00W, 33-37.00N 119-02.00W,        33-45.00N 119-02.00W, 33-47.00N 119-05.00W.     B. 38-19.00N 125-59.00W, 38-57.00N 128-05.00W,        41-11.00N 132-05.00W, 44-07.00N 138-25.00W,        45-30.00N 137-21.00W, 42-30.00N 1</description>
      <MultiGeometry>
        <Polygon>
          <outerBoundaryIs>
            <LinearRing>
              <coordinates>-119.25,33.783333,0 -119.3,33.75,0 -119.3,33.6,0 -119.233333,33.55,0 -119.116667,33.55,0 -119.033333,33.616667,0 -119.033333,33.75,0 -119.083333,33.783333,0 -119.25,33.783333,0</coordinates>
            </LinearRing>
          </outerBoundaryIs>
        </Polygon>
        <Polygon>
          <outerBoundaryIs>
            <LinearRing>
              <coordinates>-125.983333,38.316667,0 -128.083333,38.95,0 -132.083333,41.183333,0 -138.416667,44.116667,0 -137.35,45.5,0 -130.916667,42.5,0 -126.883333,40.216667,0 -125.566667,38.733333,0 -125.983333,38.316667,0</coordinates>
            </LinearRing>
          </outerBoundaryIs>
        </Polygon>
        <Polygon>
          <outerBoundaryIs>
            <LinearRing>
              <coordinates>-124.916667,28.266667,0 -125.8,26.65,0 -128.583333,23.8,0 -132.4,19.55,0 -133.65,20.6,0 -129.85,24.866667,0 -127.05,27.75,0 -125.35,28.65,0 -124.916667,28.266667,0</coordinates>
            </LinearRing>
          </outerBoundaryIs>
        </Polygon>
        <Polygon>
          <outerBoundaryIs>
            <LinearRing>
              <coordinates>-117.833333,33.116667,0 -117.9,33.083333,0 -117.9,32.933333,0 -117.833333,32.883333,0 -117.716667,32.883333,0 -117.633333,32.95,0 -117.633333,33.083333,0 -117.683333,33.116667,0 -117.833333,33.116667,0</coordinates>
            </LinearRing>
          </outerBoundaryIs>
        </Polygon>
        <Polygon>
          <outerBoundaryIs>
            <LinearRing>
              <coordinates>-124.466667,37.7,0 -126.533333,38.366667,0 -130.483333,40.65,0 -136.683333,43.633333,0 -135.6,45.0,0 -129.316667,41.95,0 -125.333333,39.616667,0 -124.05,38.133333,0 -124.466667,37.7,0</coordinates>
            </LinearRing>
          </outerBoundaryIs>
        </Polygon>
        <Polygon>
          <outerBoundaryIs>
            <LinearRing>
              <coordinates>-123.416667,27.55,0 -124.283333,25.933333,0 -127.033333,23.066667,0 -130.8,18.8,0 -132.05,19.85,0 -128.3,24.133333,0 -125.533333,27.033333,0 -123.85,27.933333,0 -123.416667,27.55,0</coordinates>
            </LinearRing>
          </outerBoundaryIs>
        </Polygon>
        <Polygon>
          <outerBoundaryIs>
            <LinearRing>
              <coordinates>-117.8,32.7,0 -117.85,32.666667,0 -117.85,32.516667,0 -117.783333,32.466667,0 -117.666667,32.466667,0 -117.583333,32.533333,0 -117.583333,32.666667,0 -117.633333,32.7,0 -117.8,32.7,0</coordinates>
            </LinearRing>
          </outerBoundaryIs>
        </Polygon>
        <Polygon>
          <outerBoundaryIs>
            <LinearRing>
              <coordinates>-124.35,37.333333,0 -126.416667,38.0,0 -130.316667,40.3,0 -136.45,43.333333,0 -135.35,44.7,0 -129.133333,41.6,0 -125.2,39.25,0 -123.933333,37.75,0 -124.35,37.333333,0</coordinates>
            </LinearRing>
          </outerBoundaryIs>
        </Polygon>
        <Polygon>
          <outerBoundaryIs>
            <LinearRing>
              <coordinates>-123.316667,27.116667,0 -124.166667,25.5,0 -126.9,22.616667,0 -130.65,18.35,0 -131.9,19.383333,0 -128.166667,23.683333,0 -125.433333,26.583333,0 -123.75,27.5,0 -123.316667,27.116667,0</coordinates>
            </LinearRing>
          </outerBoundaryIs>
        </Polygon>
      </MultiGeometry>
    </Placemark>
    <Placemark>
      <name>NAVAREA XII 677/26</name>
      <description>240857Z SEP 26  NAVAREA XII 677/26.  NORTH PACIFIC.  1. HAZARDOUS OPERATIONS, SPACE DEBRIS     020730Z TO 020907Z, 030725Z TO 030902Z,      040721Z TO 040858Z, 050716Z TO 050853Z,      060712Z TO 060848Z, 070707Z TO 070844Z      AND 080703Z TO 080839Z OCT     IN AREA BOUND BY     37-56.00N 129-26.00W, 36-33.00N 127-15.00W,     31-01.00N 132-34.00W, 32-24.00N 134-37.00W.  2. CANCEL THIS MSG 080939Z OCT 26.</description>
      <Polygon>
        <outerBoundaryIs>
          <LinearRing>
            <coordinates>-129.433333,37.933333,0 -127.25,36.55,0 -132.566667,31.016667,0 -134.616667,32.4,0 -129.433333,37.933333,0</coordinates>
          </LinearRing>
        </outerBoundaryIs>
      </Polygon>
    </Placemark>
    <Placemark>
      <name>NAVAREA XII 671/26</name>
      <description>250925Z SEP 26  NAVAREA XII 671/26.  NORTH PACIFIC.  CALIFORNIA.  1. HAZARDOUS OPERATIONS, ROCKET LAUNCHING:      A. 050806Z TO 050852Z OCT, ALTERNATE         060759Z TO 060845Z, 070751Z TO 070837Z,         080744Z TO 080830Z, 090736Z TO 090822Z,         100729Z TO 100815Z AND         110721Z TO 110807Z OCT IN AREA BOUND BY        30-23.00N 119-52.00W, 31-20.00N 120-03.00W,        32-32.00N 120-14.00W, 34-33.00N 120-42.00W,        34-40.00N 120-38.00W, 34-38.00N 120-27.00W,        32-30.00N 120-</description>
      <MultiGeometry>
        <Polygon>
          <outerBoundaryIs>
            <LinearRing>
              <coordinates>-119.866667,30.383333,0 -120.05,31.333333,0 -120.233333,32.533333,0 -120.7,34.55,0 -120.633333,34.666667,0 -120.45,34.633333,0 -120.15,32.5,0 -119.8,30.683333,0 -119.816667,30.4,0 -119.866667,30.383333,0</coordinates>
            </LinearRing>
          </outerBoundaryIs>
        </Polygon>
        <Polygon>
          <outerBoundaryIs>
            <LinearRing>
              <coordinates>-119.933333,30.35,0 -119.516667,30.333333,0 -118.816667,29.783333,0 -118.75,29.416667,0 -119.266667,28.916667,0 -119.683333,28.933333,0 -120.383333,29.5,0 -120.45,29.866667,0 -119.933333,30.35,0</coordinates>
            </LinearRing>
          </outerBoundaryIs>
        </Polygon>
      </MultiGeometry>
    </Placemark>
    <Placemark>
      <name>HYDROLANT 1944/26</name>
      <description>301657Z SEP 26  HYDROLANT 1944/26  BAY OF BISCAY.  CELTIC SEA.  NORTH ATLANTIC.  FRANCE.  1. MISSILE OPERATIONS 0001Z TO 1100Z DAILY     04 THRU 21 OCT IN AREAS BOUND BY:     A. 46-16.38N 023-35.45W, 46-59.73N 019-44.15W,        45-07.98N 019-44.15W, 44-26.03N 022-49.63W.     B. 47-44.70N 005-23.50W, 47-48.72N 004-31.00W,        47-39.00N 004-01.00W, 47-21.72N 004-09.58W,        47-16.47N 005-17.68W.     C. 47-24.10N 009-51.67W, 47-31.00N 008-28.28W,        47-08.48N 008-24.55W, 47-01.62N 009-47</description>
      <MultiGeometry>
        <Polygon>
          <outerBoundaryIs>
            <LinearRing>
              <coordinates>-23.590833,46.273,0 -19.735833,46.9955,0 -19.735833,45.133,0 -22.827167,44.433833,0 -23.590833,46.273,0</coordinates>
            </LinearRing>
          </outerBoundaryIs>
        </Polygon>
        <Polygon>
          <outerBoundaryIs>
            <LinearRing>
              <coordinates>-5.391667,47.745,0 -4.516667,47.812,0 -4.016667,47.65,0 -4.159667,47.362,0 -5.294667,47.2745,0 -5.391667,47.745,0</coordinates>
            </LinearRing>
          </outerBoundaryIs>
        </Polygon>
        <Polygon>
          <outerBoundaryIs>
            <LinearRing>
              <coordinates>-9.861167,47.401667,0 -8.471333,47.516667,0 -8.409167,47.141333,0 -9.789167,47.027,0 -9.861167,47.401667,0</coordinates>
            </LinearRing>
          </outerBoundaryIs>
        </Polygon>
        <Polygon>
          <outerBoundaryIs>
            <LinearRing>
              <coordinates>-8.471333,47.516667,0 -5.391667,47.745,0 -5.294667,47.2745,0 -8.409167,47.141333,0 -8.471333,47.516667,0</coordinates>
            </LinearRing>
          </outerBoundaryIs>
        </Polygon>
        <Polygon>
          <outerBoundaryIs>
            <LinearRing>
              <coordinates>-34.911333,42.972167,0 -32.333667,43.7695,0 -31.812,42.822833,0 -34.358,42.0375,0 -34.911333,42.972167,0</coordinates>
            </LinearRing>
          </outerBoundaryIs>
        </Polygon>
      </MultiGeometry>
    </Placemark>
    <Placemark>
      <name>HYDROLANT 1935/26</name>
      <description>270824Z SEP 26  HYDROLANT 1935/26.  SOUTH ATLANTIC.  1. HAZARDOUS OPERATIONS, SPACE DEBRIS     051028Z TO 051123Z, 061021Z TO 061116Z,     071013Z TO 071108Z, 081006Z TO 081101Z,     090958Z TO 091053Z, 100951Z TO 101046Z     AND 110943Z TO 111038Z OCT     IN AREA BOUND BY     38-18.00S 018-00.00E, 38-00.00S 027-00.00E,     49-02.00S 025-15.00E, 60-00.00S 022-30.00E,     59-00.00S 010-00.00E, 48-44.00S 014-50.00E.  2. CANCEL THIS MSG 111138Z OCT 26.</description>
      <Polygon>
        <outerBoundaryIs>
          <LinearRing>
            <coordinates>18.0,-38.3,0 27.0,-38.0,0 25.25,-49.033333,0 22.5,-60.0,0 10.0,-59.0,0 14.833333,-48.733333,0 18.0,-38.3,0</coordinates>
          </LinearRing>
        </outerBoundaryIs>
      </Polygon>
    </Placemark>
    <Placemark>
      <name>HYDROLANT 237/26(54)</name>
      <description>031744Z FEB 26  HYDROLANT 237/26(54).  AEGEAN SEA.  DNC 09.  1. MISSILE OPERATIONS 0530Z TO SUNSET DAILY EVERY     WEDNESDAY THRU SATURDAY UNTIL 14 JUN AND     16 SEB THRU 31 DEC IN AREAS:     A. BOUND BY        35-36.00N 024-07.00E, 36-18.00N 024-07.00E,        36-18.00N 025-59.00E, 36-25.00N 026-12.00E,        36-16.00N 026-40.00E, 35-36.00N 026-41.00E,        35-31.00N 024-11.00E.     B. WITHIN ONE MILE OF 35-32.00N 024-13.00E.     C. WITHIN ONE MILE OF 35-36.33N 024-10.00E.  2. CANCEL THIS M</description>
      <MultiGeometry>
        <Polygon>
          <outerBoundaryIs>
            <LinearRing>
              <coordinates>24.116667,35.6,0 24.116667,36.3,0 25.983333,36.3,0 26.2,36.416667,0 26.666667,36.266667,0 26.683333,35.6,0 24.183333,35.516667,0 24.116667,35.6,0</coordinates>
            </LinearRing>
          </outerBoundaryIs>
        </Polygon>
        <Polygon>
          <outerBoundaryIs>
            <LinearRing>
              <coordinates>24.216667,35.533333,0</coordinates>
            </LinearRing>
          </outerBoundaryIs>
        </Polygon>
        <Polygon>
          <outerBoundaryIs>
            <LinearRing>
              <coordinates>24.166667,35.6055,0</coordinates>
            </LinearRing>
          </outerBoundaryIs>
        </Polygon>
      </MultiGeometry>
    </Placemark>
    <Placemark>
      <name>HYDROPAC 2862/26</name>
      <description>021205Z OCT 26  HYDROPAC 2862/26.  NORTH PACIFIC.  PHILIPPINE SEA.  1. HAZARDOUS OPERATIONS, ROCKET LAUNCHING      070333Z TO 070453Z OCT, ALTERNATE     0328Z TO 0443Z DAILY 08 AND 14 OCT     IN AREAS BOUND BY:     A. 21-29.63N 128-41.38E, 21-37.99N 129-53.83E,        18-29.72N 130-17.60E, 18-21.37N 129-06.56E.     B. 12-45.04N 129-26.03E, 12-55.28N 131-04.99E,        08-14.81N 131-34.22E, 08-04.55N 129-56.77E.  2. CANCEL THIS MSG 140543Z OCT 26.</description>
      <MultiGeometry>
        <Polygon>
          <outerBoundaryIs>
            <LinearRing>
              <coordinates>128.689667,21.493833,0 129.897167,21.633167,0 130.293333,18.495333,0 129.109333,18.356167,0 128.689667,21.493833,0</coordinates>
            </LinearRing>
          </outerBoundaryIs>
        </Polygon>
        <Polygon>
          <outerBoundaryIs>
            <LinearRing>
              <coordinates>129.433833,12.750667,0 131.083167,12.921333,0 131.570333,8.246833,0 129.946167,8.075833,0 129.433833,12.750667,0</coordinates>
            </LinearRing>
          </outerBoundaryIs>
        </Polygon>
      </MultiGeometry>
    </Placemark>
    <Placemark>
      <name>HYDROPAC 2860/26</name>
      <description>020916Z OCT 26  HYDROPAC 2860/26.  NORTH PACIFIC.  SEA OF OKHOTSK.  KAMCHATKA.  1. MISSILE OPERATIONS 1400Z TO 0900Z      DAILY 05 THRU 15 OCT IN AREA BOUND BY     56-34.00N 154-14.00E, 56-34.00N 156-18.20E,     55-44.00N 155-32.00E, 52-35.00N 155-32.00E,     52-13.10N 158-25.00E, 52-54.30N 159-42.00E,     52-46.00N 160-30.00E, 51-40.00N 160-30.00E,     50-24.90N 158-53.10E, 49-23.50N 157-28.50E,     50-13.60N 156-03.00E, 51-30.10N 158-03.10E,     52-06.00N 154-14.00E.  2. CANCEL HYDROPAC 2845/2</description>
      <Polygon>
        <outerBoundaryIs>
          <LinearRing>
            <coordinates>154.233333,56.566667,0 156.303333,56.566667,0 155.533333,55.733333,0 155.533333,52.583333,0 158.416667,52.218333,0 159.7,52.905,0 160.5,52.766667,0 160.5,51.666667,0 158.885,50.415,0 157.475,49.391667,0 156.05,50.226667,0 158.051667,51.501667,0 154.233333,52.1,0 154.233333,56.566667,0</coordinates>
          </LinearRing>
        </outerBoundaryIs>
      </Polygon>
    </Placemark>
    <Placemark>
      <name>HYDROPAC 2828/26</name>
      <description>270824Z SEP 26  HYDROPAC 2828/26.  SOUTH ATLANTIC.  1. HAZARDOUS OPERATIONS, SPACE DEBRIS     051028Z TO 051123Z, 061021Z TO 061116Z,     071013Z TO 071108Z, 081006Z TO 081101Z,     090958Z TO 091053Z, 100951Z TO 101046Z     AND 110943Z TO 111038Z OCT     IN AREA BOUND BY     38-18.00S 018-00.00E, 38-00.00S 027-00.00E,     49-02.00S 025-15.00E, 60-00.00S 022-30.00E,     59-00.00S 010-00.00E, 48-44.00S 014-50.00E.  2. CANCEL THIS MSG 111138Z OCT 26.</description>
      <Polygon>
        <outerBoundaryIs>
          <LinearRing>
            <coordinates>18.0,-38.3,0 27.0,-38.0,0 25.25,-49.033333,0 22.5,-60.0,0 10.0,-59.0,0 14.833333,-48.733333,0 18.0,-38.3,0</coordinates>
          </LinearRing>
        </outerBoundaryIs>
      </Polygon>
    </Placemark>
    <Placemark>
      <name>HYDROPAC 2791/26</name>
      <description>231936Z SEP 26  HYDROPAC 2791/26.  SOUTH PACIFIC.  1. HAZARDOUS OPERATIONS, SPACE DEBRIS     011606Z TO 011701Z, 021544Z TO 021639Z,     031521Z TO 031616Z, 041458Z TO 041553Z,     051436Z TO 051531Z, 061410Z TO 061505Z     AND 071348Z TO 071443Z OCT     IN AREA BOUND BY     27-06.00S 149-35.00W, 28-54.00S 148-00.00W,     37-08.00S 157-59.00W, 44-20.00S 170-14.00W,     42-41.00S 171-31.00W, 35-24.00S 159-30.00W.  2. CANCEL THIS MSG 071543Z OCT 26.</description>
      <Polygon>
        <outerBoundaryIs>
          <LinearRing>
            <coordinates>-149.583333,-27.1,0 -148.0,-28.9,0 -157.983333,-37.133333,0 -170.233333,-44.333333,0 -171.516667,-42.683333,0 -159.5,-35.4,0 -149.583333,-27.1,0</coordinates>
          </LinearRing>
        </outerBoundaryIs>
      </Polygon>
    </Placemark>
    <Placemark>
      <name>HYDROARC 272/26</name>
      <description>291822Z SEP 26  HYDROARC 272/26.  BARENTS SEA.  RUSSIA.  1. MISSILE OPERATIONS 051200Z TO 051500Z     AND 0400Z TO 1500Z DAILY 06 AND 07 OCT      IN AREA BOUND BY     70-07.00N 035-56.00E, 69-27.50N 036-07.00E,     69-29.00N 035-11.00E, 69-32.50N 033-14.00E,     69-41.00N 033-04.00E, 69-44.00N 033-04.00E,     69-53.00N 033-21.00E, 70-03.00N 035-02.00E.  2. CANCEL THIS MSG 071600Z OCT 26.</description>
      <Polygon>
        <outerBoundaryIs>
          <LinearRing>
            <coordinates>35.933333,70.116667,0 36.116667,69.458333,0 35.183333,69.483333,0 33.233333,69.541667,0 33.066667,69.683333,0 33.066667,69.733333,0 33.35,69.883333,0 35.033333,70.05,0 35.933333,70.116667,0</coordinates>
          </LinearRing>
        </outerBoundaryIs>
      </Polygon>
    </Placemark>
    <Placemark>
      <name>HYDROARC 271/26</name>
      <description>291827Z SEP 26  HYDROARC 271/26.  BARENTS SEA.  RUSSIA.  1. MISSILE OPERATIONS 040600Z TO 041400Z     AND 050400Z TO 051130Z OCT     IN AREA BOUND BY     69-58.00N 032-42.00E, 69-58.00N 033-49.50E,     69-36.50N 033-49.50E, 69-36.50N 032-59.50E,     69-48.00N 032-42.00E.  2. CANCEL THIS MSG 051230Z OCT 26.</description>
      <Polygon>
        <outerBoundaryIs>
          <LinearRing>
            <coordinates>32.7,69.966667,0 33.825,69.966667,0 33.825,69.608333,0 32.991667,69.608333,0 32.7,69.8,0 32.7,69.966667,0</coordinates>
          </LinearRing>
        </outerBoundaryIs>
      </Polygon>
    </Placemark>
    <Placemark>
      <name>HYDROARC 228/26</name>
      <description>101300Z SEP 26  HYDROARC 228/26.  ARCTIC.  1. HAZARDOUS OPERATIONS, ROCKET LAUNCHING      0128Z TO 0244Z DAILY 15 SEP THRU 15 OCT     IN AREA BOUND BY     77-06.00N 161-35.00E, 76-42.00N 163-41.00E,     81-06.00N 135-04.00W, 81-42.00N 134-18.00W.  2. CANCEL THIS MSG 150344Z OCT 26.</description>
      <Polygon>
        <outerBoundaryIs>
          <LinearRing>
            <coordinates>161.583333,77.1,0 163.683333,76.7,0 -135.066667,81.1,0 -134.3,81.7,0 161.583333,77.1,0</coordinates>
          </LinearRing>
        </outerBoundaryIs>
      </Polygon>
    </Placemark>
    <Placemark>
      <name>NAVAREA IV 952/26</name>
      <description>301637Z SEP 26  NAVAREA IV 952/26  NORTH ATLANTIC.  FLORIDA.  1. HAZARDOUS OPERATIONS, ROCKET LAUNCHING      020342Z TO 020525Z OCT, ALTERNATE      030338Z TO 030520Z, 040334Z TO 040516Z,     050329Z TO 050511Z, 06325Z TO 060506Z,     070320Z TO 070502Z, AND 080316Z TO 080457Z     IN AREAS BOUND BY:     A. 30-23.00N 079-06.00W, 31-01.00N 078-45.00W,        31-38.00N 077-53.00W, 31-28.00N 077-43.00W,        30-39.00N 078-10.00W, 30-11.00N 078-55.00W.        B. 28-39.87N 080-38.28W, 29-04.00N 080-</description>
      <MultiGeometry>
        <Polygon>
          <outerBoundaryIs>
            <LinearRing>
              <coordinates>-79.1,30.383333,0 -78.75,31.016667,0 -77.883333,31.633333,0 -77.716667,31.466667,0 -78.166667,30.65,0 -78.916667,30.183333,0 -79.1,30.383333,0</coordinates>
            </LinearRing>
          </outerBoundaryIs>
        </Polygon>
        <Polygon>
          <outerBoundaryIs>
            <LinearRing>
              <coordinates>-80.638,28.6645,0 -80.266667,29.066667,0 -80.116667,28.95,0 -80.4,28.466667,0 -80.529667,28.466667,0 -80.638,28.6645,0</coordinates>
            </LinearRing>
          </outerBoundaryIs>
        </Polygon>
        <Polygon>
          <outerBoundaryIs>
            <LinearRing>
              <coordinates>-71.616667,37.616667,0 -68.0,40.416667,0 -67.133333,39.8,0 -70.7,36.883333,0 -71.616667,37.616667,0</coordinates>
            </LinearRing>
          </outerBoundaryIs>
        </Polygon>
      </MultiGeometry>
    </Placemark>
    <Placemark>
      <name>NAVAREA XII 672/26</name>
      <description>201922Z SEP 26  NAVAREA XII 672/26.  NORTH PACIFIC.  CALIFORNIA.  1. HAZARDOUS OPERATIONS, ROCKET LAUNCHING:     A. 011808Z TO 011950Z OCT, ALTERNATE        1808Z TO 1950Z DAILY 02 THRU 07 OCT        IN AREA BOUND BY        34-27.00N 120-26.00W, 34-43.00N 120-36.00W,        34-36.00N 120-43.00W, 33-10.00N 120-58.00W,        30-42.00N 121-33.00W, 30-27.00N 121-36.00W,        30-27.00N 121-24.00W, 30-33.00N 121-19.00W,        30-43.00N 121-15.00W, 31-30.00N 121-12.00W,        33-08.00N 120-51.00W,</description>
      <MultiGeometry>
        <Polygon>
          <outerBoundaryIs>
            <LinearRing>
              <coordinates>-120.433333,34.45,0 -120.6,34.716667,0 -120.716667,34.6,0 -120.966667,33.166667,0 -121.55,30.7,0 -121.6,30.45,0 -121.4,30.45,0 -121.316667,30.55,0 -121.25,30.716667,0 -121.2,31.5,0 -120.85,33.133333,0 -120.75,33.15,0 -120.5,34.066667,0 -120.433333,34.45,0</coordinates>
            </LinearRing>
          </outerBoundaryIs>
        </Polygon>
        <Polygon>
          <outerBoundaryIs>
            <LinearRing>
              <coordinates>-121.7,30.466667,0 -121.4,30.45,0 -120.9,30.066667,0 -120.866667,29.816667,0 -121.216667,29.466667,0 -121.516667,29.483333,0 -122.0,29.866667,0 -122.05,30.116667,0 -121.7,30.466667,0</coordinates>
            </LinearRing>
          </outerBoundaryIs>
        </Polygon>
      </MultiGeometry>
    </Placemark>
    <Placemark>
      <name>HYDROPAC 2845/26</name>
      <description>010944Z OCT 26  HYDROPAC 2845/26.  NORTH PACIFIC.  SEA OF OKHOTSK.  KAMCHATKA.  1. MISSILE OPERATIONS 1400Z TO 0900Z      DAILY 05 THRU 16 OCT IN AREA BOUND BY     56-34.00N 154-14.00E, 56-34.00N 156-18.20E,     55-44.00N 155-32.00E, 52-35.00N 155-32.00E,     52-13.10N 158-25.00E, 52-54.30N 159-42.00E,     52-46.00N 160-30.00E, 51-40.00N 160-30.00E,     50-24.90N 158-53.10E, 49-23.50N 157-28.50E,     50-13.60N 156-03.00E, 51-30.10N 158-03.10E,     52-06.00N 154-14.00E, 56-34.00N 154-14.00E.  2. </description>
      <Polygon>
        <outerBoundaryIs>
          <LinearRing>
            <coordinates>154.233333,56.566667,0 156.303333,56.566667,0 155.533333,55.733333,0 155.533333,52.583333,0 158.416667,52.218333,0 159.7,52.905,0 160.5,52.766667,0 160.5,51.666667,0 158.885,50.415,0 157.475,49.391667,0 156.05,50.226667,0 158.051667,51.501667,0 154.233333,52.1,0 154.233333,56.566667,0</coordinates>
          </LinearRing>
        </outerBoundaryIs>
      </Polygon>
    </Placemark>
    <Placemark>
      <name>HYDROPAC 2790/26</name>
      <description>231957Z SEP 26  HYDROPAC 2790/26.  SOUTH PACIFIC.  1. HAZARDOUS OPERATIONS, SPACE DEBRIS     1958Z TO 2149Z DAILY 01 THRU 07 OCT     IN AREA BOUND BY     25-16.00S 157-18.00W, 25-41.00S 154-55.00W,     43-00.00S 158-36.00W, 60-00.00S 165-00.00W,     59-29.00S 170-11.00W, 42-29.00S 162-10.00W.  2. CANCEL THIS MSG 072249Z OCT 26.</description>
      <Polygon>
        <outerBoundaryIs>
          <LinearRing>
            <coordinates>-157.3,-25.266667,0 -154.916667,-25.683333,0 -158.6,-43.0,0 -165.0,-60.0,0 -170.183333,-59.483333,0 -162.166667,-42.483333,0 -157.3,-25.266667,0</coordinates>
          </LinearRing>
        </outerBoundaryIs>
      </Polygon>
    </Placemark>
    <Placemark>
      <name>NAVAREA IV 936/26</name>
      <description>260913Z SEP 26  NAVAREA IV 936/26.  NORTH ATLANTIC.  FLORIDA.  1. HAZARDOUS OPERATIONS, ROCKET LAUNCHING      020342Z TO 020525Z OCT, ALTERNATE      030338Z TO 030520Z, 040334Z TO 040516Z,     050329Z TO 050511Z, 06325Z TO 060506Z,     070320Z TO 070502Z, AND 080316Z TO 080457Z     IN AREAS BOUND BY:        A. 30-23.00N 079-06.00W, 31-01.00N 078-45.00W,           31-38.00N 077-53.00W, 31-28.00N 077-43.00W,           30-39.00N 078-10.00W, 30-11.00N 078-55.00W.        B. 28-39.52N 080-38.17W, 29-0</description>
      <MultiGeometry>
        <Polygon>
          <outerBoundaryIs>
            <LinearRing>
              <coordinates>-79.1,30.383333,0 -78.75,31.016667,0 -77.883333,31.633333,0 -77.716667,31.466667,0 -78.166667,30.65,0 -78.916667,30.183333,0 -79.1,30.383333,0</coordinates>
            </LinearRing>
          </outerBoundaryIs>
        </Polygon>
        <Polygon>
          <outerBoundaryIs>
            <LinearRing>
              <coordinates>-80.636167,28.658667,0 -80.266667,29.066667,0 -80.116667,28.95,0 -80.4,28.466667,0 -80.5245,28.466667,0 -80.636167,28.658667,0</coordinates>
            </LinearRing>
          </outerBoundaryIs>
        </Polygon>
        <Polygon>
          <outerBoundaryIs>
            <LinearRing>
              <coordinates>-71.616667,37.616667,0 -68.0,40.416667,0 -67.133333,39.8,0 -70.7,36.883333,0 -71.616667,37.616667,0</coordinates>
            </LinearRing>
          </outerBoundaryIs>
        </Polygon>
      </MultiGeometry>
    </Placemark>
    <Placemark>
      <name>NAVAREA IV 931/26</name>
      <description>251816Z SEP 26  NAVAREA IV 931/26.  NORTH ATLANTIC.  FLORIDA.  1. HAZARDOUS OPERATIONS, ROCKET LAUNCHING      011500Z TO 011550Z OCT, ALTERNATE      021438Z TO 021528Z, 031415Z TO 031505Z,     041352Z TO 041442Z, 051330Z TO 051420Z,     061304Z TO 061354Z, 071242Z TO 071332Z OCT     IN AREAS BOUND BY:     A. 30-43.00N 078-30.00W, 31-53.00N 077-11.00W,        31-43.00N 076-57.00W, 30-31.00N 078-19.00W.     B. 28-39.23N 080-37.57W, 28-43.14N 080-32.44W,        28-51.00N 080-24.00W, 28-51.00N 080-1</description>
      <MultiGeometry>
        <Polygon>
          <outerBoundaryIs>
            <LinearRing>
              <coordinates>-78.5,30.716667,0 -77.183333,31.883333,0 -76.95,31.716667,0 -78.316667,30.516667,0 -78.5,30.716667,0</coordinates>
            </LinearRing>
          </outerBoundaryIs>
        </Polygon>
        <Polygon>
          <outerBoundaryIs>
            <LinearRing>
              <coordinates>-80.626167,28.653833,0 -80.540667,28.719,0 -80.4,28.85,0 -80.3,28.85,0 -80.266667,28.833333,0 -80.266667,28.733333,0 -80.45,28.55,0 -80.553333,28.505,0 -80.626167,28.653833,0</coordinates>
            </LinearRing>
          </outerBoundaryIs>
        </Polygon>
      </MultiGeometry>
    </Placemark>
    <Placemark>
      <name>HYDROPAC 2750/26</name>
      <description>172059Z SEP 26  HYDROPAC 2750/26.  SOUTH PACIFIC.  FRENCH POLYNESIA.  PITCAIRN ISLANDS.  1. HAZARDOUS OPERATIONS, SPACE DEBRIS     2107Z TO 0108Z DAILY 28 SEP THRU 04 OCT     IN AREA BOUND BY     19-51.00S 149-00.00W, 19-23.00S 148-49.00W,     24-58.00S 133-10.00W, 26-10.00S 129-09.00W,     27-34.00S 123-03.00W, 28-11.00S 118-33.00W,     28-45.00S 112-39.00W, 28-18.00S 111-00.00W,     28-26.00S 103-26.00W, 26-55.00S 101-39.00W,     26-32.00S 099-12.00W, 25-17.00S 091-56.00W,     23-54.00S 083-47</description>
      <Polygon>
        <outerBoundaryIs>
          <LinearRing>
            <coordinates>-149.0,-19.85,0 -148.816667,-19.383333,0 -133.166667,-24.966667,0 -129.15,-26.166667,0 -123.05,-27.566667,0 -118.55,-28.183333,0 -112.65,-28.75,0 -111.0,-28.3,0 -103.433333,-28.433333,0 -101.65,-26.916667,0 -99.2,-26.533333,0 -91.933333,-25.283333,0 -83.783333,-23.9,0 -82.816667,-27.283333,0 -82.783333,-30.35,0 -85.566667,-31.033333,0 -87.566667,-30.633333,0 -93.1,-30.966667,0 -102.1,-31.516667,0 -106.883333,-31.25,0 -113.016667,-30.6,0 -119.3,-29.316667,0 -125.1,-28.1,0 -132.833333,-26.183333,0 -149.0,-19.85,0</coordinates>
          </LinearRing>
        </outerBoundaryIs>
      </Polygon>
    </Placemark>
    <Placemark>
      <name>NAVAREA IV 922/26</name>
      <description>172137Z SEP 26  NAVAREA IV 922/26.  GULF OF AMERICA.  YUCATAN CHANNEL.  TEXAS.  1. HAZARDOUS OPERATIONS, ROCKET LAUNCHING      281215Z TO 281414Z SEP, ALTERNATE      1215Z TO 1414Z DAILY 29 SEP THRU 04 OCT     IN AREAS BOUND BY:     A. 25-58.00N 097-13.00W, 26-02.00N 097-13.00W,        26-04.00N 097-10.00W, 26-04.00N 097-04.00W,        26-04.00N 096-49.00W, 26-01.00N 096-17.00W,        26-01.00N 095-12.00W, 25-59.00N 094-36.00W,        25-59.00N 094-05.00W, 25-25.00N 093-06.00W,        25-31.00N</description>
      <MultiGeometry>
        <Polygon>
          <outerBoundaryIs>
            <LinearRing>
              <coordinates>-97.216667,25.966667,0 -97.216667,26.033333,0 -97.166667,26.066667,0 -97.066667,26.066667,0 -96.816667,26.066667,0 -96.283333,26.016667,0 -95.2,26.016667,0 -94.6,25.983333,0 -94.083333,25.983333,0 -93.1,25.416667,0 -91.766667,25.516667,0 -88.866667,23.533333,0 -88.55,23.066667,0 -86.4,22.05,0 -84.983333,21.633333,0 -82.633333,20.983333,0 -81.7,20.716667,0 -79.733333,20.116667,0 -78.783333,19.766667,0 -78.066667,19.383333,0 -78.3,19.316667,0 -79.316667,19.566667,0 -79.733333,19.733333,0 -81.216667,20.2,0 -83.216667,20.716667,0 -84.9,21.1,0 -86.7,21.716667,0 -87.433333,21.983333,0 -89.166667,22.65,0 -89.683333,22.75,0 -92.6,22.966667,0 -95.033333,24.3,0 -96.816667,25.633333,0 -97.083333,25.8,0 -97.216667,25.966667,0</coordinates>
            </LinearRing>
          </outerBoundaryIs>
        </Polygon>
        <Polygon>
          <outerBoundaryIs>
            <LinearRing>
              <coordinates>-92.966667,25.2,0 -93.866667,25.516667,0 -95.4,25.7,0 -96.533333,26.033333,0 -96.816667,26.066667,0 -97.066667,26.066667,0 -97.166667,26.066667,0 -97.216667,26.033333,0 -97.216667,25.966667,0 -97.083333,25.8,0 -96.783333,25.683333,0 -95.083333,25.033333,0 -94.133333,24.483333,0 -93.533333,24.333333,0 -92.866667,24.416667,0 -92.716667,24.75,0 -92.966667,25.2,0</coordinates>
            </LinearRing>
          </outerBoundaryIs>
        </Polygon>
      </MultiGeometry>
    </Placemark>
    <Placemark>
      <name>NAVAREA XII 662/26</name>
      <description>191638Z SEP 26  NAVAREA XII 662/26.  NORTH PACIFIC.  CALIFORNIA.  1. HAZARDOUS OPERATIONS, ROCKET LAUNCHING:     A. 301600Z TO 302025Z SEP, ALTERNATE        1600Z TO 2025Z DAILY 01 THRU 06 OCT        IN AREA BOUND BY        29-48.00N 117-39.00W, 34-28.00N 120-18.00W,        34-40.00N 120-36.00W, 34-39.00N 120-39.00W,        34-30.00N 120-39.00W, 29-35.00N 118-12.00W,        29-52.00N 117-54.00W.     B. 301600Z TO 302043Z SEP, ALTERNATE        1600Z TO 2043Z DAILY 01 THRU 06 OCT        IN AREA BO</description>
      <MultiGeometry>
        <Polygon>
          <outerBoundaryIs>
            <LinearRing>
              <coordinates>-117.65,29.8,0 -120.3,34.466667,0 -120.6,34.666667,0 -120.65,34.65,0 -120.65,34.5,0 -118.2,29.583333,0 -117.9,29.866667,0 -117.65,29.8,0</coordinates>
            </LinearRing>
          </outerBoundaryIs>
        </Polygon>
        <Polygon>
          <outerBoundaryIs>
            <LinearRing>
              <coordinates>-117.65,29.8,0 -117.9,29.866667,0 -118.2,29.583333,0 -118.133333,29.4,0 -118.033333,29.25,0 -117.983333,29.033333,0 -117.316667,28.2,0 -117.316667,28.833333,0 -117.266667,29.6,0 -117.65,29.8,0</coordinates>
            </LinearRing>
          </outerBoundaryIs>
        </Polygon>
      </MultiGeometry>
    </Placemark>
    <Placemark>
      <name>NAVAREA XII 657/26</name>
      <description>231328Z SEP 26  NAVAREA XII 657/26.  NORTH PACIFIC.  1. HAZARDOUS OPERATIONS, SPACE DEBRIS     1427Z TO 1833Z DAILY 28 SEP THRU 04 OCT     IN AREA BOUND BY     23-55.00N 144-37.00E, 26-07.00N 151-14.00E,     27-41.00N 156-20.00E, 29-25.00N 165-03.00E,     30-26.00N 172-41.00E, 30-56.00N 180-00.00W,     31-11.00N 175-00.00W, 31-17.00N 171-29.00W,     30-33.00N 161-15.00W, 29-37.00N 155-40.00W,     28-49.00N 151-35.00W, 26-53.00N 145-26.00W,     26-50.00N 145-28.00W, 24-03.00N 154-32.00W,     23-4</description>
      <Polygon>
        <outerBoundaryIs>
          <LinearRing>
            <coordinates>144.616667,23.916667,0 151.233333,26.116667,0 156.333333,27.683333,0 165.05,29.416667,0 172.683333,30.433333,0 -180.0,30.933333,0 -175.0,31.183333,0 -171.483333,31.283333,0 -161.25,30.55,0 -155.666667,29.616667,0 -151.583333,28.816667,0 -145.433333,26.883333,0 -145.466667,26.833333,0 -154.533333,24.05,0 -156.183333,23.766667,0 -159.316667,24.866667,0 -167.816667,27.633333,0 -175.0,29.416667,0 -176.583333,29.75,0 -180.0,29.816667,0 176.233333,29.683333,0 170.166667,29.216667,0 164.983333,28.466667,0 156.25,26.65,0 144.8,23.466667,0 144.616667,23.916667,0</coordinates>
          </LinearRing>
        </outerBoundaryIs>
      </Polygon>
    </Placemark>
    <Placemark>
      <name>HYDROPAC 2761/26</name>
      <description>231328Z SEP 26  HYDROPAC 2761/26.  NORTH PACIFIC.  1. HAZARDOUS OPERATIONS, SPACE DEBRIS     1427Z TO 1833Z DAILY 28 SEP THRU 04 OCT     IN AREA BOUND BY     23-55.00N 144-37.00E, 26-07.00N 151-14.00E,     27-41.00N 156-20.00E, 29-25.00N 165-03.00E,     30-26.00N 172-41.00E, 30-56.00N 180-00.00W,     31-11.00N 175-00.00W, 31-17.00N 171-29.00W,     30-33.00N 161-15.00W, 29-37.00N 155-40.00W,     28-49.00N 151-35.00W, 26-53.00N 145-26.00W,     26-50.00N 145-28.00W, 24-03.00N 154-32.00W,     23-46.</description>
      <Polygon>
        <outerBoundaryIs>
          <LinearRing>
            <coordinates>144.616667,23.916667,0 151.233333,26.116667,0 156.333333,27.683333,0 165.05,29.416667,0 172.683333,30.433333,0 -180.0,30.933333,0 -175.0,31.183333,0 -171.483333,31.283333,0 -161.25,30.55,0 -155.666667,29.616667,0 -151.583333,28.816667,0 -145.433333,26.883333,0 -145.466667,26.833333,0 -154.533333,24.05,0 -156.183333,23.766667,0 -159.316667,24.866667,0 -167.816667,27.633333,0 -175.0,29.416667,0 -176.583333,29.75,0 -180.0,29.816667,0 176.233333,29.683333,0 170.166667,29.216667,0 164.983333,28.466667,0 156.25,26.65,0 144.8,23.466667,0 144.616667,23.916667,0</coordinates>
          </LinearRing>
        </outerBoundaryIs>
      </Polygon>
    </Placemark>
    <Placemark>
      <name>HYDROPAC 2751/26</name>
      <description>172233Z SEP 26  HYDROPAC 2751/26.  INDIAN OCEAN.  1. HAZARDOUS OPERATIONS, SPACE DEBRIS     1223Z TO 1447Z DAILY 28 SEP THRU 04 OCT     IN AREA BOUND BY     24-36.00S 072-06.00E, 23-03.00S 076-59.00E,     21-45.00S 080-57.00E, 18-56.00S 087-42.00E,     16-14.00S 093-37.00E, 15-16.00S 095-26.00E,     15-18.00S 095-31.00E, 15-25.00S 095-50.00E,     15-30.00S 096-12.00E, 15-34.00S 096-34.00E,     15-34.00S 097-02.00E, 15-33.00S 097-14.00E,     15-30.00S 097-33.00E, 15-28.00S 097-42.00E,     15-26.0</description>
      <Polygon>
        <outerBoundaryIs>
          <LinearRing>
            <coordinates>72.1,-24.6,0 76.983333,-23.05,0 80.95,-21.75,0 87.7,-18.933333,0 93.616667,-16.233333,0 95.433333,-15.266667,0 95.516667,-15.3,0 95.833333,-15.416667,0 96.2,-15.5,0 96.566667,-15.566667,0 97.033333,-15.566667,0 97.233333,-15.55,0 97.55,-15.5,0 97.7,-15.466667,0 97.833333,-15.433333,0 97.966667,-15.4,0 98.05,-15.366667,0 98.183333,-15.316667,0 98.233333,-15.3,0 98.516667,-15.933333,0 96.633333,-17.066667,0 91.033333,-19.933333,0 84.1,-23.033333,0 79.1,-24.983333,0 73.3,-27.066667,0 72.1,-24.6,0</coordinates>
          </LinearRing>
        </outerBoundaryIs>
      </Polygon>
    </Placemark>
    <Placemark>
      <name>HYDROPAC 2730/26</name>
      <description>210629Z SEP 26  HYDROPAC 2730/26.  SOUTH PACIFIC.  NEW ZEALAND.  1. HAZARDOUS OPERATIONS 1700Z TO 0200Z      DAILY 25 SEP THRU 07 OCT:     A. ROCKET LAUNCHING IN AREA BOUND BY        39-12.00S 177-42.00E, 39-10.80S 177-55.80E,        39-04.20S 178-18.00E, 39-22.80S 178-24.00E,        39-26.40S 177-48.00E.     B. SPACE DEBRIS IN AREA BOUND BY        37-45.60S 178-18.00W, 36-36.00S 172-48.00W,        38-33.00S 172-00.00W, 39-39.00S 177-40.20W.  2. CANCEL THIS MSG 080300Z OCT 26.</description>
      <MultiGeometry>
        <Polygon>
          <outerBoundaryIs>
            <LinearRing>
              <coordinates>177.7,-39.2,0 177.93,-39.18,0 178.3,-39.07,0 178.4,-39.38,0 177.8,-39.44,0 177.7,-39.2,0</coordinates>
            </LinearRing>
          </outerBoundaryIs>
        </Polygon>
        <Polygon>
          <outerBoundaryIs>
            <LinearRing>
              <coordinates>-178.3,-37.76,0 -172.8,-36.6,0 -172.0,-38.55,0 -177.67,-39.65,0 -178.3,-37.76,0</coordinates>
            </LinearRing>
          </outerBoundaryIs>
        </Polygon>
      </MultiGeometry>
    </Placemark>
    <Placemark>
      <name>HYDROPAC 2729/26</name>
      <description>210612Z SEP 26  HYDROPAC 2729/26.  SOUTH PACIFIC.  1. HAZARDOUS OPERATIONS, SPACE DEBRIS     1700Z TO 0200Z DAILY 25 SEP THRU 07 OCT     IN AREAS BOUND BY:     A. 37-45.60S 178-18.00W, 36-36.00S 172-48.00W,        38-33.00S 172-00.00W, 39-39.00S 177-40.20W.     B. 35-24.00S 167-00.00W, 33-48.00S 160-28.20W,        36-00.00S 159-30.00W, 37-36.00S 166-24.00W.  2. CANCEL THIS MSG 080300Z OCT 26.</description>
      <MultiGeometry>
        <Polygon>
          <outerBoundaryIs>
            <LinearRing>
              <coordinates>-178.3,-37.76,0 -172.8,-36.6,0 -172.0,-38.55,0 -177.67,-39.65,0 -178.3,-37.76,0</coordinates>
            </LinearRing>
          </outerBoundaryIs>
        </Polygon>
        <Polygon>
          <outerBoundaryIs>
            <LinearRing>
              <coordinates>-167.0,-35.4,0 -160.47,-33.8,0 -159.5,-36.0,0 -166.4,-37.6,0 -167.0,-35.4,0</coordinates>
            </LinearRing>
          </outerBoundaryIs>
        </Polygon>
      </MultiGeometry>
    </Placemark>
  </Document>
</kml>