<?xml version='1.0' encoding='UTF-8'?>
<kml xmlns="http://www.opengis.net/kml/2.2">
  <Document>
    <name>Maritime Warnings</name>
    <Placemark>
      <name>NAVAREA IV 897/26</name>
      <description>150802Z SEP 26  NAVAREA IV 897/26.  GULF OF AMERICA.  YUCATAN CHANNEL.  TEXAS.  1. HAZARDOUS OPERATIONS, ROCKET LAUNCHING      221215Z TO 221414Z SEP, ALTERNATE      1215Z TO 1414Z DAILY 23 THRU 28 SEP     IN AREAS BOUND BY:     A. 25-58.00N 097-13.00W, 26-02.00N 097-13.00W,        26-04.00N 097-10.00W, 26-04.00N 097-04.00W,        26-04.00N 096-49.00W, 26-01.00N 096-17.00W,        26-01.00N 095-12.00W, 25-59.00N 094-36.00W,        25-59.00N 094-05.00W, 25-25.00N 093-06.00W,        25-31.00N 091</description>
      <MultiGeometry>
        <Polygon>
          <outerBoundaryIs>
            <LinearRing>
              <coordinates>-97.216667,25.966667,0 -97.216667,26.033333,0 -97.166667,26.066667,0 -97.066667,26.066667,0 -96.816667,26.066667,0 -96.283333,26.016667,0 -95.2,26.016667,0 -94.6,25.983333,0 -94.083333,25.983333,0 -93.1,25.416667,0 -91.766667,25.516667,0 -88.866667,23.533333,0 -88.55,23.066667,0 -86.4,22.05,0 -84.983333,21.633333,0 -82.633333,20.983333,0 -81.7,20.716667,0 -79.733333,20.116667,0 -78.783333,19.766667,0 -78.066667,19.383333,0 -78.3,19.316667,0 -79.316667,19.566667,0 -79.733333,19.733333,0 -81.216667,20.2,0 -83.216667,20.716667,0 -84.9,21.1,0 -86.7,21.716667,0 -87.433333,21.983333,0 -89.166667,22.65,0 -89.683333,22.75,0 -92.6,22.966667,0 -95.033333,24.3,0 -96.816667,25.633333,0 -97.083333,25.8,0 -97.216667,25.966667,0</coordinates>
            </LinearRing>
          </outerBoundaryIs>
        </Polygon>
        <Polygon>
          <outerBoundaryIs>
            <LinearRing>
              <coordinates>-92.966667,25.2,0 -93.866667,25.516667,0 -95.4,25.7,0 -96.533333,26.033333,0 -96.816667,26.066667,0 -97.066667,26.066667,0 -97.166667,26.066667,0 -97.216667,26.033333,0 -97.216667,25.966667,0 -97.083333,25.8,0 -96.783333,25.683333,0 -95.083333,25.033333,0 -94.133333,24.483333,0 -93.533333,24.333333,0 -92.866667,24.416667,0 -92.716667,24.75,0 -92.966667,25.2,0</coordinates>
            </LinearRing>
          </outerBoundaryIs>
        </Polygon>
      </MultiGeometry>
    </Placemark>
    <Placemark>
      <name>NAVAREA IV 870/26</name>
      <description>021815Z SEP 26  NAVAREA IV 870/26.  NORTH ATLANTIC.  FRENCH GUIANA.  1. HAZARDOUS OPERATIONS, SPACE DEBRIS     0111Z TO 0151Z DAILY 15 SEP THRU 15 OCT     IN AREA BOUND BY     05-48.00N 052-54.00W, 05-50.55N 052-26.40W,     05-12.60N 052-40.98W, 05-23.46N 052-53.80W.  2. CANCEL THIS MSG 150251Z OCT 26.</description>
      <Polygon>
        <outerBoundaryIs>
          <LinearRing>
            <coordinates>-52.9,5.8,0 -52.44,5.8425,0 -52.683,5.21,0 -52.896667,5.391,0 -52.9,5.8,0</coordinates>
          </LinearRing>
        </outerBoundaryIs>
      </Polygon>
    </Placemark>
    <Placemark>
      <name>NAVAREA XII 637/26</name>
      <description>151951Z SEP 26  NAVAREA XII 637/26.  NORTH PACIFIC.  1. HAZARDOUS OPERATIONS, SPACE DEBRIS     1427Z TO 1833Z DAILY 22 THRU 28 SEP     IN AREAS BOUND BY:     A. 23-55.00N 144-37.00E, 26-07.00N 151-14.00E,        27-41.00N 156-20.00E, 29-25.00N 165-03.00E,        30-26.00N 172-41.00E, 29-41.00N 176-14.00E,        29-13.00N 170-10.00E, 28-28.00N 164-59.00E,        26-39.00N 156-15.00E, 23-28.00N 144-48.00E.     B. 23-46.00N 156-11.00W, 24-52.00N 159-19.00W,        27-38.00N 167-49.00W, 29-25.00N 1</description>
      <MultiGeometry>
        <Polygon>
          <outerBoundaryIs>
            <LinearRing>
              <coordinates>144.616667,23.916667,0 151.233333,26.116667,0 156.333333,27.683333,0 165.05,29.416667,0 172.683333,30.433333,0 176.233333,29.683333,0 170.166667,29.216667,0 164.983333,28.466667,0 156.25,26.65,0 144.8,23.466667,0 144.616667,23.916667,0</coordinates>
            </LinearRing>
          </outerBoundaryIs>
        </Polygon>
        <Polygon>
          <outerBoundaryIs>
            <LinearRing>
              <coordinates>-156.183333,23.766667,0 -159.316667,24.866667,0 -167.816667,27.633333,0 -175.0,29.416667,0 -176.583333,29.75,0 -180.0,29.816667,0 -180.0,30.933333,0 -175.0,31.183333,0 -171.483333,31.283333,0 -161.25,30.55,0 -155.666667,29.616667,0 -151.583333,28.816667,0 -145.433333,26.883333,0 -145.466667,26.833333,0 -154.533333,24.05,0 -156.183333,23.766667,0</coordinates>
            </LinearRing>
          </outerBoundaryIs>
        </Polygon>
      </MultiGeometry>
    </Placemark>
    <Placemark>
      <name>NAVAREA XII 629/26</name>
      <description>090625Z SEP 26  NAVAREA XII 629/26.  NORTH PACIFIC.  CALIFORNIA.  1. HAZARDOUS OPERATIONS, ROCKET LAUNCHING:      A. 200147Z TO 200612Z SEP, ALTERNATE         210133Z TO 210558Z, 220118Z TO 220543Z,         230104Z TO 230529Z, 240050Z TO 240515Z,         250035Z TO 250500Z AND         260021Z TO 260446Z SEP IN AREA BOUND BY        29-48.00N 117-39.00W, 34-28.00N 120-18.00W,        34-40.00N 120-36.00W, 34-39.00N 120-39.00W,        34-30.00N 120-39.00W, 29-35.00N 118-12.00W,        29-52.00N 117-</description>
      <MultiGeometry>
        <Polygon>
          <outerBoundaryIs>
            <LinearRing>
              <coordinates>-117.65,29.8,0 -120.3,34.466667,0 -120.6,34.666667,0 -120.65,34.65,0 -120.65,34.5,0 -118.2,29.583333,0 -117.9,29.866667,0 -117.65,29.8,0</coordinates>
            </LinearRing>
          </outerBoundaryIs>
        </Polygon>
        <Polygon>
          <outerBoundaryIs>
            <LinearRing>
              <coordinates>-117.65,29.8,0 -117.9,29.866667,0 -118.2,29.583333,0 -118.133333,29.4,0 -118.033333,29.25,0 -117.983333,29.033333,0 -117.316667,28.2,0 -117.316667,28.833333,0 -117.266667,29.6,0 -117.65,29.8,0</coordinates>
            </LinearRing>
          </outerBoundaryIs>
        </Polygon>
      </MultiGeometry>
    </Placemark>
    <Placemark>
      <name>NAVAREA XII 625/26</name>
      <description>110707Z SEP 26  NAVAREA XII 625/26.  NORTH PACIFIC.  CALIFORNIA.  1. HAZARDOUS OPERATIONS, ROCKET LAUNCHING:      A. 160100Z TO 160523Z SEP, ALTERNATE         0100Z TO 0523Z DAILY 17 THRU 22 SEP         IN AREA BOUND BY        32-01.00N 120-03.00W, 32-01.00N 120-00.00W,        33-22.00N 120-12.00W, 34-27.00N 120-23.00W,        34-40.00N 120-36.00W, 34-39.00N 120-40.00W,        34-20.00N 120-39.00W, 33-04.00N 120-20.00W.     B. 160100Z TO 160543Z SEP, ALTERNATE         0100Z TO 0543Z DAILY 17 THR</description>
      <MultiGeometry>
        <Polygon>
          <outerBoundaryIs>
            <LinearRing>
              <coordinates>-120.05,32.016667,0 -120.0,32.016667,0 -120.2,33.366667,0 -120.383333,34.45,0 -120.6,34.666667,0 -120.666667,34.65,0 -120.65,34.333333,0 -120.333333,33.066667,0 -120.05,32.016667,0</coordinates>
            </LinearRing>
          </outerBoundaryIs>
        </Polygon>
        <Polygon>
          <outerBoundaryIs>
            <LinearRing>
              <coordinates>-119.266667,27.666667,0 -119.883333,28.683333,0 -119.916667,28.95,0 -119.783333,30.75,0 -118.766667,28.916667,0 -118.716667,28.65,0 -119.266667,27.666667,0</coordinates>
            </LinearRing>
          </outerBoundaryIs>
        </Polygon>
      </MultiGeometry>
    </Placemark>
    <Placemark>
      <name>HYDROLANT 237/26(54)</name>
      <description>031744Z FEB 26  HYDROLANT 237/26(54).  AEGEAN SEA.  DNC 09.  1. MISSILE OPERATIONS 0530Z TO SUNSET DAILY EVERY     WEDNESDAY THRU SATURDAY UNTIL 14 JUN AND     16 SEB THRU 31 DEC IN AREAS:     A. BOUND BY        35-36.00N 024-07.00E, 36-18.00N 024-07.00E,        36-18.00N 025-59.00E, 36-25.00N 026-12.00E,        36-16.00N 026-40.00E, 35-36.00N 026-41.00E,        35-31.00N 024-11.00E.     B. WITHIN ONE MILE OF 35-32.00N 024-13.00E.     C. WITHIN ONE MILE OF 35-36.33N 024-10.00E.  2. CANCEL THIS M</description>
      <MultiGeometry>
        <Polygon>
          <outerBoundaryIs>
            <LinearRing>
              <coordinates>24.116667,35.6,0 24.116667,36.3,0 25.983333,36.3,0 26.2,36.416667,0 26.666667,36.266667,0 26.683333,35.6,0 24.183333,35.516667,0 24.116667,35.6,0</coordinates>
            </LinearRing>
          </outerBoundaryIs>
        </Polygon>
        <Polygon>
          <outerBoundaryIs>
            <LinearRing>
              <coordinates>24.216667,35.533333,0</coordinates>
            </LinearRing>
          </outerBoundaryIs>
        </Polygon>
        <Polygon>
          <outerBoundaryIs>
            <LinearRing>
              <coordinates>24.166667,35.6055,0</coordinates>
            </LinearRing>
          </outerBoundaryIs>
        </Polygon>
      </MultiGeometry>
    </Placemark>
    <Placemark>
      <name>HYDROPAC 2688/26</name>
      <description>151951Z SEP 26  HYDROPAC 2688/26.  NORTH PACIFIC.  1. HAZARDOUS OPERATIONS, SPACE DEBRIS     1427Z TO 1833Z DAILY 22 THRU 28 SEP     IN AREAS BOUND BY:     A. 23-55.00N 144-37.00E, 26-07.00N 151-14.00E,        27-41.00N 156-20.00E, 29-25.00N 165-03.00E,        30-26.00N 172-41.00E, 29-41.00N 176-14.00E,        29-13.00N 170-10.00E, 28-28.00N 164-59.00E,        26-39.00N 156-15.00E, 23-28.00N 144-48.00E.     B. 23-46.00N 156-11.00W, 24-52.00N 159-19.00W,        27-38.00N 167-49.00W, 29-25.00N 175</description>
      <MultiGeometry>
        <Polygon>
          <outerBoundaryIs>
            <LinearRing>
              <coordinates>144.616667,23.916667,0 151.233333,26.116667,0 156.333333,27.683333,0 165.05,29.416667,0 172.683333,30.433333,0 176.233333,29.683333,0 170.166667,29.216667,0 164.983333,28.466667,0 156.25,26.65,0 144.8,23.466667,0 144.616667,23.916667,0</coordinates>
            </LinearRing>
          </outerBoundaryIs>
        </Polygon>
        <Polygon>
          <outerBoundaryIs>
            <LinearRing>
              <coordinates>-156.183333,23.766667,0 -159.316667,24.866667,0 -167.816667,27.633333,0 -175.0,29.416667,0 -176.583333,29.75,0 -180.0,29.816667,0 -180.0,30.933333,0 -175.0,31.183333,0 -171.483333,31.283333,0 -161.25,30.55,0 -155.666667,29.616667,0 -151.583333,28.816667,0 -145.433333,26.883333,0 -145.466667,26.833333,0 -154.533333,24.05,0 -156.183333,23.766667,0</coordinates>
            </LinearRing>
          </outerBoundaryIs>
        </Polygon>
      </MultiGeometry>
    </Placemark>
    <Placemark>
      <name>HYDROPAC 2687/26</name>
      <description>150900Z SEP 26  HYDROPAC 2687/26.  INDIAN OCEAN.  1. HAZARDOUS OPERATIONS, SPACE DEBRIS     1223Z TO 1447Z DAILY 22 THRU 28 SEP     IN AREA BOUND BY     24-36.00S 072-06.00E, 23-03.00S 076-59.00E,     21-45.00S 080-57.00E, 18-56.00S 087-42.00E,     16-14.00S 093-37.00E, 15-16.00S 095-26.00E,     15-18.00S 095-31.00E, 15-25.00S 095-50.00E,     15-30.00S 096-12.00E, 15-34.00S 096-34.00E,     15-34.00S 097-02.00E, 15-33.00S 097-14.00E,     15-30.00S 097-33.00E, 15-28.00S 097-42.00E,     15-26.00S 0</description>
      <Polygon>
        <outerBoundaryIs>
          <LinearRing>
            <coordinates>72.1,-24.6,0 76.983333,-23.05,0 80.95,-21.75,0 87.7,-18.933333,0 93.616667,-16.233333,0 95.433333,-15.266667,0 95.516667,-15.3,0 95.833333,-15.416667,0 96.2,-15.5,0 96.566667,-15.566667,0 97.033333,-15.566667,0 97.233333,-15.55,0 97.55,-15.5,0 97.7,-15.466667,0 97.833333,-15.433333,0 97.966667,-15.4,0 98.05,-15.366667,0 98.183333,-15.316667,0 98.233333,-15.3,0 98.516667,-15.933333,0 96.633333,-17.066667,0 91.033333,-19.933333,0 84.1,-23.033333,0 79.1,-24.983333,0 73.3,-27.066667,0 72.1,-24.6,0</coordinates>
          </LinearRing>
        </outerBoundaryIs>
      </Polygon>
    </Placemark>
    <Placemark>
      <name>HYDROPAC 2686/26</name>
      <description>150834Z SEP 26  HYDROPAC 2686/26.  SOUTH PACIFIC.  FRENCH POLYNESIA.  PITCAIRN ISLANDS.  1. HAZARDOUS OPERATIONS, SPACE DEBRIS     2107Z TO 0108Z DAILY 22 THRU 28 SEP     IN AREA BOUND BY     19-51.00S 149-00.00W, 19-23.00S 148-49.00W,     24-58.00S 133-10.00W, 26-10.00S 129-09.00W,     27-34.00S 123-03.00W, 28-11.00S 118-33.00W,     28-45.00S 112-39.00W, 28-18.00S 111-00.00W,     28-26.00S 103-26.00W, 26-55.00S 101-39.00W,     26-32.00S 099-12.00W, 25-17.00S 091-56.00W,     23-54.00S 083-47.00W</description>
      <Polygon>
        <outerBoundaryIs>
          <LinearRing>
            <coordinates>-149.0,-19.85,0 -148.816667,-19.383333,0 -133.166667,-24.966667,0 -129.15,-26.166667,0 -123.05,-27.566667,0 -118.55,-28.183333,0 -112.65,-28.75,0 -111.0,-28.3,0 -103.433333,-28.433333,0 -101.65,-26.916667,0 -99.2,-26.533333,0 -91.933333,-25.283333,0 -83.783333,-23.9,0 -82.816667,-27.283333,0 -82.783333,-30.35,0 -85.566667,-31.033333,0 -87.566667,-30.633333,0 -93.1,-30.966667,0 -102.1,-31.516667,0 -106.883333,-31.25,0 -113.016667,-30.6,0 -119.3,-29.316667,0 -125.1,-28.1,0 -132.833333,-26.183333,0 -149.0,-19.85,0</coordinates>
          </LinearRing>
        </outerBoundaryIs>
      </Polygon>
    </Placemark>
    <Placemark>
      <name>HYDROPAC 2681/26</name>
      <description>162128Z SEP 26  HYDROPAC 2681/26.  SOUTH PACIFIC.  1. HAZARDOUS OPERATIONS, SPACE DEBRIS     0800Z TO 2100Z DAILY 17 THRU 21 SEP     IN AREAS BOUND BY:     A. 59-42.36S 165-49.12E, 59-42.36S 180-00.00E,        62-33.00S 180-00.00E, 62-33.00S 165-49.12E.     B. 59-42.36S 180-00.00W, 58-39.52S 161-41.03W,        57-28.48S 126-01.12W, 60-23.24S 122-04.48W,        61-31.54S 161-16.01W, 62-33.00S 180-00.00W.  2. CANCEL THIS MSG 212200Z SEP 26.</description>
      <MultiGeometry>
        <Polygon>
          <outerBoundaryIs>
            <LinearRing>
              <coordinates>165.818667,-59.706,0 180.0,-59.706,0 180.0,-62.55,0 165.818667,-62.55,0 165.818667,-59.706,0</coordinates>
            </LinearRing>
          </outerBoundaryIs>
        </Polygon>
        <Polygon>
          <outerBoundaryIs>
            <LinearRing>
              <coordinates>-180.0,-59.706,0 -161.683833,-58.658667,0 -126.018667,-57.474667,0 -122.074667,-60.387333,0 -161.266833,-61.525667,0 -180.0,-62.55,0 -180.0,-59.706,0</coordinates>
            </LinearRing>
          </outerBoundaryIs>
        </Polygon>
      </MultiGeometry>
    </Placemark>
    <Placemark>
      <name>HYDROPAC 2662/26</name>
      <description>150716Z SEP 26  HYDROPAC 2662/26.  SOUTH PACIFIC.  NEW ZEALAND.  1. HAZARDOUS OPERATIONS 0115Z TO 2330Z      DAILY 19 SEP THRU 01 OCT:     A. ROCKET LAUNCHING IN AREA BOUND BY        39-12.00S 177-46.20E, 39-07.80S 178-18.00E,        39-19.20S 178-18.00E, 39-22.80S 177-48.00E,        39-15.00S 177-45.00E.     B. SPACE DEBRIS IN AREA BOUND BY        37-51.00S 178-18.00W, 37-00.00S 172-42.02W,        38-54.00S 172-06.00W, 39-42.00S 177-48.00W.  2. CANCEL THIS MSG 020030Z OCT 26.</description>
      <MultiGeometry>
        <Polygon>
          <outerBoundaryIs>
            <LinearRing>
              <coordinates>177.77,-39.2,0 178.3,-39.13,0 178.3,-39.32,0 177.8,-39.38,0 177.75,-39.25,0 177.77,-39.2,0</coordinates>
            </LinearRing>
          </outerBoundaryIs>
        </Polygon>
        <Polygon>
          <outerBoundaryIs>
            <LinearRing>
              <coordinates>-178.3,-37.85,0 -172.700333,-37.0,0 -172.1,-38.9,0 -177.8,-39.7,0 -178.3,-37.85,0</coordinates>
            </LinearRing>
          </outerBoundaryIs>
        </Polygon>
      </MultiGeometry>
    </Placemark>
    <Placemark>
      <name>HYDROPAC 2661/26</name>
      <description>150659Z SEP 26  HYDROPAC 2661/26.  SOUTH PACIFIC.  1. HAZARDOUS OPERATIONS, SPACE DEBRIS     0001Z TO 2330Z DAILY 19 SEP THRU 01 OCT        IN AREAS BOUND BY:     A. 37-51.00S 178-18.00W, 37-00.00S 172-42.02W,        38-54.00S 172-06.00W, 39-42.00S 177-48.00W.     B. 35-45.60S 166-57.00W, 34-24.00S 160-06.00W,        36-33.00S 159-18.00W, 37-58.20S 166-20.40W.  2. CANCEL THIS MSG 020030Z OCT 26.</description>
      <MultiGeometry>
        <Polygon>
          <outerBoundaryIs>
            <LinearRing>
              <coordinates>-178.3,-37.85,0 -172.700333,-37.0,0 -172.1,-38.9,0 -177.8,-39.7,0 -178.3,-37.85,0</coordinates>
            </LinearRing>
          </outerBoundaryIs>
        </Polygon>
        <Polygon>
          <outerBoundaryIs>
            <LinearRing>
              <coordinates>-166.95,-35.76,0 -160.1,-34.4,0 -159.3,-36.55,0 -166.34,-37.97,0 -166.95,-35.76,0</coordinates>
            </LinearRing>
          </outerBoundaryIs>
        </Polygon>
      </MultiGeometry>
    </Placemark>
    <Placemark>
      <name>HYDROPAC 2656/26</name>
      <description>150351Z SEP 26  HYDROPAC 2656/26.  SOUTH PACIFIC.  1. HAZARDOUS OPERATIONS, SPACE DEBRIS     200334Z TO 200812Z, 210320Z TO 210758Z,      220305Z TO 220743Z, 230251Z TO 230729Z,      240237Z TO 240715Z, 250222Z TO 250700Z      AND 260208Z TO 260646Z SEP      IN AREA BOUND BY     27-59.00S 122-44.00W, 27-09.00S 120-43.00W,     38-21.00S 115-04.00W, 49-09.00S 107-22.00W,     59-09.00S 095-34.00W, 59-58.00S 099-05.00W,     44-34.00S 114-13.00W.  2. CANCEL THIS MSG 260746Z SEP 26.</description>
      <Polygon>
        <outerBoundaryIs>
          <LinearRing>
            <coordinates>-122.733333,-27.983333,0 -120.716667,-27.15,0 -115.066667,-38.35,0 -107.366667,-49.15,0 -95.566667,-59.15,0 -99.083333,-59.966667,0 -114.216667,-44.566667,0 -122.733333,-27.983333,0</coordinates>
          </LinearRing>
        </outerBoundaryIs>
      </Polygon>
    </Placemark>
    <Placemark>
      <name>HYDROPAC 2626/26</name>
      <description>080604Z SEP 26  HYDROPAC 2626/26.  SOUTH PACIFIC.  1. HAZARDOUS OPERATIONS, SPACE DEBRIS     0245Z TO 0723Z DAILY 16 THRU 22 SEP     IN AREA BOUND BY     27-48.00S 136-13.00W, 27-19.00S 133-10.00W,     43-24.00S 129-14.00W, 59-13.00S 122-24.00W,     59-42.00S 127-43.00W, 43-51.00S 133-07.00W.  2. CANCEL THIS MSG 220823Z SEP 26.</description>
      <Polygon>
        <outerBoundaryIs>
          <LinearRing>
            <coordinates>-136.216667,-27.8,0 -133.166667,-27.316667,0 -129.233333,-43.4,0 -122.4,-59.216667,0 -127.716667,-59.7,0 -133.116667,-43.85,0 -136.216667,-27.8,0</coordinates>
          </LinearRing>
        </outerBoundaryIs>
      </Polygon>
    </Placemark>
    <Placemark>
      <name>HYDROARC 240/26</name>
      <description>161857Z SEP 26  HYDROARC 240/26.  BARENTS SEA.  RUSSIA.  1. MISSILE OPERATIONS 2100Z TO 1800Z DAILY     21 THRU 24 SEP IN AREA BOUND BY     72-52.25N 034-14.50E, 72-27.17N 037-59.50E,     70-49.00N 036-34.00E, 69-42.50N 033-08.50E,     69-47.00N 032-36.50E, 71-02.00N 032-21.25E.  2. CANCEL THIS MSG 251900Z SEP 26.</description>
      <Polygon>
        <outerBoundaryIs>
          <LinearRing>
            <coordinates>34.241667,72.870833,0 37.991667,72.452833,0 36.566667,70.816667,0 33.141667,69.708333,0 32.608333,69.783333,0 32.354167,71.033333,0 34.241667,72.870833,0</coordinates>
          </LinearRing>
        </outerBoundaryIs>
      </Polygon>
    </Placemark>
    <Placemark>
      <name>HYDROARC 228/26</name>
      <description>101300Z SEP 26  HYDROARC 228/26.  ARCTIC.  1. HAZARDOUS OPERATIONS, ROCKET LAUNCHING      0128Z TO 0244Z DAILY 15 SEP THRU 15 OCT     IN AREA BOUND BY     77-06.00N 161-35.00E, 76-42.00N 163-41.00E,     81-06.00N 135-04.00W, 81-42.00N 134-18.00W.  2. CANCEL THIS MSG 150344Z OCT 26.</description>
      <Polygon>
        <outerBoundaryIs>
          <LinearRing>
            <coordinates>161.583333,77.1,0 163.683333,76.7,0 -135.066667,81.1,0 -134.3,81.7,0 161.583333,77.1,0</coordinates>
          </LinearRing>
        </outerBoundaryIs>
      </Polygon>
    </Placemark>
    <Placemark>
      <name>HYDROARC 232/26</name>
      <description>131906Z SEP 26  HYDROARC 232/26.  NORWEGIAN SEA.  NORWAY.  1. HAZARDOUS OPERATIONS, ROCKET LAUNCHING      1800Z TO 0300Z DAILY 14 THRU 19 SEP      IN AREA BOUND BY     69-53.08N 016-21.58E, 70-12.38N 015-13.81E,     69-36.32N 013-40.39E, 69-23.53N 014-20.64E,     69-23.11N 015-14.66E.  2. CANCEL THIS MSG 200400Z SEP 26.</description>
      <Polygon>
        <outerBoundaryIs>
          <LinearRing>
            <coordinates>16.359667,69.884667,0 15.230167,70.206333,0 13.673167,69.605333,0 14.344,69.392167,0 15.244333,69.385167,0 16.359667,69.884667,0</coordinates>
          </LinearRing>
        </outerBoundaryIs>
      </Polygon>
    </Placemark>
    <Placemark>
      <name>NAVAREA IV 862/26</name>
      <description>052223Z SEP 26  NAVAREA IV 862/26.  NORTH ATLANTIC.  1. HAZARDOUS OPERATIONS, SPACE DEBRIS     2134Z TO 2357Z DAILY 13 THRU 19 SEP        IN AREA BOUND BY     08-58.00N 050-28.00W, 08-06.00N 047-28.00W,     03-21.00N 032-11.00W, 00-57.00N 032-55.00W,     05-44.00N 048-12.00W.  2. CANCEL THIS MSG 200057Z SEP 26.</description>
      <Polygon>
        <outerBoundaryIs>
          <LinearRing>
            <coordinates>-50.466667,8.966667,0 -47.466667,8.1,0 -32.183333,3.35,0 -32.916667,0.95,0 -48.2,5.733333,0 -50.466667,8.966667,0</coordinates>
          </LinearRing>
        </outerBoundaryIs>
      </Polygon>
    </Placemark>
    <Placemark>
      <name>NAVAREA IV 861/26</name>
      <description>072122Z SEP 26  NAVAREA IV 861/26.  NORTH ATLANTIC.  FLORIDA.  1. HAZARDOUS OPERATIONS, ROCKET LAUNCHING      131840Z TO 132110Z SEP, ALTERNATE     1840Z TO 2110Z DAILY 14 THRU 19 SEP     IN AREAS BOUND BY:     A. 29-16.00N 075-11.00W, 29-35.00N 072-08.00W,        29-21.00N 071-15.00W, 28-38.00N 071-15.00W,        28-19.00N 072-12.00W, 28-46.00N 075-11.00W.     B. 28-36.52N 080-35.63W, 28-39.00N 080-29.00W,        28-39.00N 080-06.00W, 28-33.00N 080-06.00W,        28-31.00N 080-22.00W, 28-31.00N</description>
      <MultiGeometry>
        <Polygon>
          <outerBoundaryIs>
            <LinearRing>
              <coordinates>-75.183333,29.266667,0 -72.133333,29.583333,0 -71.25,29.35,0 -71.25,28.633333,0 -72.2,28.316667,0 -75.183333,28.766667,0 -75.183333,29.266667,0</coordinates>
            </LinearRing>
          </outerBoundaryIs>
        </Polygon>
        <Polygon>
          <outerBoundaryIs>
            <LinearRing>
              <coordinates>-80.593833,28.608667,0 -80.483333,28.65,0 -80.1,28.65,0 -80.1,28.55,0 -80.366667,28.516667,0 -80.554667,28.516667,0 -80.593833,28.608667,0</coordinates>
            </LinearRing>
          </outerBoundaryIs>
        </Polygon>
      </MultiGeometry>
    </Placemark>
    <Placemark>
      <name>NAVAREA IV 845/26</name>
      <description>011652Z SEP 26  NAVAREA IV 845/26.  NORTH ATLANTIC.  1. HAZARDOUS OPERATIONS, SPACE DEBRIS     0021Z TO 0151Z DAILY 15 SEP THRU 15 OCT     IN AREAS BOUND BY:     A. 09-36.00N 052-45.00W, 09-36.00N 052-42.00W,        08-41.00N 052-43.00W, 08-41.00N 052-46.00W.     B. 24-14.00N 055-20.00W, 24-16.00N 055-04.00W,        21-21.00N 054-38.00W, 21-19.00N 054-54.00W.  2. CANCEL THIS MSG 150251Z OCT 26.</description>
      <MultiGeometry>
        <Polygon>
          <outerBoundaryIs>
            <LinearRing>
              <coordinates>-52.75,9.6,0 -52.7,9.6,0 -52.716667,8.683333,0 -52.766667,8.683333,0 -52.75,9.6,0</coordinates>
            </LinearRing>
          </outerBoundaryIs>
        </Polygon>
        <Polygon>
          <outerBoundaryIs>
            <LinearRing>
              <coordinates>-55.333333,24.233333,0 -55.066667,24.266667,0 -54.633333,21.35,0 -54.9,21.316667,0 -55.333333,24.233333,0</coordinates>
            </LinearRing>
          </outerBoundaryIs>
        </Polygon>
      </MultiGeometry>
    </Placemark>
    <Placemark>
      <name>HYDROLANT 1803/26</name>
      <description>112318Z SEP 26  HYDROLANT 1803/26.  SOUTH ATLANTIC.  BRAZIL.  1. HAZARDOUS OPERATIONS, ROCKET LAUNCHING      0800Z TO 2000Z DAILY 15 THRU 19 SEP     IN AREA BOUND BY     05-55.28S 034-34.36W, 06-13.92S 034-39.38W,     06-23.59S 034-34.44W, 06-31.87S 034-11.54W,     06-23.83S 034-01.81W, 06-03.44S 033-56.53W,     05-52.66S 034-03.34W, 05-49.30S 034-25.37W.  2. CANCEL HYDROLANT 1798/26.  3. CANCEL THIS MSG 192100Z SEP 26.</description>
      <Polygon>
        <outerBoundaryIs>
          <LinearRing>
            <coordinates>-34.572667,-5.921333,0 -34.656333,-6.232,0 -34.574,-6.393167,0 -34.192333,-6.531167,0 -34.030167,-6.397167,0 -33.942167,-6.057333,0 -34.055667,-5.877667,0 -34.422833,-5.821667,0 -34.572667,-5.921333,0</coordinates>
          </LinearRing>
        </outerBoundaryIs>
      </Polygon>
    </Placemark>
    <Placemark>
      <name>HYDROLANT 1783/26</name>
      <description>052223Z SEP 26  HYDROLANT 1783/26.  NORTH ATLANTIC.  1. HAZARDOUS OPERATIONS, SPACE DEBRIS     2134Z TO 2357Z DAILY 13 THRU 19 SEP        IN AREA BOUND BY     08-58.00N 050-28.00W, 08-06.00N 047-28.00W,     03-21.00N 032-11.00W, 00-57.00N 032-55.00W,     05-44.00N 048-12.00W.  2. CANCEL THIS MSG 200057Z SEP 26.</description>
      <Polygon>
        <outerBoundaryIs>
          <LinearRing>
            <coordinates>-50.466667,8.966667,0 -47.466667,8.1,0 -32.183333,3.35,0 -32.916667,0.95,0 -48.2,5.733333,0 -50.466667,8.966667,0</coordinates>
          </LinearRing>
        </outerBoundaryIs>
      </Polygon>
    </Placemark>
    <Placemark>
      <name>HYDROPAC 2627/26</name>
      <description>110940Z SEP 26  HYDROPAC 2627/26.  SEA OF JAPAN.  RUSSIA.  1. MISSILE OPERATIONS 1400Z TO 1000Z      DAILY 16 THRU 18 AND 20 THRU 22 SEP      IN AREA BOUND BY     50-16.00N 140-28.20E, 50-11.30N 140-47.80E,     49-37.00N 140-26.70E, 49-28.20N 140-49.00E,     48-57.30N 141-03.20E, 47-46.10N 140-59.50E,     45-07.80N 138-15.60E, 43-06.40N 135-22.70E,     42-33.70N 134-05.00E, 42-30.40N 133-56.50E,     42-26.20N 133-42.30E, 42-35.00N 133-35.50E,     42-42.60N 133-46.60E, 42-46.10N 133-55.00E,     4</description>
      <Polygon>
        <outerBoundaryIs>
          <LinearRing>
            <coordinates>140.47,50.266667,0 140.796667,50.188333,0 140.445,49.616667,0 140.816667,49.47,0 141.053333,48.955,0 140.991667,47.768333,0 138.26,45.13,0 135.378333,43.106667,0 134.083333,42.561667,0 133.941667,42.506667,0 133.705,42.436667,0 133.591667,42.583333,0 133.776667,42.71,0 133.916667,42.768333,0 135.156667,43.326667,0 137.973333,45.306667,0 140.601667,47.863333,0 140.718333,48.828333,0 140.538333,49.336667,0 140.025,49.526667,0 140.47,50.266667,0</coordinates>
          </LinearRing>
        </outerBoundaryIs>
      </Polygon>
    </Placemark>
    <Placemark>
      <name>HYDROPAC 2506/26</name>
      <description>011652Z SEP 26  HYDROPAC 2506/26.  SOUTH PACIFIC.  1. HAZARDOUS OPERATIONS, SPACE DEBRIS     0405Z TO 0521Z DAILY 15 SEP THRU 15 OCT     IN AREAS BOUND BY     49-52.00S 086-34.00W, 49-38.00S 085-13.00W,     58-56.00S 080-05.00W, 59-14.00S 081-42.00W.  2. CANCEL THIS MSG 150621Z OCT 26.</description>
      <Polygon>
        <outerBoundaryIs>
          <LinearRing>
            <coordinates>-86.566667,-49.866667,0 -85.216667,-49.633333,0 -80.083333,-58.933333,0 -81.7,-59.233333,0 -86.566667,-49.866667,0</coordinates>
          </LinearRing>
        </outerBoundaryIs>
      </Polygon>
    </Placemark>
    <Placemark>
      <name>HYDROARC 201/26</name>
      <description>011652Z SEP 26  HYDROARC 201/26.  ARCTIC.  1. HAZARDOUS OPERATIONS, SPACE DEBRIS     0128Z TO 0244Z DAILY 15 SEP THRU 15 OCT     IN AREAS BOUND BY     81-42.00N 134-18.00W, 81-06.00N 135-04.00W,     76-42.00N 163-41.00W, 77-06.00N 161-35.00W.  2. CANCEL THIS MSG 150344Z OCT 26.</description>
      <Polygon>
        <outerBoundaryIs>
          <LinearRing>
            <coordinates>-134.3,81.7,0 -135.066667,81.1,0 -163.683333,76.7,0 -161.583333,77.1,0 -134.3,81.7,0</coordinates>
          </LinearRing>
        </outerBoundaryIs>
      </Polygon>
    </Placemark>
  </Document>
</kml>