<?xml version='1.0' encoding='UTF-8'?>
<kml xmlns="http://www.opengis.net/kml/2.2">
  <Document>
    <name>Maritime Warnings</name>
    <Placemark>
      <name>NAVAREA IV 803/26</name>
      <description>190136Z AUG 26  NAVAREA IV 803/26.  NORTH ATLANTIC.  FLORIDA.  1. HAZARDOUS OPERATIONS, ROCKET LAUNCHING      201519Z TO 202001Z AUG, ALTERNATE     211457Z TO 211939Z, 221435Z TO 221917Z,     231412Z TO 231854Z, 241350Z TO 241832Z,     251328Z TO 251810Z AND     261305Z TO 261747Z AUG IN AREAS BOUND BY:     A. 31-37.00N 077-09.00W, 32-23.00N 076-52.00W,        33-08.00N 075-40.00W, 33-12.00N 075-13.00W,        32-54.00N 074-58.00W, 32-36.00N 075-02.00W,        31-51.00N 076-13.00W, 31-32.00N 077</description>
      <MultiGeometry>
        <Polygon>
          <outerBoundaryIs>
            <LinearRing>
              <coordinates>-77.15,31.616667,0 -76.866667,32.383333,0 -75.666667,33.133333,0 -75.216667,33.2,0 -74.966667,32.9,0 -75.033333,32.6,0 -76.216667,31.85,0 -77.05,31.533333,0 -77.15,31.616667,0</coordinates>
            </LinearRing>
          </outerBoundaryIs>
        </Polygon>
        <Polygon>
          <outerBoundaryIs>
            <LinearRing>
              <coordinates>-80.630333,28.653,0 -80.233333,29.0,0 -80.083333,28.883333,0 -80.542,28.490333,0 -80.630333,28.653,0</coordinates>
            </LinearRing>
          </outerBoundaryIs>
        </Polygon>
      </MultiGeometry>
    </Placemark>
    <Placemark>
      <name>NAVAREA IV 776/26</name>
      <description>100417Z AUG 26  NAVAREA IV 776/26.  NORTH ATLANTIC.  FLORIDA.  1. HAZARDOUS OPERATIONS, ROCKET LAUNCHING      160102Z TO 160220Z AUG, ALTERNATE      170045Z TO 170203Z, 180031Z TO 180149Z,      190014Z TO 190132Z, 192358Z TO 200116Z,      202342Z TO 210100Z AND      212327Z TO 220045Z AUG IN AREAS BOUND BY:     A. 30-58.00N 078-25.00W, 31-47.00N 077-47.00W,        32-18.00N 077-09.00W, 32-45.00N 076-27.00W,        32-28.00N 076-07.00W, 31-47.00N 076-23.00W,        31-13.00N 077-21.00W, 30-40.00N</description>
      <MultiGeometry>
        <Polygon>
          <outerBoundaryIs>
            <LinearRing>
              <coordinates>-78.416667,30.966667,0 -77.783333,31.783333,0 -77.15,32.3,0 -76.45,32.75,0 -76.116667,32.466667,0 -76.383333,31.783333,0 -77.35,31.216667,0 -78.183333,30.666667,0 -78.416667,30.966667,0</coordinates>
            </LinearRing>
          </outerBoundaryIs>
        </Polygon>
        <Polygon>
          <outerBoundaryIs>
            <LinearRing>
              <coordinates>-80.634667,28.6595,0 -80.133333,29.1,0 -80.033333,29.033333,0 -80.466667,28.533333,0 -80.546333,28.499167,0 -80.634667,28.6595,0</coordinates>
            </LinearRing>
          </outerBoundaryIs>
        </Polygon>
      </MultiGeometry>
    </Placemark>
    <Placemark>
      <name>NAVAREA XII 558/26</name>
      <description>130156Z AUG 26  NAVAREA XII 558/26.  NORTH PACIFIC.  CALIFORNIA.  1. HAZARDOUS OPERATIONS, ROCKET LAUNCHING:     A. 220725Z TO 221148Z AUG, ALTERNATE        230711Z TO 231134Z, 240656Z TO 241119Z,        250920Z TO 251343Z, 260906Z TO 261329Z,        270851Z TO 271314Z AND         280837Z TO 281300Z AUG IN AREA BOUND BY        34-28.00N 120-21.00W, 34-40.00N 120-37.00W,        34-39.00N 120-39.00W, 34-34.00N 120-39.00W,        34-19.00N 120-34.00W, 33-04.00N 119-51.00W,        32-20.00N 119-20.0</description>
      <MultiGeometry>
        <Polygon>
          <outerBoundaryIs>
            <LinearRing>
              <coordinates>-120.35,34.466667,0 -120.616667,34.666667,0 -120.65,34.65,0 -120.65,34.566667,0 -120.566667,34.316667,0 -119.85,33.066667,0 -119.333333,32.333333,0 -119.3,32.35,0 -119.616667,33.05,0 -120.35,34.466667,0</coordinates>
            </LinearRing>
          </outerBoundaryIs>
        </Polygon>
        <Polygon>
          <outerBoundaryIs>
            <LinearRing>
              <coordinates>-117.65,29.8,0 -118.816667,31.333333,0 -118.833333,31.316667,0 -118.65,30.6,0 -118.366667,29.9,0 -118.133333,29.4,0 -117.65,29.8,0</coordinates>
            </LinearRing>
          </outerBoundaryIs>
        </Polygon>
        <Polygon>
          <outerBoundaryIs>
            <LinearRing>
              <coordinates>-117.65,29.8,0 -118.133333,29.4,0 -118.033333,29.25,0 -117.983333,29.033333,0 -117.35,28.216667,0 -117.266667,29.6,0 -117.65,29.8,0</coordinates>
            </LinearRing>
          </outerBoundaryIs>
        </Polygon>
      </MultiGeometry>
    </Placemark>
    <Placemark>
      <name>NAVAREA XII 540/26</name>
      <description>100530Z AUG 26  NAVAREA XII 540/26.  NORTH PACIFIC.  1. HAZARDOUS OPERATIONS, SPACE DEBRIS     2100Z TO 1800Z DAILY 13 THRU 26 AUG     IN AREAS BOUND BY:     A. 33-06.05N 128-42.07W, 32-50.48N 127-12.42W,        28-19.72N 128-15.70W, 28-36.02N 129-37.43W.     B. 38-46.77N 172-48.63W, 38-15.70N 170-15.70W,        31-07.28N 172-31.87W, 31-32.10N 174-48.60W.  2. CANCEL THIS MSG 271900Z AUG 26.</description>
      <MultiGeometry>
        <Polygon>
          <outerBoundaryIs>
            <LinearRing>
              <coordinates>-128.701167,33.100833,0 -127.207,32.841333,0 -128.261667,28.328667,0 -129.623833,28.600333,0 -128.701167,33.100833,0</coordinates>
            </LinearRing>
          </outerBoundaryIs>
        </Polygon>
        <Polygon>
          <outerBoundaryIs>
            <LinearRing>
              <coordinates>-172.8105,38.7795,0 -170.261667,38.261667,0 -172.531167,31.121333,0 -174.81,31.535,0 -172.8105,38.7795,0</coordinates>
            </LinearRing>
          </outerBoundaryIs>
        </Polygon>
      </MultiGeometry>
    </Placemark>
    <Placemark>
      <name>HYDROLANT 1608/26</name>
      <description>190343Z AUG 26  HYDROLANT 1608/26.  SOUTH ATLANTIC.  1. HAZARDOUS OPERATIONS, SPACE DEBRIS     192100Z TO 301800Z AUG      IN AREA BOUND BY     36-52.00S 029-15.00W, 37-17.00S 025-29.00W,     48-02.00S 027-29.00W, 47-40.00S 031-14.00W.  2. CANCEL THIS MSG 301900Z AUG 26.</description>
      <Polygon>
        <outerBoundaryIs>
          <LinearRing>
            <coordinates>-29.25,-36.866667,0 -25.483333,-37.283333,0 -27.483333,-48.033333,0 -31.233333,-47.666667,0 -29.25,-36.866667,0</coordinates>
          </LinearRing>
        </outerBoundaryIs>
      </Polygon>
    </Placemark>
    <Placemark>
      <name>HYDROLANT 1593/26</name>
      <description>170953Z AUG 26  HYDROLANT 1593/26.  SOUTH ATLANTIC.  1. HAZARDOUS OPERATIONS, SPACE DEBRIS     2100Z TO 1800Z DAILY 19 THRU 29 AUG     IN AREA BOUND BY     06-12.50S 003-00.50E, 06-22.00S 004-53.00E,     13-35.00S 004-20.00E, 13-26.00S 002-24.00E.  2. CANCEL THIS MSG 301900Z AUG 26.</description>
      <Polygon>
        <outerBoundaryIs>
          <LinearRing>
            <coordinates>3.008333,-6.208333,0 4.883333,-6.366667,0 4.333333,-13.583333,0 2.4,-13.433333,0 3.008333,-6.208333,0</coordinates>
          </LinearRing>
        </outerBoundaryIs>
      </Polygon>
    </Placemark>
    <Placemark>
      <name>HYDROLANT 1569/26</name>
      <description>140058Z AUG 26  HYDROLANT 1569/26.  SOUTH ATLANTIC.  BRAZIL.  1. HAZARDOUS OPERATIONS, SPACE DEBRIS     181300Z TO 282130Z AUG IN AREA BOUND BY     02-16.27S 044-22.65W, 02-14.29S 044-20.98W,     00-28.51S 043-53.40W, 01-36.26S 042-17.77W,     02-17.69S 044-17.52W, 02-22.08S 044-20.92W,     02-22.12S 044-22.31W, 02-21.30S 044-22.37W,     02-20.41S 044-21.42W.  2. CANCEL THIS MSG 282230Z AUG 26.</description>
      <Polygon>
        <outerBoundaryIs>
          <LinearRing>
            <coordinates>-44.3775,-2.271167,0 -44.349667,-2.238167,0 -43.89,-0.475167,0 -42.296167,-1.604333,0 -44.292,-2.294833,0 -44.348667,-2.368,0 -44.371833,-2.368667,0 -44.372833,-2.355,0 -44.357,-2.340167,0 -44.3775,-2.271167,0</coordinates>
          </LinearRing>
        </outerBoundaryIs>
      </Polygon>
    </Placemark>
    <Placemark>
      <name>HYDROLANT 237/26(54)</name>
      <description>031744Z FEB 26  HYDROLANT 237/26(54).  AEGEAN SEA.  DNC 09.  1. MISSILE OPERATIONS 0530Z TO SUNSET DAILY EVERY     WEDNESDAY THRU SATURDAY UNTIL 14 JUN AND     16 SEB THRU 31 DEC IN AREAS:     A. BOUND BY        35-36.00N 024-07.00E, 36-18.00N 024-07.00E,        36-18.00N 025-59.00E, 36-25.00N 026-12.00E,        36-16.00N 026-40.00E, 35-36.00N 026-41.00E,        35-31.00N 024-11.00E.     B. WITHIN ONE MILE OF 35-32.00N 024-13.00E.     C. WITHIN ONE MILE OF 35-36.33N 024-10.00E.  2. CANCEL THIS M</description>
      <MultiGeometry>
        <Polygon>
          <outerBoundaryIs>
            <LinearRing>
              <coordinates>24.116667,35.6,0 24.116667,36.3,0 25.983333,36.3,0 26.2,36.416667,0 26.666667,36.266667,0 26.683333,35.6,0 24.183333,35.516667,0 24.116667,35.6,0</coordinates>
            </LinearRing>
          </outerBoundaryIs>
        </Polygon>
        <Polygon>
          <outerBoundaryIs>
            <LinearRing>
              <coordinates>24.216667,35.533333,0</coordinates>
            </LinearRing>
          </outerBoundaryIs>
        </Polygon>
        <Polygon>
          <outerBoundaryIs>
            <LinearRing>
              <coordinates>24.166667,35.6055,0</coordinates>
            </LinearRing>
          </outerBoundaryIs>
        </Polygon>
      </MultiGeometry>
    </Placemark>
    <Placemark>
      <name>HYDROPAC 2383/26</name>
      <description>191329Z AUG 26  HYDROPAC 2383/26.  NORTH PACIFIC.  1. HAZARDOUS OPERATIONS, ROCKET LAUNCHING      2200Z TO 1300Z DAILY 23 AND 29 AUG IN AREA      WITHIN 25 MILES OF 31-14.14N 144-26.48E.  2. CANCEL THIS MSG 301400Z AUG 26.</description>
      <Polygon>
        <outerBoundaryIs>
          <LinearRing>
            <coordinates>144.441333,31.235667,0</coordinates>
          </LinearRing>
        </outerBoundaryIs>
      </Polygon>
    </Placemark>
    <Placemark>
      <name>HYDROPAC 2372/26</name>
      <description>181402Z AUG 26  HYDROPAC 2372/26.  EASTERN INDIAN OCEAN.  INDIA.  1. HAZARDOUS OPERATIONS, ROCKET LAUNCHING      210530Z TO 210700Z AUG IN AREA BOUND BY     08-31.98N 076-52.05E, 08-34.48N 076-47.68E,     08-18.85N 075-37.45E, 08-06.23N 075-40.90E,     07-54.42N 075-46.52E, 07-43.73N 075-54.10E,     07-34.50N 076-03.45E, 08-27.07N 076-51.17E.  2. CANCEL HYDROPAC 2368/26 AND 2369/26.  3. CANCEL THIS MSG 210800Z AUG 26.</description>
      <Polygon>
        <outerBoundaryIs>
          <LinearRing>
            <coordinates>76.8675,8.533,0 76.794667,8.574667,0 75.624167,8.314167,0 75.681667,8.103833,0 75.775333,7.907,0 75.901667,7.728833,0 76.0575,7.575,0 76.852833,8.451167,0 76.8675,8.533,0</coordinates>
          </LinearRing>
        </outerBoundaryIs>
      </Polygon>
    </Placemark>
    <Placemark>
      <name>HYDROPAC 2356/26</name>
      <description>140859Z AUG 26  HYDROPAC 2356/26.  SOUTH PACIFIC.  1. HAZARDOUS OPERATIONS, SPACE DEBRIS     220912Z TO 221350Z, 230858Z TO 231336Z,      240843Z TO 241321Z, 251107Z TO 251545Z,      261053Z TO 261531Z, 271038Z TO 271516Z      AND 281024Z TO 281502Z AUG     IN AREA BOUND BY     27-59.00S 122-44.00W, 27-09.00S 120-43.00W,     38-21.00S 115-04.00W, 49-09.00S 107-22.00W,     59-09.00S 095-34.00W, 59-58.00S 099-05.00W,     44-34.00S 114-13.00W.  2. CANCEL THIS MSG 281602Z AUG 26.</description>
      <Polygon>
        <outerBoundaryIs>
          <LinearRing>
            <coordinates>-122.733333,-27.983333,0 -120.716667,-27.15,0 -115.066667,-38.35,0 -107.366667,-49.15,0 -95.566667,-59.15,0 -99.083333,-59.966667,0 -114.216667,-44.566667,0 -122.733333,-27.983333,0</coordinates>
          </LinearRing>
        </outerBoundaryIs>
      </Polygon>
    </Placemark>
    <Placemark>
      <name>HYDROPAC 2341/26</name>
      <description>150302Z AUG 26  HYDROPAC 2341/26.  EASTERN INDIAN OCEAN.  SOUTH PACIFIC.  TASMAN SEA.  1. HAZARDOUS OPERATIONS, SPACE DEBRIS     201739Z TO 202235Z, 211717Z TO 212213Z,     221655Z TO 222151Z, 231632Z TO 232128Z,     241610Z TO 242106Z, 251548Z TO 252044Z     AND 261525Z TO 262021Z AUG     IN AREA BOUND BY     39-52.00S 082-05.00E, 46-48.00S 097-01.00E,     51-17.00S 115-27.00E, 51-19.00S 138-10.00E,     47-11.00S 158-59.00E, 48-02.00S 159-55.00E,     49-27.00S 159-48.00E, 53-45.00S 138-13.00E, </description>
      <Polygon>
        <outerBoundaryIs>
          <LinearRing>
            <coordinates>82.083333,-39.866667,0 97.016667,-46.8,0 115.45,-51.283333,0 138.166667,-51.316667,0 158.983333,-47.183333,0 159.916667,-48.033333,0 159.8,-49.45,0 138.216667,-53.75,0 114.466667,-53.616667,0 95.283333,-48.883333,0 80.15,-41.6,0 82.083333,-39.866667,0</coordinates>
          </LinearRing>
        </outerBoundaryIs>
      </Polygon>
    </Placemark>
    <Placemark>
      <name>HYDROPAC 2327/26</name>
      <description>131219Z AUG 26  HYDROPAC 2327/26  INDIAN OCEAN.  1. HAZARDOUS OPERATIONS, SPACE DEBRIS     0148Z TO 0429Z DAILY 16 THRU 23 AUG     IN AREA BOUND BY     25-05.00S 057-53.00E, 23-17.00S 060-00.00E,     35-50.00S 074-04.00E, 37-39.00S 071-40.00E.  2. CANCEL THIS MSG 230529Z AUG 26.</description>
      <Polygon>
        <outerBoundaryIs>
          <LinearRing>
            <coordinates>57.883333,-25.083333,0 60.0,-23.283333,0 74.066667,-35.833333,0 71.666667,-37.65,0 57.883333,-25.083333,0</coordinates>
          </LinearRing>
        </outerBoundaryIs>
      </Polygon>
    </Placemark>
    <Placemark>
      <name>HYDROPAC 2320/26</name>
      <description>121335Z AUG 26  HYDROPAC 2320/26.  NORTH PACIFIC.  KURIL ISLANDS.  1. MISSILE OPERATIONS 1400Z TO 1000Z     DAILY 16 THRU 22 AUG IN AREA BOUND BY     47-16.30N 151-00.00E, 47-16.30N 151-35.00E,     44-24.00N 152-10.00E, 42-45.60N 155-10.60E,     40-48.00N 152-02.70E, 42-10.00N 150-45.00E,     42-10.00N 149-40.00E, 43-25.00N 149-40.00E,     44-45.00N 147-24.00E, 45-56.00N 147-26.00E,     45-58.00N 147-56.00E, 46-20.00N 148-35.00E,     45-51.00N 149-50.00E, 46-14.00N 150-34.50E.  2. CANCEL THIS MS</description>
      <Polygon>
        <outerBoundaryIs>
          <LinearRing>
            <coordinates>151.0,47.271667,0 151.583333,47.271667,0 152.166667,44.4,0 155.176667,42.76,0 152.045,40.8,0 150.75,42.166667,0 149.666667,42.166667,0 149.666667,43.416667,0 147.4,44.75,0 147.433333,45.933333,0 147.933333,45.966667,0 148.583333,46.333333,0 149.833333,45.85,0 150.575,46.233333,0 151.0,47.271667,0</coordinates>
          </LinearRing>
        </outerBoundaryIs>
      </Polygon>
    </Placemark>
    <Placemark>
      <name>HYDROPAC 2302/26</name>
      <description>080407Z AUG 26  HYDROPAC 2302/26.  INDIAN OCEAN.  1. HAZARDOUS OPERATIONS, SPACE DEBRIS     160323Z TO 160429Z, 170306Z TO 170412Z,     180252Z TO 180358Z, 190235Z TO 190341Z,     200219Z TO 200325Z, 210203Z TO 210309Z,     AND 220148Z TO 220254Z AUG      IN AREA BOUND BY     25-05.00S 057-53.00E, 23-17.00S 060-00.00E,     35-50.00S 074-04.00E, 37-39.00S 071-40.00E.  2. CANCEL THIS MSG 220354Z AUG 26.</description>
      <Polygon>
        <outerBoundaryIs>
          <LinearRing>
            <coordinates>57.883333,-25.083333,0 60.0,-23.283333,0 74.066667,-35.833333,0 71.666667,-37.65,0 57.883333,-25.083333,0</coordinates>
          </LinearRing>
        </outerBoundaryIs>
      </Polygon>
    </Placemark>
    <Placemark>
      <name>HYDROPAC 2300/26</name>
      <description>110010Z AUG 26  HYDROPAC 2300/26.  SOUTH PACIFIC.  1. HAZARDOUS OPERATIONS, SPACE DEBRIS     0430Z TO 1645Z DAILY 15 AUG THRU 04 SEP     IN AREAS BOUND BY:     A. 39-27.00S 176-36.00W, 40-12.00S 169-30.00W,        42-24.00S 169-48.00W, 41-24.00S 177-00.00W.     B. 41-00.00S 162-00.00W, 41-00.00S 154-24.00W,        43-00.00S 154-00.00W, 43-00.00S 161-48.00W.  2. CANCEL THIS MSG 041745Z SEP 26.</description>
      <MultiGeometry>
        <Polygon>
          <outerBoundaryIs>
            <LinearRing>
              <coordinates>-176.6,-39.45,0 -169.5,-40.2,0 -169.8,-42.4,0 -177.0,-41.4,0 -176.6,-39.45,0</coordinates>
            </LinearRing>
          </outerBoundaryIs>
        </Polygon>
        <Polygon>
          <outerBoundaryIs>
            <LinearRing>
              <coordinates>-162.0,-41.0,0 -154.4,-41.0,0 -154.0,-43.0,0 -161.8,-43.0,0 -162.0,-41.0,0</coordinates>
            </LinearRing>
          </outerBoundaryIs>
        </Polygon>
      </MultiGeometry>
    </Placemark>
    <Placemark>
      <name>HYDROPAC 2299/26</name>
      <description>102354Z AUG 26  HYDROPAC 2299/26.  SOUTH PACIFIC.  NEW ZEALAND.  1. HAZARDOUS OPERATIONS, ROCKET LAUNCHING      0430Z TO 1645Z DAILY 15 AUG THRU 04 SEP     IN AREA BOUND BY     39-12.00S 177-48.00E, 39-12.00S 177-57.00E,     39-07.20S 178-12.00E, 39-12.00S 179-00.00E,     39-45.00S 178-51.60E, 39-26.40S 177-31.80E.  2. CANCEL THIS MSG 041745Z SEP 26.</description>
      <Polygon>
        <outerBoundaryIs>
          <LinearRing>
            <coordinates>177.8,-39.2,0 177.95,-39.2,0 178.2,-39.12,0 179.0,-39.2,0 178.86,-39.75,0 177.53,-39.44,0 177.8,-39.2,0</coordinates>
          </LinearRing>
        </outerBoundaryIs>
      </Polygon>
    </Placemark>
    <Placemark>
      <name>HYDROPAC 2289/26</name>
      <description>100808Z AUG 26  HYDROPAC 2289/26.  SOUTH PACIFIC.  1. HAZARDOUS OPERATIONS, SPACE DEBRIS     2100Z TO 1800Z DAILY 13 THRU 26 AUG     IN AREAS BOUND BY:     A. 59-42.60S 165-49.20E, 59-42.60S 180-00.00E,        62-33.00S 180-00.00E, 62-33.00S 162-33.60E.     B. 59-42.60S 180-00.00W, 58-39.87S 161-41.05W,        57-28.80S 126-01.20W, 60-23.40S 122-04.80W,        61-31.90S 161-16.02W, 62-33.00S 180-00.00W.  2. CANCEL THIS MSG 271900Z AUG 26.</description>
      <MultiGeometry>
        <Polygon>
          <outerBoundaryIs>
            <LinearRing>
              <coordinates>165.82,-59.71,0 180.0,-59.71,0 180.0,-62.55,0 162.56,-62.55,0 165.82,-59.71,0</coordinates>
            </LinearRing>
          </outerBoundaryIs>
        </Polygon>
        <Polygon>
          <outerBoundaryIs>
            <LinearRing>
              <coordinates>-180.0,-59.71,0 -161.684167,-58.6645,0 -126.02,-57.48,0 -122.08,-60.39,0 -161.267,-61.531667,0 -180.0,-62.55,0 -180.0,-59.71,0</coordinates>
            </LinearRing>
          </outerBoundaryIs>
        </Polygon>
      </MultiGeometry>
    </Placemark>
    <Placemark>
      <name>HYDROARC 176/26</name>
      <description>190047Z AUG 26  HYDROARC 176/26.  BARENTS SEA.  RUSSIA.  1. HAZARDOUS OPERATIONS, ROCKET LAUNCHING      0001Z TO 1800Z DAILY UNTIL 23 AUG     IN AREA BOUND BY     69-17.00N 051-14.00E, 69-01.00N 052-02.00E,     68-19.00N 050-27.00E, 68-33.00N 049-48.00E.  2. CANCEL THIS MSG 231900Z AUG 26.</description>
      <Polygon>
        <outerBoundaryIs>
          <LinearRing>
            <coordinates>51.233333,69.283333,0 52.033333,69.016667,0 50.45,68.316667,0 49.8,68.55,0 51.233333,69.283333,0</coordinates>
          </LinearRing>
        </outerBoundaryIs>
      </Polygon>
    </Placemark>
    <Placemark>
      <name>HYDROARC 175/26</name>
      <description>181756Z AUG 26  HYDROARC 175/26.  BARENTS SEA.  RUSSIA.  1. HAZARDOUS OPERATIONS, ROCKET LAUNCHING      232100Z TO 240001Z, 0001Z TO 1800Z AND      2100Z TO 0001Z DAILY 24 THRU 29 AND      300000Z TO 301800Z AUG IN AREA BOUND BY     68-44.00N 049-49.00E, 68-30.00N 050-37.00E,     67-56.00N 049-25.00E, 67-52.00N 048-48.00E,     68-01.00N 048-18.00E.  2. CANCEL THIS MSG 301900Z AUG 26.</description>
      <Polygon>
        <outerBoundaryIs>
          <LinearRing>
            <coordinates>49.816667,68.733333,0 50.616667,68.5,0 49.416667,67.933333,0 48.8,67.866667,0 48.3,68.016667,0 49.816667,68.733333,0</coordinates>
          </LinearRing>
        </outerBoundaryIs>
      </Polygon>
    </Placemark>
    <Placemark>
      <name>HYDROARC 174/26</name>
      <description>171744Z AUG 26  HYDROARC 174/26.  BARENTS SEA.  RUSSIA.  1. HAZARDOUS OPERATIONS, ROCKET LAUNCHING      192100Z TO 200001Z, 0000Z TO 1800Z AND     2100Z TO 0000Z DAILY 20 THRU 29 AND      300000Z TO 301800Z AUG IN AREAS BOUND BY:     A. 70-47.00N 046-22.00E, 70-37.00N 047-36.00E,        69-46.00N 046-36.00E, 69-56.00N 045-20.00E.     B. 74-04.00N 051-13.50E, 73-51.67N 052-40.00E,        72-44.00N 050-36.00E, 72-57.00N 049-13.00E.  2. CANCEL THIS MSG 301900Z AUG 26.</description>
      <MultiGeometry>
        <Polygon>
          <outerBoundaryIs>
            <LinearRing>
              <coordinates>46.366667,70.783333,0 47.6,70.616667,0 46.6,69.766667,0 45.333333,69.933333,0 46.366667,70.783333,0</coordinates>
            </LinearRing>
          </outerBoundaryIs>
        </Polygon>
        <Polygon>
          <outerBoundaryIs>
            <LinearRing>
              <coordinates>51.225,74.066667,0 52.666667,73.861167,0 50.6,72.733333,0 49.216667,72.95,0 51.225,74.066667,0</coordinates>
            </LinearRing>
          </outerBoundaryIs>
        </Polygon>
      </MultiGeometry>
    </Placemark>
    <Placemark>
      <name>HYDROARC 168/26</name>
      <description>122001Z AUG 26  HYDROARC 168/26.  BARENTS SEA.  RUSSIA.  1. HAZARDOUS OPERATIONS, ROCKET LAUNCHING      132100Z TO 132359Z, 0001Z TO 1800Z AND     2100Z TO 2359Z DAILY 14 THRU 26 AND     270001Z TO 271800Z AUG IN AREAS BOUND BY:     A. 69-17.00N 051-14.00E, 69-01.00N 052-02.00E,        68-19.00N 050-27.00E, 68-33.00N 049-48.00E.     B. 70-33.94N 032-36.68E, 70-46.27N 033-52.16E,        69-45.82N 035-13.22E, 69-34.82N 033-57.43E.     C. 72-47.18N 029-27.88E, 73-01.54N 030-54.23E,        71-53.17N</description>
      <MultiGeometry>
        <Polygon>
          <outerBoundaryIs>
            <LinearRing>
              <coordinates>51.233333,69.283333,0 52.033333,69.016667,0 50.45,68.316667,0 49.8,68.55,0 51.233333,69.283333,0</coordinates>
            </LinearRing>
          </outerBoundaryIs>
        </Polygon>
        <Polygon>
          <outerBoundaryIs>
            <LinearRing>
              <coordinates>32.611333,70.565667,0 33.869333,70.771167,0 35.220333,69.763667,0 33.957167,69.580333,0 32.611333,70.565667,0</coordinates>
            </LinearRing>
          </outerBoundaryIs>
        </Polygon>
        <Polygon>
          <outerBoundaryIs>
            <LinearRing>
              <coordinates>29.464667,72.786333,0 30.903833,73.025667,0 32.914333,71.886167,0 31.420333,71.659667,0 29.464667,72.786333,0</coordinates>
            </LinearRing>
          </outerBoundaryIs>
        </Polygon>
      </MultiGeometry>
    </Placemark>
    <Placemark>
      <name>NAVAREA XII 551/26</name>
      <description>080730Z AUG 26  NAVAREA XII 551/26.  NORTH PACIFIC.  CALIFORNIA.  1. HAZARDOUS OPERATIONS, ROCKET LAUNCHING      A. 190200Z TO 190625Z AUG, ALTERNATE        0200Z TO 0625Z DAILY 20 THRU 25 AUG        IN AREAS BOUND BY:        34-29.00N 120-29.00W, 34-40.00N 120-37.00W,        34-38.00N 120-42.00W, 33-49.00N 120-55.00W,        29-13.00N 121-56.00W, 29-13.00N 121-36.00W.     B. 190200Z TO 190643Z AUG, ALTERNATE        0200Z TO 0643Z DAILY 20 THRU 25 AUG        IN AREAS BOUND BY:        29-13.00N 1</description>
      <MultiGeometry>
        <Polygon>
          <outerBoundaryIs>
            <LinearRing>
              <coordinates>-120.483333,34.483333,0 -120.616667,34.666667,0 -120.7,34.633333,0 -120.916667,33.816667,0 -121.933333,29.216667,0 -121.6,29.216667,0 -120.483333,34.483333,0</coordinates>
            </LinearRing>
          </outerBoundaryIs>
        </Polygon>
        <Polygon>
          <outerBoundaryIs>
            <LinearRing>
              <coordinates>-121.516667,29.216667,0 -122.05,29.216667,0 -122.233333,28.816667,0 -122.1,27.683333,0 -121.416667,28.7,0 -121.516667,29.216667,0</coordinates>
            </LinearRing>
          </outerBoundaryIs>
        </Polygon>
      </MultiGeometry>
    </Placemark>
    <Placemark>
      <name>NAVAREA XII 539/26</name>
      <description>042326Z AUG 26  NAVAREA XII 539/26.  NORTH PACIFIC.  CALIFORNIA.  1. HAZARDOUS OPERATIONS, ROCKET LAUNCHING:     A. 152152Z TO 160215Z AUG, ALTERNATE        162138Z TO 170201Z, 172124Z TO 180147Z,        182110Z TO 190133Z, 192056Z TO 200119Z,        202042Z TO 210105Z AND        212029Z TO 220052Z AUG IN AREA BOUND BY        34-28.00N 120-21.00W, 34-40.00N 120-37.00W,        34-39.00N 120-39.00W, 34-34.00N 120-39.00W,        34-19.00N 120-34.00W, 33-04.00N 119-51.00W,        32-20.00N 119-20.00</description>
      <MultiGeometry>
        <Polygon>
          <outerBoundaryIs>
            <LinearRing>
              <coordinates>-120.35,34.466667,0 -120.616667,34.666667,0 -120.65,34.65,0 -120.65,34.566667,0 -120.566667,34.316667,0 -119.85,33.066667,0 -119.333333,32.333333,0 -119.3,32.35,0 -119.616667,33.05,0 -120.35,34.466667,0</coordinates>
            </LinearRing>
          </outerBoundaryIs>
        </Polygon>
        <Polygon>
          <outerBoundaryIs>
            <LinearRing>
              <coordinates>-117.65,29.8,0 -118.816667,31.333333,0 -118.833333,31.316667,0 -118.65,30.6,0 -118.366667,29.9,0 -118.133333,29.4,0 -117.65,29.8,0</coordinates>
            </LinearRing>
          </outerBoundaryIs>
        </Polygon>
        <Polygon>
          <outerBoundaryIs>
            <LinearRing>
              <coordinates>-117.65,29.8,0 -118.133333,29.4,0 -118.033333,29.25,0 -117.983333,29.033333,0 -117.35,28.216667,0 -117.266667,29.6,0 -117.65,29.8,0</coordinates>
            </LinearRing>
          </outerBoundaryIs>
        </Polygon>
      </MultiGeometry>
    </Placemark>
    <Placemark>
      <name>HYDROPAC 2332/26</name>
      <description>110648Z AUG 26  HYDROPAC 2332/26.  SOUTH PACIFIC.  1. HAZARDOUS OPERATIONS, SPACE DEBRIS     0343Z TO 0829Z DAILY 19 THRU 25 AUG     IN AREA BOUND BY     25-23.00S 156-56.00W, 26-03.00S 153-24.00W,     43-04.00S 157-03.00W, 59-49.00S 163-34.00W,     59-13.00S 168-58.00W, 42-28.00S 161-17.00W.  2. CANCEL THIS MSG 250929Z AUG 26.</description>
      <Polygon>
        <outerBoundaryIs>
          <LinearRing>
            <coordinates>-156.933333,-25.383333,0 -153.4,-26.05,0 -157.05,-43.066667,0 -163.566667,-59.816667,0 -168.966667,-59.216667,0 -161.283333,-42.466667,0 -156.933333,-25.383333,0</coordinates>
          </LinearRing>
        </outerBoundaryIs>
      </Polygon>
    </Placemark>
    <Placemark>
      <name>HYDROPAC 2286/26</name>
      <description>072313Z AUG 26  HYDROPAC 2286/26.  SOUTH PACIFIC.  1. HAZARDOUS OPERATIONS, SPACE DEBRIS     152339Z TO 160417Z, 162325Z TO 170403Z,     172311Z TO 180349Z, 182257Z TO 190335Z,     192243Z TO 200321Z, 202229Z TO 210307Z,     212216Z TO 220254Z AUG IN AREA BOUND BY     27-59.00S 122-44.00W, 27-09.00S 120-43.00W,     38-21.00S 115-04.00W, 49-09.00S 107-22.00W,     59-09.00S 095-34.00W, 59-58.00S 099-05.00W,     44-34.00S 114-13.00W.  2. CANCEL THIS MSG 220354Z AUG 26.</description>
      <Polygon>
        <outerBoundaryIs>
          <LinearRing>
            <coordinates>-122.733333,-27.983333,0 -120.716667,-27.15,0 -115.066667,-38.35,0 -107.366667,-49.15,0 -95.566667,-59.15,0 -99.083333,-59.966667,0 -114.216667,-44.566667,0 -122.733333,-27.983333,0</coordinates>
          </LinearRing>
        </outerBoundaryIs>
      </Polygon>
    </Placemark>
  </Document>
</kml>