<?xml version='1.0' encoding='UTF-8'?>
<kml xmlns="http://www.opengis.net/kml/2.2">
  <Document>
    <name>Maritime Warnings</name>
    <Placemark>
      <name>NAVAREA IV 970/26</name>
      <description>071319Z OCT 26  NAVAREA IV 970/26.  NORTH ATLANTIC.  FLORIDA.  1. HAZARDOUS OPERATIONS, ROCKET LAUNCHING      131024Z TO 131114Z OCT, ALTERNATE      140958Z TO 141048Z, 150935Z TO 151025Z,      160913Z TO 161003Z, 170850Z TO 170940Z,       180825Z TO 180915Z, AND      190802Z TO 190852Z OCT IN AREAS BOUND BY:     A. 31-04.00N 077-59.00W, 31-36.00N 077-41.00W,        31-55.00N 077-22.00W, 32-14.00N 076-44.00W,        32-11.00N 076-38.00W, 31-34.00N 076-53.00W,        31-15.00N 077-16.00W, 31-00.0</description>
      <MultiGeometry>
        <Polygon>
          <outerBoundaryIs>
            <LinearRing>
              <coordinates>-77.983333,31.066667,0 -77.683333,31.6,0 -77.366667,31.916667,0 -76.733333,32.233333,0 -76.633333,32.183333,0 -76.883333,31.566667,0 -77.266667,31.25,0 -77.933333,31.0,0 -77.983333,31.066667,0</coordinates>
            </LinearRing>
          </outerBoundaryIs>
        </Polygon>
        <Polygon>
          <outerBoundaryIs>
            <LinearRing>
              <coordinates>-80.6155,28.6325,0 -80.466667,28.866667,0 -79.1,30.15,0 -78.9,29.95,0 -80.333333,28.516667,0 -80.53,28.467,0 -80.6155,28.6325,0</coordinates>
            </LinearRing>
          </outerBoundaryIs>
        </Polygon>
      </MultiGeometry>
    </Placemark>
    <Placemark>
      <name>NAVAREA IV 870/26</name>
      <description>021815Z SEP 26  NAVAREA IV 870/26.  NORTH ATLANTIC.  FRENCH GUIANA.  1. HAZARDOUS OPERATIONS, SPACE DEBRIS     0111Z TO 0151Z DAILY 15 SEP THRU 15 OCT     IN AREA BOUND BY     05-48.00N 052-54.00W, 05-50.55N 052-26.40W,     05-12.60N 052-40.98W, 05-23.46N 052-53.80W.  2. CANCEL THIS MSG 150251Z OCT 26.</description>
      <Polygon>
        <outerBoundaryIs>
          <LinearRing>
            <coordinates>-52.9,5.8,0 -52.44,5.8425,0 -52.683,5.21,0 -52.896667,5.391,0 -52.9,5.8,0</coordinates>
          </LinearRing>
        </outerBoundaryIs>
      </Polygon>
    </Placemark>
    <Placemark>
      <name>NAVAREA XII 710/26</name>
      <description>072346Z OCT 26  NAVAREA XII 710/26.  NORTH PACIFIC.  CALIFORNIA.  1. HAZARDOUS OPERATIONS, ROCKET LAUNCHING:     A. 080744Z TO 080830Z, 090736Z TO 090822Z,        100729Z TO 100815Z, 110721Z TO 110807Z,        120714Z TO 120800Z, 130706Z TO 130752Z,        140659Z TO 140745Z, 150651Z TO 150737Z AND        160643Z TO 160730Z OCT IN AREA BOUND BY        30-23.00N 119-52.00W, 31-20.00N 120-03.00W,        32-32.00N 120-14.00W, 34-33.00N 120-42.00W,        34-40.00N 120-38.00W, 34-38.00N 120-27.00W, </description>
      <MultiGeometry>
        <Polygon>
          <outerBoundaryIs>
            <LinearRing>
              <coordinates>-119.866667,30.383333,0 -120.05,31.333333,0 -120.233333,32.533333,0 -120.7,34.55,0 -120.633333,34.666667,0 -120.45,34.633333,0 -120.15,32.5,0 -119.8,30.683333,0 -119.816667,30.4,0 -119.866667,30.383333,0</coordinates>
            </LinearRing>
          </outerBoundaryIs>
        </Polygon>
        <Polygon>
          <outerBoundaryIs>
            <LinearRing>
              <coordinates>-119.933333,30.35,0 -119.516667,30.333333,0 -118.816667,29.783333,0 -118.75,29.416667,0 -119.266667,28.916667,0 -119.683333,28.933333,0 -120.383333,29.5,0 -120.45,29.866667,0 -119.933333,30.35,0</coordinates>
            </LinearRing>
          </outerBoundaryIs>
        </Polygon>
      </MultiGeometry>
    </Placemark>
    <Placemark>
      <name>NAVAREA XII 702/26</name>
      <description>271924Z SEP 26  NAVAREA XII 702/26.  NORTH PACIFIC.  CALIFORNIA.  1. HAZARDOUS OPERATIONS, ROCKET LAUNCHING      A. 102300Z TO 110325Z OCT, ALTERNATE         2300Z TO 0325Z DAILY 11 THRU 16 OCT         IN AREA BOUND BY        29-48.00N 117-39.00W, 34-28.00N 120-18.00W,        34-40.00N 120-36.00W, 34-39.00N 120-39.00W,        34-30.00N 120-39.00W, 29-35.00N 118-12.00W,        29-52.00N 117-54.00W.     B. 102300Z TO 110343Z OCT, ALTERNATE         2300Z TO 0343Z DAILY 11 THRU 16 OCT         IN ARE</description>
      <MultiGeometry>
        <Polygon>
          <outerBoundaryIs>
            <LinearRing>
              <coordinates>-117.65,29.8,0 -120.3,34.466667,0 -120.6,34.666667,0 -120.65,34.65,0 -120.65,34.5,0 -118.2,29.583333,0 -117.9,29.866667,0 -117.65,29.8,0</coordinates>
            </LinearRing>
          </outerBoundaryIs>
        </Polygon>
        <Polygon>
          <outerBoundaryIs>
            <LinearRing>
              <coordinates>-117.65,29.8,0 -117.9,29.866667,0 -118.2,29.583333,0 -118.133333,29.4,0 -118.033333,29.25,0 -117.983333,29.033333,0 -117.316667,28.2,0 -117.316667,28.833333,0 -117.266667,29.6,0 -117.65,29.8,0</coordinates>
            </LinearRing>
          </outerBoundaryIs>
        </Polygon>
      </MultiGeometry>
    </Placemark>
    <Placemark>
      <name>NAVAREA XII 392/25(16)</name>
      <description>242359Z JUN 25  NAVAREA XII 392/25(16).  NORTH PACIFIC.  M/V MORNING MIDAS SANK IN 45-16.88N 179-14.13W.  VESSELS IN VICINITY REQUESTED TO NAVIGATE WITH  CAUTION AND REPORT PRESENCE OF OIL SHEENS OR  DEBRIS TO USCG SECTOR WESTERN ALASKA AND US ARCTIC,  PHONE: 907 428 4100, E-MAIL: SOUTHWESTERNAK@USCG.MIL.</description>
      <Polygon>
        <outerBoundaryIs>
          <LinearRing>
            <coordinates>-179.2355,45.281333,0</coordinates>
          </LinearRing>
        </outerBoundaryIs>
      </Polygon>
    </Placemark>
    <Placemark>
      <name>NAVAREA XII 93/23(19)</name>
      <description>282248Z FEB 23  NAVAREA XII 93/23(19).  NORTH PACIFIC.  HAWAII.  1. INTERMITTENT MISSILE FIRING OPERATIONS CONDUCTED     BY THE PACIFIC MISSILE RANGE FACILITY (PMRF),     BARKING SANDS, KAUAI, HAWAII, IN WHISKEY     188 (W-188) OPERATING AREA. OPERATIONS ARE     CONDUCTED PERIODICALLY THROUGHOUT EACH WEEK     IN AREA BOUND BY     22-00.0N 159-51.0W, 22-00.0N 160-00.0W,     22-04.0N 160-06.0W, 21-59.5N 160-21.0W,     22-05.0N 161-35.0W, 22-45.0N 161-25.0W,     22-56.0N 161-49.0W, 23-34.0N 161-18.</description>
      <Polygon>
        <outerBoundaryIs>
          <LinearRing>
            <coordinates>-159.85,22.0,0 -160.0,22.0,0 -160.1,22.066667,0 -160.35,21.991667,0 -161.583333,22.083333,0 -161.416667,22.75,0 -161.816667,22.933333,0 -161.31,23.566667,0 -160.683333,23.95,0 -161.6,25.683333,0 -159.966667,26.0,0 -158.25,25.783333,0 -158.25,23.9,0 -159.15,22.333333,0 -159.5,22.35,0 -159.7,22.216667,0 -159.85,22.0,0</coordinates>
          </LinearRing>
        </outerBoundaryIs>
      </Polygon>
    </Placemark>
    <Placemark>
      <name>HYDROLANT 2001/26</name>
      <description>072317Z OCT 26  HYDROLANT 2001/26.  EASTERN INDIAN OCEAN.  SOUTH ATLANTIC.  1. HAZARDOUS OPERATIONS, SPACE DEBRIS     081006Z TO 081101Z, 090958Z TO 091053Z     100951Z TO 101046Z, 110943Z TO 111038Z     120936Z TO 121031Z, 130928Z TO 131023Z     140921Z TO 141016Z, 150913Z TO 151008Z     AND 160905Z TO 161001Z OCT     IN AREA BOUND BY     38-18.00S 018-00.00E, 38-00.00S 027-00.00E,     49-02.00S 025-15.00E, 60-00.00S 022-30.00E,     59-00.00S 010-00.00E, 48-44.00S 014-50.00E.  2. CANCEL HYDROLA</description>
      <Polygon>
        <outerBoundaryIs>
          <LinearRing>
            <coordinates>18.0,-38.3,0 27.0,-38.0,0 25.25,-49.033333,0 22.5,-60.0,0 10.0,-59.0,0 14.833333,-48.733333,0 18.0,-38.3,0</coordinates>
          </LinearRing>
        </outerBoundaryIs>
      </Polygon>
    </Placemark>
    <Placemark>
      <name>HYDROLANT 237/26(54)</name>
      <description>031744Z FEB 26  HYDROLANT 237/26(54).  AEGEAN SEA.  DNC 09.  1. MISSILE OPERATIONS 0530Z TO SUNSET DAILY EVERY     WEDNESDAY THRU SATURDAY UNTIL 14 JUN AND     16 SEB THRU 31 DEC IN AREAS:     A. BOUND BY        35-36.00N 024-07.00E, 36-18.00N 024-07.00E,        36-18.00N 025-59.00E, 36-25.00N 026-12.00E,        36-16.00N 026-40.00E, 35-36.00N 026-41.00E,        35-31.00N 024-11.00E.     B. WITHIN ONE MILE OF 35-32.00N 024-13.00E.     C. WITHIN ONE MILE OF 35-36.33N 024-10.00E.  2. CANCEL THIS M</description>
      <MultiGeometry>
        <Polygon>
          <outerBoundaryIs>
            <LinearRing>
              <coordinates>24.116667,35.6,0 24.116667,36.3,0 25.983333,36.3,0 26.2,36.416667,0 26.666667,36.266667,0 26.683333,35.6,0 24.183333,35.516667,0 24.116667,35.6,0</coordinates>
            </LinearRing>
          </outerBoundaryIs>
        </Polygon>
        <Polygon>
          <outerBoundaryIs>
            <LinearRing>
              <coordinates>24.216667,35.533333,0</coordinates>
            </LinearRing>
          </outerBoundaryIs>
        </Polygon>
        <Polygon>
          <outerBoundaryIs>
            <LinearRing>
              <coordinates>24.166667,35.6055,0</coordinates>
            </LinearRing>
          </outerBoundaryIs>
        </Polygon>
      </MultiGeometry>
    </Placemark>
    <Placemark>
      <name>HYDROPAC 2928/26</name>
      <description>081340Z OCT 26  HYDROPAC 2928/26.  SOUTH PACIFIC.  1. HAZARDOUS OPERATIONS, SPACE DEBRIS     121230Z OCT IN AREA BOUND BY     50-00.00S 130-00.00W, 30-30.00S 130-00.00W,     30-30.00S 160-00.00W, 50-00.00S 160-00.00W  2. CANCEL HYDROPAC 2905/26.  3. CANCEL THIS MSG 121330Z OCT 26.</description>
      <Polygon>
        <outerBoundaryIs>
          <LinearRing>
            <coordinates>-130.0,-50.0,0 -130.0,-30.5,0 -160.0,-30.5,0 -160.0,-50.0,0 -130.0,-50.0,0</coordinates>
          </LinearRing>
        </outerBoundaryIs>
      </Polygon>
    </Placemark>
    <Placemark>
      <name>HYDROPAC 2920/26</name>
      <description>051229Z OCT 26  HYDROPAC 2920/26.  SOUTH PACIFIC.  1. HAZARDOUS OPERATIONS, SPACE DEBRIS      131130Z TO 131225Z, 141104Z TO 141159Z,       151041Z TO 151136Z, 161019Z TO 161114Z,       170956Z TO 171051Z, 180931Z TO 181026Z     AND 190908Z TO 191003Z OCT      IN AREA BOUND BY     27-06.00S 149-35.00W, 28-54.00S 148-00.00W,     37-08.00S 157-59.00W, 44-20.00S 170-14.00W,     42-41.00S 171-31.00W, 35-24.00S 159-30.00W.  2. CANCEL THIS MSG 191103Z OCT 26.</description>
      <Polygon>
        <outerBoundaryIs>
          <LinearRing>
            <coordinates>-149.583333,-27.1,0 -148.0,-28.9,0 -157.983333,-37.133333,0 -170.233333,-44.333333,0 -171.516667,-42.683333,0 -159.5,-35.4,0 -149.583333,-27.1,0</coordinates>
          </LinearRing>
        </outerBoundaryIs>
      </Polygon>
    </Placemark>
    <Placemark>
      <name>HYDROPAC 2916/26</name>
      <description>072317Z OCT 26  HYDROPAC 2916/26.  EASTERN INDIAN OCEAN.  SOUTH ATLANTIC.  1. HAZARDOUS OPERATIONS, SPACE DEBRIS     081006Z TO 081101Z, 090958Z TO 091053Z     100951Z TO 101046Z, 110943Z TO 111038Z     120936Z TO 121031Z, 130928Z TO 131023Z     140921Z TO 141016Z, 150913Z TO 151008Z     AND 160905Z TO 161001Z OCT     IN AREA BOUND BY     38-18.00S 018-00.00E, 38-00.00S 027-00.00E,     49-02.00S 025-15.00E, 60-00.00S 022-30.00E,     59-00.00S 010-00.00E, 48-44.00S 014-50.00E.  2. CANCEL HYDROPAC</description>
      <Polygon>
        <outerBoundaryIs>
          <LinearRing>
            <coordinates>18.0,-38.3,0 27.0,-38.0,0 25.25,-49.033333,0 22.5,-60.0,0 10.0,-59.0,0 14.833333,-48.733333,0 18.0,-38.3,0</coordinates>
          </LinearRing>
        </outerBoundaryIs>
      </Polygon>
    </Placemark>
    <Placemark>
      <name>HYDROPAC 2894/26</name>
      <description>061024Z OCT 26  HYDROPAC 2894/26.  EASTERN INDIAN OCEAN.  INDIA.  1. HAZARDOUS OPERATIONS, ROCKET LAUNCHING      090530Z TO 090700Z OCT IN AREA BOUND BY     08-31.98N 076-52.05E, 08-34.48N 076-47.68E,     08-18.85N 075-37.45E, 08-06.23N 075-40.90E,     07-54.42N 075-46.52E, 07-43.73N 075-54.10E,     07-34.50N 076-03.45E, 08-27.07N 076-51.17E.  2. CANCEL THIS MSG 090800Z OCT 26.</description>
      <Polygon>
        <outerBoundaryIs>
          <LinearRing>
            <coordinates>76.8675,8.533,0 76.794667,8.574667,0 75.624167,8.314167,0 75.681667,8.103833,0 75.775333,7.907,0 75.901667,7.728833,0 76.0575,7.575,0 76.852833,8.451167,0 76.8675,8.533,0</coordinates>
          </LinearRing>
        </outerBoundaryIs>
      </Polygon>
    </Placemark>
    <Placemark>
      <name>HYDROPAC 2888/26</name>
      <description>051218Z OCT 26  HYDROPAC 2888/26.  SULU SEA.  PHILIPPINES.  1. HAZARDOUS OPERATIONS, SPACE DEBRIS      091700Z TO 092300Z OCT IN AREA BOUND BY     08-57.00N 119-36.00E, 08-45.00N 119-19.80E,     09-16.20N 118-57.00E, 09-28.20N 119-12.60E.  2. CANCEL THIS MSG 100001Z OCT 26.</description>
      <Polygon>
        <outerBoundaryIs>
          <LinearRing>
            <coordinates>119.6,8.95,0 119.33,8.75,0 118.95,9.27,0 119.21,9.47,0 119.6,8.95,0</coordinates>
          </LinearRing>
        </outerBoundaryIs>
      </Polygon>
    </Placemark>
    <Placemark>
      <name>HYDROPAC 2882/26</name>
      <description>030046Z OCT 26  HYDROPAC 2882/26.  SOUTH PACIFIC.  1. HAZARDOUS OPERATIONS, SPACE DEBRIS     0047Z TO 0525Z DAILY 11 THRU 17 OCT     IN AREA BOUND BY     27-59.00S 122-44.00W, 27-09.00S 120-43.00W,     38-21.00S 115-04.00W, 49-09.00S 107-22.00W,     59-09.00S 095-34.00W, 59-58.00S 099-05.00W,     44-34.00S 114-13.00W.  2. CANCEL THIS MSG 170625Z OCT 26.</description>
      <Polygon>
        <outerBoundaryIs>
          <LinearRing>
            <coordinates>-122.733333,-27.983333,0 -120.716667,-27.15,0 -115.066667,-38.35,0 -107.366667,-49.15,0 -95.566667,-59.15,0 -99.083333,-59.966667,0 -114.216667,-44.566667,0 -122.733333,-27.983333,0</coordinates>
          </LinearRing>
        </outerBoundaryIs>
      </Polygon>
    </Placemark>
    <Placemark>
      <name>HYDROPAC 2862/26</name>
      <description>021205Z OCT 26  HYDROPAC 2862/26.  NORTH PACIFIC.  PHILIPPINE SEA.  1. HAZARDOUS OPERATIONS, ROCKET LAUNCHING      070333Z TO 070453Z OCT, ALTERNATE     0328Z TO 0443Z DAILY 08 AND 14 OCT     IN AREAS BOUND BY:     A. 21-29.63N 128-41.38E, 21-37.99N 129-53.83E,        18-29.72N 130-17.60E, 18-21.37N 129-06.56E.     B. 12-45.04N 129-26.03E, 12-55.28N 131-04.99E,        08-14.81N 131-34.22E, 08-04.55N 129-56.77E.  2. CANCEL THIS MSG 140543Z OCT 26.</description>
      <MultiGeometry>
        <Polygon>
          <outerBoundaryIs>
            <LinearRing>
              <coordinates>128.689667,21.493833,0 129.897167,21.633167,0 130.293333,18.495333,0 129.109333,18.356167,0 128.689667,21.493833,0</coordinates>
            </LinearRing>
          </outerBoundaryIs>
        </Polygon>
        <Polygon>
          <outerBoundaryIs>
            <LinearRing>
              <coordinates>129.433833,12.750667,0 131.083167,12.921333,0 131.570333,8.246833,0 129.946167,8.075833,0 129.433833,12.750667,0</coordinates>
            </LinearRing>
          </outerBoundaryIs>
        </Polygon>
      </MultiGeometry>
    </Placemark>
    <Placemark>
      <name>HYDROPAC 2860/26</name>
      <description>020916Z OCT 26  HYDROPAC 2860/26.  NORTH PACIFIC.  SEA OF OKHOTSK.  KAMCHATKA.  1. MISSILE OPERATIONS 1400Z TO 0900Z      DAILY 05 THRU 15 OCT IN AREA BOUND BY     56-34.00N 154-14.00E, 56-34.00N 156-18.20E,     55-44.00N 155-32.00E, 52-35.00N 155-32.00E,     52-13.10N 158-25.00E, 52-54.30N 159-42.00E,     52-46.00N 160-30.00E, 51-40.00N 160-30.00E,     50-24.90N 158-53.10E, 49-23.50N 157-28.50E,     50-13.60N 156-03.00E, 51-30.10N 158-03.10E,     52-06.00N 154-14.00E.  2. CANCEL HYDROPAC 2845/2</description>
      <Polygon>
        <outerBoundaryIs>
          <LinearRing>
            <coordinates>154.233333,56.566667,0 156.303333,56.566667,0 155.533333,55.733333,0 155.533333,52.583333,0 158.416667,52.218333,0 159.7,52.905,0 160.5,52.766667,0 160.5,51.666667,0 158.885,50.415,0 157.475,49.391667,0 156.05,50.226667,0 158.051667,51.501667,0 154.233333,52.1,0 154.233333,56.566667,0</coordinates>
          </LinearRing>
        </outerBoundaryIs>
      </Polygon>
    </Placemark>
    <Placemark>
      <name>HYDROPAC 1650/25(16)</name>
      <description>242359Z JUN 25  HYDROPAC 1650/25(16).  NORTH PACIFIC.  DNC 25.  M/V MORNING MIDAS SANK IN 45-16.88N 179-14.13W.  VESSELS IN VICINITY REQUESTED TO NAVIGATE WITH  CAUTION AND REPORT PRESENCE OF OIL SHEENS OR  DEBRIS TO USCG SECTOR WESTERN ALASKA AND US ARCTIC,  PHONE: 907 428 4100, E-MAIL: SOUTHWESTERNAK@USCG.MIL.</description>
      <Polygon>
        <outerBoundaryIs>
          <LinearRing>
            <coordinates>-179.2355,45.281333,0</coordinates>
          </LinearRing>
        </outerBoundaryIs>
      </Polygon>
    </Placemark>
    <Placemark>
      <name>HYDROARC 280/26</name>
      <description>051820Z OCT 26  HYDROARC 280/26.  BARENTS SEA.  WHITE SEA.  RUSSIA.  1. MISSILE OPERATIONS 0400Z TO 1500Z DAILY     10 THRU 13 OCT IN AREAS BOUND BY:     A. 73-48.00N 040-10.00E, 68-33.00N 044-42.00E,        66-59.00N 044-24.00E, 66-54.00N 043-31.00E,        73-33.00N 037-31.00E.     B. 67-42.00N 045-18.00E, 67-07.00N 045-42.00E,        67-07.00N 045-37.00E, 67-22.00N 044-55.00E.  2. CANCEL THIS MSG 131600Z OCT 26.</description>
      <MultiGeometry>
        <Polygon>
          <outerBoundaryIs>
            <LinearRing>
              <coordinates>40.166667,73.8,0 44.7,68.55,0 44.4,66.983333,0 43.516667,66.9,0 37.516667,73.55,0 40.166667,73.8,0</coordinates>
            </LinearRing>
          </outerBoundaryIs>
        </Polygon>
        <Polygon>
          <outerBoundaryIs>
            <LinearRing>
              <coordinates>45.3,67.7,0 45.7,67.116667,0 45.616667,67.116667,0 44.916667,67.366667,0 45.3,67.7,0</coordinates>
            </LinearRing>
          </outerBoundaryIs>
        </Polygon>
      </MultiGeometry>
    </Placemark>
    <Placemark>
      <name>HYDROARC 228/26</name>
      <description>101300Z SEP 26  HYDROARC 228/26.  ARCTIC.  1. HAZARDOUS OPERATIONS, ROCKET LAUNCHING      0128Z TO 0244Z DAILY 15 SEP THRU 15 OCT     IN AREA BOUND BY     77-06.00N 161-35.00E, 76-42.00N 163-41.00E,     81-06.00N 135-04.00W, 81-42.00N 134-18.00W.  2. CANCEL THIS MSG 150344Z OCT 26.</description>
      <Polygon>
        <outerBoundaryIs>
          <LinearRing>
            <coordinates>161.583333,77.1,0 163.683333,76.7,0 -135.066667,81.1,0 -134.3,81.7,0 161.583333,77.1,0</coordinates>
          </LinearRing>
        </outerBoundaryIs>
      </Polygon>
    </Placemark>
  </Document>
</kml>