<?xml version='1.0' encoding='UTF-8'?>
<kml xmlns="http://www.opengis.net/kml/2.2">
  <Document>
    <name>Aerospace NOTAMs</name>
    <Style id="polyStyle">
      <LineStyle>
        <color>ff000000</color>
        <width>2</width>
      </LineStyle>
      <PolyStyle>
        <color>7700ff00</color>
      </PolyStyle>
    </Style>
    <Style id="circleStyle">
      <LineStyle>
        <color>ff000000</color>
        <width>2</width>
      </LineStyle>
      <PolyStyle>
        <color>770000ff</color>
      </PolyStyle>
    </Style>
    <Style id="lineStyle">
      <LineStyle>
        <color>ff000000</color>
        <width>2</width>
      </LineStyle>
      <PolyStyle>
        <color>77ff0000</color>
      </PolyStyle>
    </Style>
    <Placemark>
      <name>J5540/2025</name>
      <description>J5540/25 NOTAMN  Q) YBBB/QFAXX/IV/NBO/A/000/999/1431S13223E005  A) YPTN  B) 2512141600 C) PERM  E) LOCAL TRAFFIC REGULATIONS AMD  CHANGE THE FLW TO READ:  5. MULTI ENG PROPELLER ACFT ARE NOT TO CONDUCT FULL PWR ENG RUNS ON  PAVED HARDSTAND DUE TO CREATION OF FOREIGN OBJECT DEBRIS.  REMOVE THE FLW:  NOTE 2  NOTE 10  AMD EN ROUTE SUPPLEMENT AUSTRALIA (ERSA    CREATED: 02 DEC 2025 02:18  SOURCE: YBBBZEZX</description>
      <styleUrl>#circleStyle</styleUrl>
      <Polygon>
        <outerBoundaryIs>
          <LinearRing>
            <coordinates>132.4694148388005,-14.516666666666667,0 132.46810706730835,-14.502195985194422,0 132.46422348880697,-14.488164988056194,0 132.4578821038639,-14.475000000000001,0 132.44927559225178,-14.463101032526122,0 132.43866545847078,-14.452829629740085,0 132.42637408606691,-14.444497883017965,0 132.4127749421709,-14.438358948267842,0 132.39828122988854,-14.434599353915651,0 132.38333333333333,-14.433333333333334,0 132.3683854367781,-14.434599353915651,0 132.35389172449575,-14.438358948267842,0 132.34029258059974,-14.444497883017965,0 132.32800120819587,-14.452829629740085,0 132.31739107441487,-14.463101032526122,0 132.30878456280274,-14.475000000000001,0 132.3024431778597,-14.488164988056194,0 132.2985595993583,-14.502195985194422,0 132.29725182786615,-14.516666666666667,0 132.2985595993583,-14.531137348138913,0 132.3024431778597,-14.54516834527714,0 132.30878456280274,-14.558333333333334,0 132.31739107441487,-14.570232300807213,0 132.32800120819587,-14.58050370359325,0 132.34029258059974,-14.58883545031537,0 132.35389172449575,-14.594974385065493,0 132.3683854367781,-14.598733979417684,0 132.38333333333333,-14.600000000000001,0 132.39828122988854,-14.598733979417684,0 132.4127749421709,-14.594974385065493,0 132.42637408606691,-14.58883545031537,0 132.43866545847078,-14.58050370359325,0 132.44927559225178,-14.570232300807213,0 132.4578821038639,-14.558333333333334,0 132.46422348880697,-14.54516834527714,0 132.46810706730835,-14.531137348138913,0 132.4694148388005,-14.516666666666667,0</coordinates>
          </LinearRing>
        </outerBoundaryIs>
      </Polygon>
    </Placemark>
    <Placemark>
      <name>R3154/2025</name>
      <description>R3154/25 NOTAMN  Q) LFXX/QRTTT/IV/BO /W /000/999/4551N00432W190  A) LFRR LFBB B) 2601220000 C) 2701212359  E) TRIGGER NOTAM - AIRAC AIP SUP 207/25 MODIFIED :  MISSILE FIRING IN THE ATLANTIC OCEAN REQUIRING THE CREATION OF 6   TEMPORARY RESTRICTED AREAS (&amp;apos;ZRT&amp;apos;), OF 16 TEMPORARY DANGEROUS AREAS   (&amp;apos;ZDT&amp;apos;) AND FLIGHT PLAN BUFFER ZONE (FBZ) ASSOCIATED.  THESE &amp;apos;ZRT/ZDT&amp;apos; ARE ACTIVATED BY NOTAM AT D-7.  -----------------------------------------------------------------  PAGE</description>
      <styleUrl>#polyStyle</styleUrl>
      <Polygon>
        <outerBoundaryIs>
          <LinearRing>
            <coordinates>-1.663611,45.905833,0 -1.661667,45.945278,0 -1.261667,45.876944,0 -1.214722,45.86,0 -1.18,45.824722,0 -1.062222,45.587778,0 -1.066111,45.524167,0 -1.172778,45.479167,0 -1.686389,45.48,0 -1.684167,45.520278,0 -1.933056,45.519444,0 -1.950833,45.521389,0 -1.966944,45.526667,0 -1.98,45.535278,0 -1.988611,45.546111,0 -1.9925,45.558333,0 -1.991111,45.570833,0 -1.965,45.646667,0 -2.1375,45.658333,0 -2.836667,45.691111,0 -2.855278,45.694167,0 -2.871389,45.700833,0 -2.883611,45.710833,0 -2.890833,45.723056,0 -2.8925,45.736111,0 -2.886389,45.787222,0 -2.8825,45.798889,0 -2.874167,45.809167,0 -2.681944,45.984444,0 -2.665,45.995,0 -2.643611,46.000278,0 -2.399722,46.026667,0 -2.376667,46.026111,0 -1.663611,45.905833,0</coordinates>
          </LinearRing>
        </outerBoundaryIs>
      </Polygon>
    </Placemark>
    <Placemark>
      <name>B5162/26</name>
      <description>B5162/26 NOTAMN  Q) RPHI/QWMLW/IV/BO /W /000/999/0907N11917E023  A) RPHI B) 2610091920 C) 2610091949  E) SPECIAL OPS (AEROSPACE FLT ACT) WILL BE CONDUCTED BY CHINA.   EST FALL AREA OF UNBURNED DEBRIS WI:  091600N 1185700E -   092800N 1191300E -   085700N 1193600E -   084500N 1192000E -   091600N 1185700E  (28NM SOUTHEAST OF PUERTO PRINCESA AP).  F) SFC G) UNL    CREATED: 29 SEP 2026 07:36  SOURCE: EUECYIYN</description>
      <styleUrl>#polyStyle</styleUrl>
      <Polygon>
        <outerBoundaryIs>
          <LinearRing>
            <coordinates>118.95,9.266667,0 119.216667,9.466667,0 119.6,8.95,0 119.333333,8.75,0 118.95,9.266667,0</coordinates>
          </LinearRing>
        </outerBoundaryIs>
      </Polygon>
    </Placemark>
    <Placemark>
      <name>D3013/26</name>
      <description>D3013/26 NOTAMN    Q)RKRR/QRDCA/IV/BO/W/000/999/3030N12539E018  A)RKRR B)2610091500 C)2610201459  E)TEMPO DANGER AREA ACT AS FLW DUE TO CHINA SPACE ACTIVITY AREA   BOUNDED BY THE FOLLOWING   301900N1252300E-304600N1254500E-304322N1254921E   301344N1253241E-301900N1252300E      RMK :   NOTAM VALID TIME IS BASED ON CHINA AEROSPACE FLIGHT ACTIVITY TENT   SCHEDULE PROVIDED BY THE CAAC. A REPLACEMENT NOTAM WILL BE ISSUED   ACCORDINGLY ONCE THE EXACT SCHEDULED IS DISSEMINATED.  F)SFC G)UNL    CREATED:</description>
      <styleUrl>#polyStyle</styleUrl>
      <Polygon>
        <outerBoundaryIs>
          <LinearRing>
            <coordinates>125.383333,30.316667,0 125.75,30.766667,0 125.8225,30.722778,0 125.544722,30.228889,0 125.383333,30.316667,0</coordinates>
          </LinearRing>
        </outerBoundaryIs>
      </Polygon>
    </Placemark>
    <Placemark>
      <name>A1300/26</name>
      <description>A1300/26 NOTAMN  Q) NTTT/QRDCA/IV/BO/W/000/999/2837S14949W175  A) NTTT  B) 2610131130 C) 2610191003  D) 13 1130-1225, 14 1104-1159, 15 1041-1136, 16 1019-1114, 17   0956-1051, 18 0931-1026, 19 0908-1003  E) TEMPORARY DANGER AREA DUE TO SPACE DEBRIS RETURN OF SPACEX CRS-35   IN TAHITI FIR WITHIN AN AREA BOUNDED BY FOLLOWING POINTS:   2706S 14935W, 2854S 14800W, 3000S 14911W, 3000S 15246W, 2706S   14935W   THIS ACTIVITY ALSO IMPACTS THE FOLLOWING FIR : NZZO    THE FRENCH VERSION OF THIS NOTAM IS C</description>
      <styleUrl>#polyStyle</styleUrl>
      <Polygon>
        <outerBoundaryIs>
          <LinearRing>
            <coordinates>-149.583333,-27.1,0 -148.0,-28.9,0 -149.183333,-30.0,0 -152.766667,-30.0,0 -149.583333,-27.1,0</coordinates>
          </LinearRing>
        </outerBoundaryIs>
      </Polygon>
    </Placemark>
    <Placemark>
      <name>A1306/26</name>
      <description>A1306/26 NOTAMN  Q) NTTT/QRDCA/IV/BO/W/000/999/2858S12112W113  A) NTTT  B) 2610120047 C) 2610170525  D) 12 0047-0525  13 0047-0525  14 0047-0525  15 0047-0525  16 0047-0525  17 0047-0525    E) TEMPORARY DANGER AREA DUE TO SPACE DEBRIS RETURN OF SPACEX  STARLINK 15-25 IN TAHITI FIR WITHIN AN AREA BOUNDED BY FOLLOWING   POINTS:      3000S 12153W, 2759S 12244W, 2709S 12043W, 2843S 12000W,   3000S 12000W, 3000S 12153W      THIS ACTIVITY ALSO IMPACTS THE FOLLOWING FIR : SCIZ     THE FRENCH VERSION OF</description>
      <styleUrl>#polyStyle</styleUrl>
      <Polygon>
        <outerBoundaryIs>
          <LinearRing>
            <coordinates>-121.883333,-30.0,0 -122.733333,-27.983333,0 -120.716667,-27.15,0 -120.0,-28.716667,0 -120.0,-30.0,0 -121.883333,-30.0,0</coordinates>
          </LinearRing>
        </outerBoundaryIs>
      </Polygon>
    </Placemark>
    <Placemark>
      <name>A1307/26</name>
      <description>A1307/26 NOTAMN  Q) NTTT/QRDCA/IV/BO/W/000/999/2837S13426W150  A) NTTT  B) 2610160130 C) 2610220514  D) 16 0130-0608,17 0121-0559,18 0112-0550,19 0103-0541,20   0054-0532,21 0045-0523,22 0036-0514  E) TEMPORARY DANGER AREA DUE TO SPACE DEBRIS RETURN OF SPACEX TH-2   IN TAHITI FIR WITHIN AN AREA BOUNDED BY FOLLOWING POINTS :   2729S 13618W, 2657S 13313W, 3000S 13234W, 3000S 13552W, 2729S   13618W   THIS ACTIVITY ALSO IMPACTS THE FOLLOWING FIR : NZZO, SCIZ     THE FRENCH VERSION OF THIS NOTAM IS C</description>
      <styleUrl>#polyStyle</styleUrl>
      <Polygon>
        <outerBoundaryIs>
          <LinearRing>
            <coordinates>-136.3,-27.483333,0 -133.216667,-26.95,0 -132.566667,-30.0,0 -135.866667,-30.0,0 -136.3,-27.483333,0</coordinates>
          </LinearRing>
        </outerBoundaryIs>
      </Polygon>
    </Placemark>
    <Placemark>
      <name>A3882/26</name>
      <description>A3882/26 NOTAMN   Q)FAJO/QWMLW/IV/BO/W/000/999/4848S02018E721  A)FAJO B)2610100951 C)2610161001  D)10 0951-1046, 11 0943-1038, 12 0936-1031, 13 0928-1023,   14 0921-1016, 15 0913-1008,16 0905-1001  E)AREA BOUNDED BY (3818S 01800E, 3800S 02700E, 4902S 02515E, 6000S  02230E, 5900S 01000E, 4844S 01450E): SPACEX SDA-T1A STAGE 2: ROCKET  RE-ENTRY OPS TAKING PLACE.   APPLICABLE AIRSPACE DOWNGRADED TO  CLASS G.  F)SFC G)UNL    CREATED: 08 OCT 2026 13:30  SOURCE: FAJNYNYX</description>
      <styleUrl>#polyStyle</styleUrl>
      <Polygon>
        <outerBoundaryIs>
          <LinearRing>
            <coordinates>18.0,-38.3,0 27.0,-38.0,0 25.25,-49.033333,0 22.5,-60.0,0 10.0,-59.0,0 14.833333,-48.733333,0 18.0,-38.3,0</coordinates>
          </LinearRing>
        </outerBoundaryIs>
      </Polygon>
    </Placemark>
    <Placemark>
      <name>B2350/26</name>
      <description>B2350/26 NOTAMN  Q) MMFR/QRDCA/IV/BO/W/000/999/  A) MMFR  B) 2610102300  C) 2610170343  D) DLY 2300-0343  E) DANGEROUS AREA FOR REENTRY OF ROCKET SPACEX 15-25 STAGE 1      LATERAL LIMIT AREA FORMED BY THE UNION OF THE FLW POINTS:     2811N 11720W     2850N 11749W     2902N 11759W     2915N 11802W     2924N 11808W     2935N 11812W     3135N 11909W     3146N 11846W     2948N 11739W     2936N 11716W     2850N 11719W     2812N 11719W     2811N 11720W     (MMFR)  F) SFC  G) UNL    CREATED: 02 OCT 202</description>
      <styleUrl>#polyStyle</styleUrl>
      <Polygon>
        <outerBoundaryIs>
          <LinearRing>
            <coordinates>-117.333333,28.183333,0 -117.816667,28.833333,0 -117.983333,29.033333,0 -118.033333,29.25,0 -118.133333,29.4,0 -118.2,29.583333,0 -119.15,31.583333,0 -118.766667,31.766667,0 -117.65,29.8,0 -117.266667,29.6,0 -117.316667,28.833333,0 -117.316667,28.2,0 -117.333333,28.183333,0</coordinates>
          </LinearRing>
        </outerBoundaryIs>
      </Polygon>
    </Placemark>
    <Placemark>
      <name>B2619/26</name>
      <description>B2619/26 NOTAMR B2138/26  Q) MMFR/QRDCA/IV/BO/W/000/999/  A) MMFR  B) 2610100729  C) 2610160749  D) 10 0729-0834, 11 0721-0826, 12 0714-0819, 13 0706-0811,      14 0659-0804, 15 0651-0756, 16 0643-0749  E) DANGEROUS AREA FOR LAUNCH OF ROCKET SPACEX SDA-T1A     LATERAL LIMIT AREA FORMED BY THE UNION OF THE FLW POINTS:     3009N 12010W      3021N 11956W     3020N 11931W     2947N 11849W     2925N 11845W      2910N 11859W      3000N 12000W     3009N 12010W     FIR MEXIO (MMFR)  F) SFC  G) UNL    CR</description>
      <styleUrl>#polyStyle</styleUrl>
      <Polygon>
        <outerBoundaryIs>
          <LinearRing>
            <coordinates>-120.166667,30.15,0 -119.933333,30.35,0 -119.516667,30.333333,0 -118.816667,29.783333,0 -118.75,29.416667,0 -118.983333,29.166667,0 -120.0,30.0,0 -120.166667,30.15,0</coordinates>
          </LinearRing>
        </outerBoundaryIs>
      </Polygon>
    </Placemark>
    <Placemark>
      <name>B2620/26</name>
      <description>B2620/26 NOTAMR B2139/26  Q) MMFR/QRDCA/IV/BO/W/000/999/  A) MMFR  B) 2610100729  C) 2610160730  D) 10 0729-0815, 11 0721-0807, 12 0714-0800, 13 0706-0752, 14 0659-0745,     15 0651-0737, 16 0643-0730  E) DANGEROUS AREA FOR LAUNCH OF ROCKET SPACEX SDA-T1A     LATERAL LIMIT AREA FORMED BY THE UNION OF THE FLW POINTS:      3111N 12001W      3114N 11955W      3032N 11948W      3024N 11950W      3026N 11953W      3111N 12001W       MMFR  F) SFC  G) UNL    CREATED: 08 OCT 2026 13:48  SOURCE: MMMXYNYX</description>
      <styleUrl>#polyStyle</styleUrl>
      <Polygon>
        <outerBoundaryIs>
          <LinearRing>
            <coordinates>-120.016667,31.183333,0 -119.916667,31.233333,0 -119.8,30.533333,0 -119.833333,30.4,0 -119.883333,30.433333,0 -120.016667,31.183333,0</coordinates>
          </LinearRing>
        </outerBoundaryIs>
      </Polygon>
    </Placemark>
    <Placemark>
      <name>B2621/26</name>
      <description>B2621/26 NOTAMR B2141/26  Q) MMFR/QRDCA/IV/BO/W/000/999/  A) MMFO  B) 2610100729  C) 2610160749  D) 10 0729-0834, 11 0721-0826, 12 0714-0819, 13 0706-0811,     14 0659-0804, 15 0651-0756, 16 0643-0749  E) DANGEROUS AREA FOR LAUNCH OF ROCKET SPACEX SDA-T1A     LATERAL LIMIT AREA FORMED BY THE UNION OF THE FLW POINTS:     3000N 12000W     2910N 11859W     2855N 11916W     2856N 11941W     2911N 12000W     3000N 12000W     FIR MMFO  F) SFC  G) UNL    CREATED: 08 OCT 2026 13:52  SOURCE: MMMXYNYX</description>
      <styleUrl>#polyStyle</styleUrl>
      <Polygon>
        <outerBoundaryIs>
          <LinearRing>
            <coordinates>-120.0,30.0,0 -118.983333,29.166667,0 -119.266667,28.916667,0 -119.683333,28.933333,0 -120.0,29.183333,0 -120.0,30.0,0</coordinates>
          </LinearRing>
        </outerBoundaryIs>
      </Polygon>
    </Placemark>
    <Placemark>
      <name>B2632/26</name>
      <description>B2632/26 NOTAMN  Q) MMFR/QRDCA/IV/BO/W/000/999/  A) MMFR  B) 2610152344  C) 2610220316  D) 15 2344-0410, 16 2335-0401, 17 2326-0352, 18 2317-0343,      19 2308-0334, 20 2259-0325, 21 2250-0316  E) DANGEROUS AREA FOR REENTRY OF ROCKET SPACEX TH-2 STAGE 1      LATERAL LIMIT AREA FORMED BY THE UNION OF THE FLW POINTS:     3109N 12005W     3121N 11942W     2922N 11913W     2955N 11954W     3109N 12005W     (MMFR)  F) SFC  G) UNL    CREATED: 08 OCT 2026 19:33  SOURCE: MMMXYNYX</description>
      <styleUrl>#polyStyle</styleUrl>
      <Polygon>
        <outerBoundaryIs>
          <LinearRing>
            <coordinates>-120.083333,31.15,0 -119.7,31.35,0 -119.216667,29.366667,0 -119.9,29.916667,0 -120.083333,31.15,0</coordinates>
          </LinearRing>
        </outerBoundaryIs>
      </Polygon>
    </Placemark>
    <Placemark>
      <name>B2634/26</name>
      <description>B2634/26 NOTAMN  Q) MMFR/QRDCA/IV/BO/W/000/999/  A) MMFO  B) 2610152344  C) 2610220333  D) 15 2344-0427, 16 2335 0418, 17 2326-0409, 18 2317-0400, 19 2308-0351,     20 2259-0342, 21 2250-0333  E) DANGEROUS AREA FOR REENTRY OF ROCKET SPACEX TH-2 STAGE 1      LATERAL LIMIT AREA FORMED BY THE UNION OF THE FLW POINTS:     2955N  11954W     2922N  11913W     2920N  11913W     2855N  11846W     2839N  11844W     2819N  11908W     2738N  11916W     2846N  11953W     2901N  11954W     2908N  11947W     </description>
      <styleUrl>#polyStyle</styleUrl>
      <Polygon>
        <outerBoundaryIs>
          <LinearRing>
            <coordinates>-119.9,29.916667,0 -119.216667,29.366667,0 -119.216667,29.333333,0 -118.766667,28.916667,0 -118.733333,28.65,0 -119.133333,28.316667,0 -119.266667,27.633333,0 -119.883333,28.766667,0 -119.9,29.016667,0 -119.783333,29.133333,0 -119.9,29.916667,0</coordinates>
          </LinearRing>
        </outerBoundaryIs>
      </Polygon>
    </Placemark>
    <Placemark>
      <name>B4954/26</name>
      <description>B4954/26 NOTAMN  Q) NZZO/QRDCA/IV/BO /W /000/999/3728S15852W669  A) NZZO B) 2610131130 C) 2610131225  E) TEMPO DANGER AREA NZD092 (EAST AUCKLAND OCEANIC FIR) IS PRESCRIBED  AS FLW:  ALL THAT AIRSPACE BOUNDED BY A LINE JOINING:  30 00 S 149 11 W  37 08 S 157 59 W  44 20 S 170 14 W  42 41 S 171 31 W  35 24 S 159 30 W  30 00 S 152 46 W  30 00 S 149 11 W  ACTIVITY: SPACE DEBRIS RETURN  USING AGENCY: FOREIGN AEROSPACE FORCE  PRESCRIBED PURSUANT TO CIVIL AVIATION RULE PART 71 UNDER A DELEGATED  AUTHOR</description>
      <styleUrl>#polyStyle</styleUrl>
      <Polygon>
        <outerBoundaryIs>
          <LinearRing>
            <coordinates>-149.183333,-30.0,0 -157.983333,-37.133333,0 -170.233333,-44.333333,0 -171.516667,-42.683333,0 -159.5,-35.4,0 -152.766667,-30.0,0 -149.183333,-30.0,0</coordinates>
          </LinearRing>
        </outerBoundaryIs>
      </Polygon>
    </Placemark>
    <Placemark>
      <name>W3315/26</name>
      <description>W3315/26 NOTAMN   Q)SCIZ/QXXXX/IV/NBO/W/000/999/4030S13030W980  A)SCIZ B)2610120406 C)2610120530  E)ZONE ...D... IN WATERS PACIFIC OCEAN DUE TO SPACE VEHICLE RE-ENTRY  ACTIVITY. THE AFECCTED AREA IS BOUNDED BY NXT GEO COORD:  500000S/1300000W  303000S/1300000W  303000S/1310000W  500000S/1310000W  500000S/1300000W  INSTRUCTIONS SANTIAGO OCEANIC CONTROL 10024KHZ FANS 1A EQUIPPED  INFO PROVIDED BY NORTHROP GRUMMAN CORPORATION  F)GND G)UNL    CREATED: 01 OCT 2026 12:01  SOURCE: SCSCYNYX</description>
      <styleUrl>#polyStyle</styleUrl>
      <Polygon>
        <outerBoundaryIs>
          <LinearRing>
            <coordinates>-130.0,-50.0,0 -130.0,-30.5,0 -131.0,-30.5,0 -131.0,-50.0,0 -130.0,-50.0,0</coordinates>
          </LinearRing>
        </outerBoundaryIs>
      </Polygon>
    </Placemark>
    <Placemark>
      <name>W3432/26</name>
      <description>W3432/26 NOTAMN   Q)SCIZ/QXXXX/IV/NBO/W/000/999/4501S11153W980  A)SCIZ B)2610120047 C)2610170525  D)DLY BTN 0047-0525  E)ZONE...D... IN WATERS PACIFIC OCEAN DUE TO SPACE VEHICLE RE-ENTRY  AND SPLASHDOWN ACTIVITY. THE AFECCTED AREA IS BOUNDED BY NXT GEO  COORD:  300000S/1215300W  300000S/1200000W  284300S/1200000W  382100S/1150400W  490900S/1072200W  590900S/0953400W  595800S/0990500W  443400S/1141300W  300000S/1215300W  INSTRUCTIONS: SANTIAGO OCEANIC CONTROL 10024KHZ FANS 1A EQUIPPED  INFO PROVI</description>
      <styleUrl>#polyStyle</styleUrl>
      <Polygon>
        <outerBoundaryIs>
          <LinearRing>
            <coordinates>-121.883333,-30.0,0 -120.0,-30.0,0 -120.0,-28.716667,0 -115.066667,-38.35,0 -107.366667,-49.15,0 -95.566667,-59.15,0 -99.083333,-59.966667,0 -114.216667,-44.566667,0 -121.883333,-30.0,0</coordinates>
          </LinearRing>
        </outerBoundaryIs>
      </Polygon>
    </Placemark>
  </Document>
</kml>