<?xml version='1.0' encoding='UTF-8'?>
<kml xmlns="http://www.opengis.net/kml/2.2">
  <Document>
    <name>Aerospace NOTAMs</name>
    <Style id="polyStyle">
      <LineStyle>
        <color>ff000000</color>
        <width>2</width>
      </LineStyle>
      <PolyStyle>
        <color>7700ff00</color>
      </PolyStyle>
    </Style>
    <Style id="circleStyle">
      <LineStyle>
        <color>ff000000</color>
        <width>2</width>
      </LineStyle>
      <PolyStyle>
        <color>770000ff</color>
      </PolyStyle>
    </Style>
    <Style id="lineStyle">
      <LineStyle>
        <color>ff000000</color>
        <width>2</width>
      </LineStyle>
      <PolyStyle>
        <color>77ff0000</color>
      </PolyStyle>
    </Style>
    <Placemark>
      <name>J5540/2025</name>
      <description>J5540/25 NOTAMN  Q) YBBB/QFAXX/IV/NBO/A/000/999/1431S13223E005  A) YPTN  B) 2512141600 C) PERM  E) LOCAL TRAFFIC REGULATIONS AMD  CHANGE THE FLW TO READ:  5. MULTI ENG PROPELLER ACFT ARE NOT TO CONDUCT FULL PWR ENG RUNS ON  PAVED HARDSTAND DUE TO CREATION OF FOREIGN OBJECT DEBRIS.  REMOVE THE FLW:  NOTE 2  NOTE 10  AMD EN ROUTE SUPPLEMENT AUSTRALIA (ERSA    CREATED: 02 DEC 2025 02:18  SOURCE: YBBBZEZX</description>
      <styleUrl>#circleStyle</styleUrl>
      <Polygon>
        <outerBoundaryIs>
          <LinearRing>
            <coordinates>132.4694148388005,-14.516666666666667,0 132.46810706730835,-14.502195985194422,0 132.46422348880697,-14.488164988056194,0 132.4578821038639,-14.475000000000001,0 132.44927559225178,-14.463101032526122,0 132.43866545847078,-14.452829629740085,0 132.42637408606691,-14.444497883017965,0 132.4127749421709,-14.438358948267842,0 132.39828122988854,-14.434599353915651,0 132.38333333333333,-14.433333333333334,0 132.3683854367781,-14.434599353915651,0 132.35389172449575,-14.438358948267842,0 132.34029258059974,-14.444497883017965,0 132.32800120819587,-14.452829629740085,0 132.31739107441487,-14.463101032526122,0 132.30878456280274,-14.475000000000001,0 132.3024431778597,-14.488164988056194,0 132.2985595993583,-14.502195985194422,0 132.29725182786615,-14.516666666666667,0 132.2985595993583,-14.531137348138913,0 132.3024431778597,-14.54516834527714,0 132.30878456280274,-14.558333333333334,0 132.31739107441487,-14.570232300807213,0 132.32800120819587,-14.58050370359325,0 132.34029258059974,-14.58883545031537,0 132.35389172449575,-14.594974385065493,0 132.3683854367781,-14.598733979417684,0 132.38333333333333,-14.600000000000001,0 132.39828122988854,-14.598733979417684,0 132.4127749421709,-14.594974385065493,0 132.42637408606691,-14.58883545031537,0 132.43866545847078,-14.58050370359325,0 132.44927559225178,-14.570232300807213,0 132.4578821038639,-14.558333333333334,0 132.46422348880697,-14.54516834527714,0 132.46810706730835,-14.531137348138913,0 132.4694148388005,-14.516666666666667,0</coordinates>
          </LinearRing>
        </outerBoundaryIs>
      </Polygon>
    </Placemark>
    <Placemark>
      <name>R3154/2025</name>
      <description>R3154/25 NOTAMN  Q) LFXX/QRTTT/IV/BO /W /000/999/4551N00432W190  A) LFRR LFBB B) 2601220000 C) 2701212359  E) TRIGGER NOTAM - AIRAC AIP SUP 207/25 MODIFIED :  MISSILE FIRING IN THE ATLANTIC OCEAN REQUIRING THE CREATION OF 6   TEMPORARY RESTRICTED AREAS (&amp;apos;ZRT&amp;apos;), OF 16 TEMPORARY DANGEROUS AREAS   (&amp;apos;ZDT&amp;apos;) AND FLIGHT PLAN BUFFER ZONE (FBZ) ASSOCIATED.  THESE &amp;apos;ZRT/ZDT&amp;apos; ARE ACTIVATED BY NOTAM AT D-7.  -----------------------------------------------------------------  PAGE</description>
      <styleUrl>#polyStyle</styleUrl>
      <Polygon>
        <outerBoundaryIs>
          <LinearRing>
            <coordinates>-1.663611,45.905833,0 -1.661667,45.945278,0 -1.261667,45.876944,0 -1.214722,45.86,0 -1.18,45.824722,0 -1.062222,45.587778,0 -1.066111,45.524167,0 -1.172778,45.479167,0 -1.686389,45.48,0 -1.684167,45.520278,0 -1.933056,45.519444,0 -1.950833,45.521389,0 -1.966944,45.526667,0 -1.98,45.535278,0 -1.988611,45.546111,0 -1.9925,45.558333,0 -1.991111,45.570833,0 -1.965,45.646667,0 -2.1375,45.658333,0 -2.836667,45.691111,0 -2.855278,45.694167,0 -2.871389,45.700833,0 -2.883611,45.710833,0 -2.890833,45.723056,0 -2.8925,45.736111,0 -2.886389,45.787222,0 -2.8825,45.798889,0 -2.874167,45.809167,0 -2.681944,45.984444,0 -2.665,45.995,0 -2.643611,46.000278,0 -2.399722,46.026667,0 -2.376667,46.026111,0 -1.663611,45.905833,0</coordinates>
          </LinearRing>
        </outerBoundaryIs>
      </Polygon>
    </Placemark>
    <Placemark>
      <name>A4754/26</name>
      <description>A4754/26 NOTAMN  Q)ZBPE/QRDCA/IV/BO/W/000/999/3553N11209E012  A)ZBPE B)2609240838 C)2609240904   E) A TEMPORARY DANGER AREA ESTABLISHED BOUNDED BY:   N360200E1120100-N360400E1121500-N354400E1121800-N354200E1120400  BACK TO START.VERTICAL LIMITS:SFC-UNL.  AIRCRAFT ARE FORBIDDEN TO FLY INTO THE AREA.  F)SFC G)UNL    CREATED: 18 SEP 2026 10:50  SOURCE: ZBBBYNYX</description>
      <styleUrl>#polyStyle</styleUrl>
      <Polygon>
        <outerBoundaryIs>
          <LinearRing>
            <coordinates>112.016667,36.033333,0 112.25,36.066667,0 112.3,35.733333,0 112.066667,35.7,0 112.016667,36.033333,0</coordinates>
          </LinearRing>
        </outerBoundaryIs>
      </Polygon>
    </Placemark>
    <Placemark>
      <name>A4755/26</name>
      <description>A4755/26 NOTAMN  Q)ZJSA/QRDCA/IV/BO/W/000/999/1748N11212E039  A)ZJSA B)2609240840 C)2609240913   E) A TEMPORARY DANGER AREA ESTABLISHED BOUNDED BY:   N182400E1115500-N182400E1122800-N171300E1123000-N171200E1115700  BACK TO START.VERTICAL LIMITS:SFC-UNL.  AIRCRAFT ARE FORBIDDEN TO FLY INTO THE AREA.  F)SFC G)UNL    CREATED: 18 SEP 2026 10:52  SOURCE: ZBBBYNYX</description>
      <styleUrl>#polyStyle</styleUrl>
      <Polygon>
        <outerBoundaryIs>
          <LinearRing>
            <coordinates>111.916667,18.4,0 112.466667,18.4,0 112.5,17.216667,0 111.95,17.2,0 111.916667,18.4,0</coordinates>
          </LinearRing>
        </outerBoundaryIs>
      </Polygon>
    </Placemark>
    <Placemark>
      <name>B4912/26</name>
      <description>B4912/26 NOTAMN  Q) RPHI/QWMLW/IV/BO /W /000/999/1945N12932E089  A) RPHI B) 2610070323 C) 2610140453  D) 0323 - 0453  E) SPECIAL OPS (AEROSPACE FLT ACT) WILL BE CONDUCTED BY KOREA.  EST FALL AREA OF UNBURNED DEBRIS WI:  210000N 1284522E -  210000N 1295838E -  182943N 1301736E -  182122N 1290634E -  210000N 1284522E  (380NM EAST OF BASCO PRINCIPAL AP (CLASS 2))  F) SFC G) UNL    CREATED: 17 SEP 2026 13:16  SOURCE: EUECYIYN</description>
      <styleUrl>#polyStyle</styleUrl>
      <Polygon>
        <outerBoundaryIs>
          <LinearRing>
            <coordinates>128.756111,21.0,0 129.977222,21.0,0 130.293333,18.495278,0 129.109444,18.356111,0 128.756111,21.0,0</coordinates>
          </LinearRing>
        </outerBoundaryIs>
      </Polygon>
    </Placemark>
    <Placemark>
      <name>B4913/26</name>
      <description>B4913/26 NOTAMN  Q) RPHI/QWMLW/IV/BO /W /000/999/1027N12958E145  A) RPHI B) 2610070323 C) 2610140453  D) 0323 - 0453  E) SPECIAL OPS (AEROSPACE FLT ACT) WILL BE CONDUCTED BY KOREA.  EST FALL AREA OF UNBURNED DEBRIS WI:  124502N 1292602E -  124831N 1300000E -  080452N 1300000E -  080433N 1295646E -  124502N 1292602E  (220NM EAST OF BISLIG COMMUNITY AP).  F) SFC G) UNL    CREATED: 17 SEP 2026 13:24  SOURCE: EUECYIYN</description>
      <styleUrl>#polyStyle</styleUrl>
      <Polygon>
        <outerBoundaryIs>
          <LinearRing>
            <coordinates>129.433889,12.750556,0 130.0,12.808611,0 130.0,8.081111,0 129.946111,8.075833,0 129.433889,12.750556,0</coordinates>
          </LinearRing>
        </outerBoundaryIs>
      </Polygon>
    </Placemark>
    <Placemark>
      <name>B4932/26</name>
      <description>B4932/26 NOTAMN  Q) RPHI/QWMLW/IV/BO /W /000/999/1301N11558E038  A) RPHI B) 2609231324 C) 2609231349  E) SPECIAL OPS (AEROSPACE FLT ACT) WILL BE CONDUCTED BY CHINA.   EST FALL AREA OF UNBURNED DEBRIS WI:  131700N 1152500E -  133700N 1155200E -  124400N 1163100E -  122500N 1160400E -  131700N 1152500E  (223NM NORTHWEST OF PUERTO PRINCESA INTL AP).  F) SFC G) UNL    CREATED: 18 SEP 2026 10:03  SOURCE: EUECYIYN</description>
      <styleUrl>#polyStyle</styleUrl>
      <Polygon>
        <outerBoundaryIs>
          <LinearRing>
            <coordinates>115.416667,13.283333,0 115.866667,13.616667,0 116.516667,12.733333,0 116.066667,12.416667,0 115.416667,13.283333,0</coordinates>
          </LinearRing>
        </outerBoundaryIs>
      </Polygon>
    </Placemark>
    <Placemark>
      <name>B4933/26</name>
      <description>B4933/26 NOTAMN  Q) RPHI/QWMLW/IV/BO /W /000/999/0818N11919E044  A) RPHI B) 2609231325 C) 2609231400  E) SPECIAL OPS (AEROSPACE FLT ACT) WILL BE CONDUCTED BY CHINA.   EST FALL AREA OF UNBURNED DEBRIS WI:  084100N 1184300E -  090000N 1191100E -  085400N 1192200E -  080100N 1195900E -   073500N 1192300E -  082900N 1184500E -   084100N 1184300E  (54NM SOUTHEAST OF PUERTO PRINCESA INTL AP).  F) SFC G) UNL    CREATED: 18 SEP 2026 10:21  SOURCE: EUECYIYN</description>
      <styleUrl>#polyStyle</styleUrl>
      <Polygon>
        <outerBoundaryIs>
          <LinearRing>
            <coordinates>118.716667,8.683333,0 119.183333,9.0,0 119.366667,8.9,0 119.983333,8.016667,0 119.383333,7.583333,0 118.75,8.483333,0 118.716667,8.683333,0</coordinates>
          </LinearRing>
        </outerBoundaryIs>
      </Polygon>
    </Placemark>
    <Placemark>
      <name>E3527/26</name>
      <description>E3527/26 NOTAMN  Q) YMMM/QRDCA/IV/BO/W/000/999/2054S08637E744  A) YMMM  B) 2609281223 C) 2610041447  D) DAILY 1223-1447  E) TEMPO DANGER AREA ACT  ROCKET LAUNCH WILL TAKE PLACE FLW RECEIVED FM GOVERNMENT OF UNITED  STATES OF AMERICA: HAZARDOUS OPS WILL BE CONDUCTED FOR ATMOSPHERIC  RE-ENTRY AND SPLASHDOWN OF SPACEX STARSHIP FLT-14 STAGE 2 WI THE  FOLLOWING AREAS: 2630S 07500E - 2342S 07500E - 2303S 07659E - 2145S  08057E - 1856S 08742E - 1614S 09337E - 1516S 09526E - 1518S 09531E -  1525S 09550E</description>
      <styleUrl>#polyStyle</styleUrl>
      <Polygon>
        <outerBoundaryIs>
          <LinearRing>
            <coordinates>75.0,-26.5,0 75.0,-23.7,0 76.983333,-23.05,0 80.95,-21.75,0 87.7,-18.933333,0 93.616667,-16.233333,0 95.433333,-15.266667,0 95.516667,-15.3,0 95.833333,-15.416667,0 96.2,-15.5,0 96.566667,-15.566667,0 97.033333,-15.566667,0 97.233333,-15.55,0 97.55,-15.5,0 97.7,-15.466667,0 97.833333,-15.433333,0 97.966667,-15.4,0 98.05,-15.366667,0 98.183333,-15.316667,0 98.233333,-15.3,0 98.516667,-15.933333,0 96.633333,-17.066667,0 91.033333,-19.933333,0 84.1,-23.033333,0 79.1,-24.983333,0 75.0,-26.5,0</coordinates>
          </LinearRing>
        </outerBoundaryIs>
      </Polygon>
    </Placemark>
    <Placemark>
      <name>A0096/26</name>
      <description>A0096/26 NOTAMR A0095/26  Q) FIMM/QRALW/IV/NBO/AE/000/999/2025S07540E005   A) FIMM B) 2609281223 C) 2610041447 EST   D) 28 1223-1447  29 1223-1447  30 1223-1447  01 1223-1447  02 1223-1447  03 1223-1447  04 1223-1447   E) STATIONARY ALTITUDE RESERVATION FOR HAZARDOUS OPERATIONS FM SFC  TO UNL FOR ATMOSPHERIC RE-ENTRY AND SPLASHDOWN OF SPACE X STARSHIP  FTL-14 ROCKET WI AN AREA BOUNDED BY FLW COORD:  2630S 07500E  2704S 07318E  2436S 07206E  2342S 07500E TO BEGINNING  PRIMARY RE-ENTRY BTN 1223 TO</description>
      <styleUrl>#polyStyle</styleUrl>
      <Polygon>
        <outerBoundaryIs>
          <LinearRing>
            <coordinates>75.0,-26.5,0 73.3,-27.066667,0 72.1,-24.6,0 75.0,-23.7,0 75.0,-26.5,0</coordinates>
          </LinearRing>
        </outerBoundaryIs>
      </Polygon>
    </Placemark>
    <Placemark>
      <name>A1257/26</name>
      <description>A1257/26 NOTAMN  Q) NTTT/QRDCA/IV/BO/W/000/999/2858S12112W113  A) NTTT  B) 2609261343 C) 2610021558  D) 26 1343-1721  27 1436-1707  28 1315-1653  29 1301-1639  30 1247-1625  01 1234-1612  02 1220-1558  E) TEMPORARY DANGER AREA DUE TO SPACE DEBRIS RETURN OF SPACEX R-3 IN  TAHITI FIR WITHIN AN AREA BOUNDED BY FOLLOWING POINTS:   3000S 12153W, 2759S 12244W, 2709S 12043W, 2843S 12000W,  3000S 12000W, 3000S 12153W   THIS ACTIVITY ALSO IMPACTS THE FOLLOWING FIR : SCIZ    THE FRENCH VERSION OF THIS NOT</description>
      <styleUrl>#polyStyle</styleUrl>
      <Polygon>
        <outerBoundaryIs>
          <LinearRing>
            <coordinates>-121.883333,-30.0,0 -122.733333,-27.983333,0 -120.716667,-27.15,0 -120.0,-28.716667,0 -120.0,-30.0,0 -121.883333,-30.0,0</coordinates>
          </LinearRing>
        </outerBoundaryIs>
      </Polygon>
    </Placemark>
    <Placemark>
      <name>A1258/26</name>
      <description>A1258/26 NOTAMN  Q) NTTT/QRDCA/IV/BO/W/000/999/2459S13459W839  A) NTTT  B) 2609282107 C) 2610050108  D) 28 2107-0108  29 2107-0108  30 2107-0108  01 2107-0108  02 2107-0108  03 2107-0108  04 2107-0108  E) TEMPORARY DANGER AREA DUE TO SPACE DEBRIS RETURN OF SPACEX  STARSHIP FLT-14 IN TAHITI FIR WITHIN AN AREA BOUNDED BY  FOLLOWING POINTS:   1951S 14900W, 1923S 14849W, 2458S 13310W, 2610S 12909W,  2734S 12303W, 2800S 12000W, 2911S 12000W, 2806S 12506W,  2611S 13250W, 1951S 14900W     THIS ACTIVITY</description>
      <styleUrl>#polyStyle</styleUrl>
      <Polygon>
        <outerBoundaryIs>
          <LinearRing>
            <coordinates>-149.0,-19.85,0 -148.816667,-19.383333,0 -133.166667,-24.966667,0 -129.15,-26.166667,0 -123.05,-27.566667,0 -120.0,-28.0,0 -120.0,-29.183333,0 -125.1,-28.1,0 -132.833333,-26.183333,0 -149.0,-19.85,0</coordinates>
          </LinearRing>
        </outerBoundaryIs>
      </Polygon>
    </Placemark>
    <Placemark>
      <name>B1881/26</name>
      <description>B1881/26 NOTAMR B1847/26  Q) MMFR/QRDCA/IV/BO/W/000/999/  A) MMFR  B) 2609281215  C) 2610041408  D) DLY 1215-1408  E) DANGEROUS AREA FOR LAUNCH OF ROCKET SPACEX STARSHIP FLT-14     LATERAL LIMIT AREA FORMED BY THE UNION OF THE FLW POINTS:     AREA A3:     2558N 09711W      2600N 09700W     2600N 09555W     2430N 09300W     2430N 09103W     2333N 09127W     2344N 09307W     2408N 09404W     2501N 09550W     2521N 09619W     2550N 09707W     2558N 09711W     MMFR  F) SFC  G) UNL    CREATED: 21 SEP</description>
      <styleUrl>#polyStyle</styleUrl>
      <Polygon>
        <outerBoundaryIs>
          <LinearRing>
            <coordinates>-97.183333,25.966667,0 -97.0,26.0,0 -95.916667,26.0,0 -93.0,24.5,0 -91.05,24.5,0 -91.45,23.55,0 -93.116667,23.733333,0 -94.066667,24.133333,0 -95.833333,25.016667,0 -96.316667,25.35,0 -97.116667,25.833333,0 -97.183333,25.966667,0</coordinates>
          </LinearRing>
        </outerBoundaryIs>
      </Polygon>
    </Placemark>
    <Placemark>
      <name>B1882/26</name>
      <description>B1882/26 NOTAMR B1848/26  Q) MMFR/QRDCA/IV/BO/W/000/999/  A) MMFR  B) 2609281215  C) 2610041414  D) DLY 1215-1414  E) DANGEROUS AREA FOR LAUNCH OF ROCKET SPACEX STARSHIP FLT-14     LATERAL LIMIT AREA FORMED BY THE UNION OF THE FLW POINTS:     AREA B1:      2333N 09127W     2430N 09103W     2400N 09042W     2222N 08707W     2207N 08622W     2201N 08600W     2200N 08600W     2118N 08538W     2144N 08645W     2208N 08758W     2249N 08928W     2325N 09102W     2333N 09127W     MMFR  F) SFC  G) UNL  </description>
      <styleUrl>#polyStyle</styleUrl>
      <Polygon>
        <outerBoundaryIs>
          <LinearRing>
            <coordinates>-91.45,23.55,0 -91.05,24.5,0 -90.7,24.0,0 -87.116667,22.366667,0 -86.366667,22.116667,0 -86.0,22.016667,0 -86.0,22.0,0 -85.633333,21.3,0 -86.75,21.733333,0 -87.966667,22.133333,0 -89.466667,22.816667,0 -91.033333,23.416667,0 -91.45,23.55,0</coordinates>
          </LinearRing>
        </outerBoundaryIs>
      </Polygon>
    </Placemark>
    <Placemark>
      <name>W3068/26</name>
      <description>W3068/26 NOTAMN   Q)SCIZ/QXXXX/IV/NBO/W/000/999/2918S10101W980  A)SCIZ B)2609282107 C)2610050108  D)SEP 28-29 29-30 BTN 2107-0108   30-OCT 01 01-02 02-03 03-04 04-05 DLY BTN 2107-0108  E)ZONE ...D... IN WATERS PACIFIC OCEAN DUE TO SPACE VEHICLE RE-ENTRY  AND SPLASHDOWN ACTIVITY.  THE AFECCTED AREA IS BOUNDED BY NXT GEO COORD:  291100S/1200000W  280000S/1200000W  281100S/1183300W  284500S/1123900W  281800S/1110000W  282600S/1032600W  265500S/1013900W  263200S/0991200W  251700S/0915600W  235400S/0</description>
      <styleUrl>#polyStyle</styleUrl>
      <Polygon>
        <outerBoundaryIs>
          <LinearRing>
            <coordinates>-120.0,-29.183333,0 -120.0,-28.0,0 -118.55,-28.183333,0 -112.65,-28.75,0 -111.0,-28.3,0 -103.433333,-28.433333,0 -101.65,-26.916667,0 -99.2,-26.533333,0 -91.933333,-25.283333,0 -83.783333,-23.9,0 -82.816667,-27.283333,0 -82.783333,-30.35,0 -85.566667,-31.033333,0 -87.566667,-30.633333,0 -93.1,-30.966667,0 -102.1,-31.516667,0 -106.883333,-31.25,0 -113.016667,-30.6,0 -119.3,-29.316667,0 -120.0,-29.183333,0</coordinates>
          </LinearRing>
        </outerBoundaryIs>
      </Polygon>
    </Placemark>
    <Placemark>
      <name>W3078/26</name>
      <description>W3078/26 NOTAMN   Q)SCIZ/QXXXX/IV/NBO/W/000/999/4615S11109W980  A)SCIZ B)2609261343 C)2610021558  D)SEP 26 BTN 1343-1721  27 BTN 1436-1707  28 BTN 1315-1653    29 BTN 1301-1639  30 BTN 1247-1625  OCT 01 BTN 1234-1612  02 BTN 1220-1558  E)ZONE ...D... IN WATERS PACIFIC OCEAN DUE TO SPACE VEHICLE RE-ENTRY  AND SPLASHDOWN ACTIVITY.  THE AFECCTED AREA IS BOUNDED BY NXT GEO COORD:   300000S/1215300W  300000S/1200000W  284300S/1200000W  382100S/1150400W  490900S/1072200W  590900S/0953400W  595800S/099</description>
      <styleUrl>#polyStyle</styleUrl>
      <Polygon>
        <outerBoundaryIs>
          <LinearRing>
            <coordinates>-121.883333,-30.0,0 -120.0,-30.0,0 -120.0,-28.716667,0 -115.066667,-38.35,0 -107.366667,-49.15,0 -95.566667,-59.15,0 -99.083333,-59.966667,0 -114.216667,-44.566667,0 -121.883333,-30.0,0</coordinates>
          </LinearRing>
        </outerBoundaryIs>
      </Polygon>
    </Placemark>
    <Placemark>
      <name>G0275/26</name>
      <description>G0275/26 NOTAMN Q) SOOO/QRRCA/IV/BO /W /245/999/0514N05247W019 A) SOOO B) 2609140900 C) 2609250151 E) ZONE SO-R4 ACTIVE - VEGA VV30 LAUNCHING F) FL245 G) UNL</description>
      <styleUrl>#circleStyle</styleUrl>
      <Polygon>
        <outerBoundaryIs>
          <LinearRing>
            <coordinates>-52.46534078364324,5.233333,0 -52.47017179993433,5.288321589594528,0 -52.4845180608222,5.341639378719795,0 -52.50794366242933,5.391666333333333,0 -52.539736829704815,5.43688240973407,0 -52.578931543349114,5.47591374032101,0 -52.62433689182162,5.5075743778650725,0 -52.67457325658521,5.530902329915538,0 -52.72811423111738,5.545188788453866,0 -52.783333,5.549999666666666,0 -52.83855176888262,5.545188788453866,0 -52.892092743414786,5.530902329915538,0 -52.94232910817838,5.5075743778650725,0 -52.987734456650884,5.47591374032101,0 -53.02692917029518,5.43688240973407,0 -53.05872233757067,5.391666333333333,0 -53.0821479391778,5.341639378719795,0 -53.09649420006567,5.288321589594528,0 -53.101325216356756,5.233333,0 -53.09649420006567,5.178344410405472,0 -53.0821479391778,5.125026621280205,0 -53.05872233757067,5.074999666666667,0 -53.02692917029518,5.02978359026593,0 -52.987734456650884,4.99075225967899,0 -52.94232910817838,4.9590916221349275,0 -52.892092743414786,4.935763670084462,0 -52.83855176888262,4.921477211546134,0 -52.783333,4.916666333333334,0 -52.72811423111738,4.921477211546134,0 -52.67457325658521,4.935763670084462,0 -52.62433689182162,4.9590916221349275,0 -52.578931543349114,4.99075225967899,0 -52.539736829704815,5.02978359026593,0 -52.50794366242933,5.074999666666667,0 -52.4845180608222,5.125026621280205,0 -52.47017179993433,5.178344410405472,0 -52.46534078364324,5.233333,0</coordinates>
          </LinearRing>
        </outerBoundaryIs>
      </Polygon>
    </Placemark>
    <Placemark>
      <name>G0276/26</name>
      <description>G0276/26 NOTAMN Q) SOOO/QRDCA/IV/BO /W /000/999/0558N05258W046 A) SOOO B) 2609150021 C) 2609250151 D) 0021-0151 E) SO-D1 ACTIVATED - 'VEGA VV30' LAUNCHING. F) SFC G) UNL</description>
      <styleUrl>#circleStyle</styleUrl>
      <Polygon>
        <outerBoundaryIs>
          <LinearRing>
            <coordinates>-52.19582432292344,5.966667,0 -52.20753515526232,6.099797269544647,0 -52.242311824564304,6.228882443216346,0 -52.2990976593305,6.350000333333334,0 -52.376167250706544,6.459470834093014,0 -52.47117887815759,6.55396773972455,0 -52.58124566146172,6.63061980956807,0 -52.703023277104734,6.687098009269197,0 -52.83281157385776,6.7216862773093595,0 -52.966667,6.733333666666667,0 -53.10052242614224,6.7216862773093595,0 -53.23031072289527,6.687098009269197,0 -53.35208833853828,6.63061980956807,0 -53.462155121842414,6.55396773972455,0 -53.55716674929346,6.459470834093014,0 -53.6342363406695,6.350000333333334,0 -53.6910221754357,6.228882443216346,0 -53.72579884473768,6.099797269544647,0 -53.73750967707656,5.966667,0 -53.72579884473768,5.833536730455354,0 -53.6910221754357,5.7044515567836545,0 -53.6342363406695,5.583333666666666,0 -53.55716674929346,5.4738631659069865,0 -53.462155121842414,5.37936626027545,0 -53.35208833853828,5.302714190431931,0 -53.23031072289527,5.246235990730804,0 -53.10052242614224,5.211647722690641,0 -52.966667,5.200000333333334,0 -52.83281157385776,5.211647722690641,0 -52.703023277104734,5.246235990730804,0 -52.58124566146172,5.302714190431931,0 -52.47117887815759,5.37936626027545,0 -52.376167250706544,5.4738631659069865,0 -52.2990976593305,5.583333666666666,0 -52.242311824564304,5.7044515567836545,0 -52.20753515526232,5.833536730455354,0 -52.19582432292344,5.966667,0</coordinates>
          </LinearRing>
        </outerBoundaryIs>
      </Polygon>
    </Placemark>
    <Placemark>
      <name>G0277/26</name>
      <description>G0277/26 NOTAMN Q) SOOO/QRDCA/IV/BO /W /000/999/0558N05221W052 A) SOOO B) 2609150021 C) 2609250151 D) 0021-0151 E) SO-D2 ACTIVATED - 'VEGA VV30' LAUNCHING. F) SFC G) UNL</description>
      <styleUrl>#circleStyle</styleUrl>
      <Polygon>
        <outerBoundaryIs>
          <LinearRing>
            <coordinates>-51.478612625913456,5.966667,0 -51.491850958122626,6.11716208731134,0 -51.53116371472487,6.2630844575489135,0 -51.59535639750404,6.400000333333334,0 -51.68247854427697,6.523749595061668,0 -51.78988299269988,6.630572184036447,0 -51.91430631295673,6.717222349946514,0 -52.05196796542274,6.781067271347787,0 -52.1986851704479,6.82016705261058,0 -52.35,6.833333666666666,0 -52.5013148295521,6.82016705261058,0 -52.64803203457726,6.781067271347787,0 -52.78569368704327,6.717222349946514,0 -52.91011700730012,6.630572184036447,0 -53.017521455723035,6.523749595061668,0 -53.10464360249596,6.400000333333334,0 -53.168836285275134,6.2630844575489135,0 -53.20814904187738,6.11716208731134,0 -53.22138737408655,5.966667,0 -53.20814904187738,5.81617191268866,0 -53.168836285275134,5.670249542451088,0 -53.10464360249596,5.533333666666667,0 -53.017521455723035,5.409584404938332,0 -52.91011700730012,5.302761815963553,0 -52.78569368704328,5.216111650053487,0 -52.64803203457726,5.152266728652213,0 -52.5013148295521,5.11316694738942,0 -52.35,5.100000333333334,0 -52.1986851704479,5.11316694738942,0 -52.05196796542274,5.152266728652213,0 -51.91430631295673,5.216111650053486,0 -51.78988299269988,5.302761815963552,0 -51.68247854427697,5.409584404938332,0 -51.59535639750404,5.533333666666667,0 -51.53116371472487,5.670249542451088,0 -51.491850958122626,5.81617191268866,0 -51.478612625913456,5.966667,0</coordinates>
          </LinearRing>
        </outerBoundaryIs>
      </Polygon>
    </Placemark>
    <Placemark>
      <name>G0278/26</name>
      <description>G0278/26 NOTAMN Q) SOOO/QWMLW/IV/BO /W /000/999/0909N05244W029 A) SOOO B) 2609150021 C) 2609250151 D) 0021-0151 E) RISK OF ELEMENTS FALLOUT DURING THE LAUNCH OF 'VEGA VV30' ROCKET: LATERAL LIMITS (ZA/VV30): 093600N 0524500W 093600N 0524200W 084100N 0524300W 084100N 0524600W 093600N 0524500W. F) SFC G) UNL</description>
      <styleUrl>#polyStyle</styleUrl>
      <Polygon>
        <outerBoundaryIs>
          <LinearRing>
            <coordinates>-52.75,9.6,0 -52.7,9.6,0 -52.716667,8.683333,0 -52.766667,8.683333,0 -52.75,9.6,0</coordinates>
          </LinearRing>
        </outerBoundaryIs>
      </Polygon>
    </Placemark>
    <Placemark>
      <name>G0280/26</name>
      <description>G0280/26 NOTAMN Q) SOOO/QRRCA/IV/BO /W /000/660/0518N05247W024 A) SOOO B) 2609142045 C) 2609250221 D) 2045-0221 E) SOR1 ACTIVATION FOR VV30 LAUNCHING PROTECTION. MANDATORY BYPASS DURING ACTIVATION. F) GND G) FL660</description>
      <styleUrl>#circleStyle</styleUrl>
      <Polygon>
        <outerBoundaryIs>
          <LinearRing>
            <coordinates>-52.38161553659944,5.3,0 -52.38771852752273,5.369459271066772,0 -52.40584206400166,5.436808057330268,0 -52.435435471551266,5.5,0 -52.47559956945815,5.5571150438746155,0 -52.52511399193141,5.606417777247591,0 -52.58247426829972,5.646410161513775,0 -52.645937535591315,5.675877048314363,0 -52.71357549454351,5.693923101204883,0 -52.783333,5.7,0 -52.853090505456485,5.693923101204883,0 -52.92072846440868,5.675877048314363,0 -52.98419173170028,5.646410161513775,0 -53.041552008068585,5.606417777247591,0 -53.09106643054185,5.5571150438746155,0 -53.13123052844873,5.5,0 -53.16082393599834,5.436808057330268,0 -53.17894747247727,5.369459271066772,0 -53.18505046340056,5.3,0 -53.17894747247727,5.230540728933228,0 -53.16082393599834,5.163191942669732,0 -53.13123052844873,5.1,0 -53.09106643054185,5.042884956125384,0 -53.041552008068585,4.9935822227524085,0 -52.98419173170028,4.9535898384862245,0 -52.92072846440868,4.924122951685637,0 -52.853090505456485,4.906076898795116,0 -52.783333,4.8999999999999995,0 -52.71357549454351,4.906076898795116,0 -52.645937535591315,4.924122951685637,0 -52.58247426829972,4.9535898384862245,0 -52.52511399193141,4.9935822227524085,0 -52.47559956945815,5.042884956125384,0 -52.435435471551266,5.1,0 -52.40584206400166,5.163191942669733,0 -52.38771852752273,5.230540728933228,0 -52.38161553659944,5.3,0</coordinates>
          </LinearRing>
        </outerBoundaryIs>
      </Polygon>
    </Placemark>
    <Placemark>
      <name>A1026/26</name>
      <description>A1026/26 NOTAMN Q) KZWY/QRACA/IV/NBO/W/000/999/ A) KZWY B) 2609150021 C) 2609250151 D) DAILY 0021-0151 E) ZWY AIRSPACE DUE TO A FRENCH GUIANA SPACE CENTER LAUNCH, VEGA VV30, ZNY OCEANIC CTA/FIR ZNY WILL NOT ACCEPT IFR FLIGHTS WI AN AREA DEFINED AS 241400N0552000W TO 241600N0550400W TO 212100N0543800W TO 211900N0545400W TO POINT OF ORIGIN. SFC-UNL F) SFC G) UNL</description>
      <styleUrl>#polyStyle</styleUrl>
      <Polygon>
        <outerBoundaryIs>
          <LinearRing>
            <coordinates>-55.333333,24.233333,0 -55.066667,24.266667,0 -54.633333,21.35,0 -54.9,21.316667,0 -55.333333,24.233333,0</coordinates>
          </LinearRing>
        </outerBoundaryIs>
      </Polygon>
    </Placemark>
    <Placemark>
      <name>B1847/26</name>
      <description>B1847/26 NOTAMN  Q) MMFR/QRDCA/IV/BO/W/000/999/  A) MMFR  B) 2609221215  C) 2609281408  D) DLY 1215-1408  E) DANGEROUS AREA FOR LAUNCH OF ROCKET SPACEX STARSHIP FLT-14,     LATERAL LIMIT AREA FORMED BY THE UNION OF THE FLW POINTS:     AREA A3:      2558N   09711W      2600N   09700W     2600N   09555W     2430N   09300W     2430N   09103W     2333N   09127W     2344N   09307W     2408N   09404W     2501N   09550W     2521N   09619W     2550N   09707W     2558N   09711W     FIR MEXICO (MMFR)  F) </description>
      <styleUrl>#polyStyle</styleUrl>
      <Polygon>
        <outerBoundaryIs>
          <LinearRing>
            <coordinates>-97.183333,25.966667,0 -97.0,26.0,0 -95.916667,26.0,0 -93.0,24.5,0 -91.05,24.5,0 -91.45,23.55,0 -93.116667,23.733333,0 -94.066667,24.133333,0 -95.833333,25.016667,0 -96.316667,25.35,0 -97.116667,25.833333,0 -97.183333,25.966667,0</coordinates>
          </LinearRing>
        </outerBoundaryIs>
      </Polygon>
    </Placemark>
    <Placemark>
      <name>B1848/26</name>
      <description>B1848/26 NOTAMN  Q) MMFR/QRDCA/IV/BO/W/000/999/  A) MMFR  B) 2609221215  C) 2609281414  D) DLY 1215-1414  E) DANGEROUS AREA FOR LAUNCH OF ROCKET SPACEX STARSHIP FLT-14,     LATERAL LIMIT AREA FORMED BY THE UNION OF THE FLW POINTS:     AREA B1:      2333N  09127W     2430N  09103W     2400N  09042W     2222N  08707W     2207N  08622W     2201N  08600W     2200N  08600W     2118N  08538W     2144N  08645W     2208N  08758W     2249N  08928W     2325N  09102W     2333N  09127W     FIR MEXICO (MMFR </description>
      <styleUrl>#polyStyle</styleUrl>
      <Polygon>
        <outerBoundaryIs>
          <LinearRing>
            <coordinates>-91.45,23.55,0 -91.05,24.5,0 -90.7,24.0,0 -87.116667,22.366667,0 -86.366667,22.116667,0 -86.0,22.016667,0 -86.0,22.0,0 -85.633333,21.3,0 -86.75,21.733333,0 -87.966667,22.133333,0 -89.466667,22.816667,0 -91.033333,23.416667,0 -91.45,23.55,0</coordinates>
          </LinearRing>
        </outerBoundaryIs>
      </Polygon>
    </Placemark>
  </Document>
</kml>