<?xml version='1.0' encoding='UTF-8'?>
<kml xmlns="http://www.opengis.net/kml/2.2">
  <Document>
    <name>Aerospace NOTAMs</name>
    <Style id="polyStyle">
      <LineStyle>
        <color>ff000000</color>
        <width>2</width>
      </LineStyle>
      <PolyStyle>
        <color>7700ff00</color>
      </PolyStyle>
    </Style>
    <Style id="circleStyle">
      <LineStyle>
        <color>ff000000</color>
        <width>2</width>
      </LineStyle>
      <PolyStyle>
        <color>770000ff</color>
      </PolyStyle>
    </Style>
    <Style id="lineStyle">
      <LineStyle>
        <color>ff000000</color>
        <width>2</width>
      </LineStyle>
      <PolyStyle>
        <color>77ff0000</color>
      </PolyStyle>
    </Style>
    <Placemark>
      <name>J5540/2025</name>
      <description>J5540/25 NOTAMN  Q) YBBB/QFAXX/IV/NBO/A/000/999/1431S13223E005  A) YPTN  B) 2512141600 C) PERM  E) LOCAL TRAFFIC REGULATIONS AMD  CHANGE THE FLW TO READ:  5. MULTI ENG PROPELLER ACFT ARE NOT TO CONDUCT FULL PWR ENG RUNS ON  PAVED HARDSTAND DUE TO CREATION OF FOREIGN OBJECT DEBRIS.  REMOVE THE FLW:  NOTE 2  NOTE 10  AMD EN ROUTE SUPPLEMENT AUSTRALIA (ERSA    CREATED: 02 DEC 2025 02:18  SOURCE: YBBBZEZX</description>
      <styleUrl>#circleStyle</styleUrl>
      <Polygon>
        <outerBoundaryIs>
          <LinearRing>
            <coordinates>132.4694148388005,-14.516666666666667,0 132.46810706730835,-14.502195985194422,0 132.46422348880697,-14.488164988056194,0 132.4578821038639,-14.475000000000001,0 132.44927559225178,-14.463101032526122,0 132.43866545847078,-14.452829629740085,0 132.42637408606691,-14.444497883017965,0 132.4127749421709,-14.438358948267842,0 132.39828122988854,-14.434599353915651,0 132.38333333333333,-14.433333333333334,0 132.3683854367781,-14.434599353915651,0 132.35389172449575,-14.438358948267842,0 132.34029258059974,-14.444497883017965,0 132.32800120819587,-14.452829629740085,0 132.31739107441487,-14.463101032526122,0 132.30878456280274,-14.475000000000001,0 132.3024431778597,-14.488164988056194,0 132.2985595993583,-14.502195985194422,0 132.29725182786615,-14.516666666666667,0 132.2985595993583,-14.531137348138913,0 132.3024431778597,-14.54516834527714,0 132.30878456280274,-14.558333333333334,0 132.31739107441487,-14.570232300807213,0 132.32800120819587,-14.58050370359325,0 132.34029258059974,-14.58883545031537,0 132.35389172449575,-14.594974385065493,0 132.3683854367781,-14.598733979417684,0 132.38333333333333,-14.600000000000001,0 132.39828122988854,-14.598733979417684,0 132.4127749421709,-14.594974385065493,0 132.42637408606691,-14.58883545031537,0 132.43866545847078,-14.58050370359325,0 132.44927559225178,-14.570232300807213,0 132.4578821038639,-14.558333333333334,0 132.46422348880697,-14.54516834527714,0 132.46810706730835,-14.531137348138913,0 132.4694148388005,-14.516666666666667,0</coordinates>
          </LinearRing>
        </outerBoundaryIs>
      </Polygon>
    </Placemark>
    <Placemark>
      <name>R3154/2025</name>
      <description>R3154/25 NOTAMN  Q) LFXX/QRTTT/IV/BO /W /000/999/4551N00432W190  A) LFRR LFBB B) 2601220000 C) 2701212359  E) TRIGGER NOTAM - AIRAC AIP SUP 207/25 MODIFIED :  MISSILE FIRING IN THE ATLANTIC OCEAN REQUIRING THE CREATION OF 6   TEMPORARY RESTRICTED AREAS (&amp;apos;ZRT&amp;apos;), OF 16 TEMPORARY DANGEROUS AREAS   (&amp;apos;ZDT&amp;apos;) AND FLIGHT PLAN BUFFER ZONE (FBZ) ASSOCIATED.  THESE &amp;apos;ZRT/ZDT&amp;apos; ARE ACTIVATED BY NOTAM AT D-7.  -----------------------------------------------------------------  PAGE</description>
      <styleUrl>#polyStyle</styleUrl>
      <Polygon>
        <outerBoundaryIs>
          <LinearRing>
            <coordinates>-1.663611,45.905833,0 -1.661667,45.945278,0 -1.261667,45.876944,0 -1.214722,45.86,0 -1.18,45.824722,0 -1.062222,45.587778,0 -1.066111,45.524167,0 -1.172778,45.479167,0 -1.686389,45.48,0 -1.684167,45.520278,0 -1.933056,45.519444,0 -1.950833,45.521389,0 -1.966944,45.526667,0 -1.98,45.535278,0 -1.988611,45.546111,0 -1.9925,45.558333,0 -1.991111,45.570833,0 -1.965,45.646667,0 -2.1375,45.658333,0 -2.836667,45.691111,0 -2.855278,45.694167,0 -2.871389,45.700833,0 -2.883611,45.710833,0 -2.890833,45.723056,0 -2.8925,45.736111,0 -2.886389,45.787222,0 -2.8825,45.798889,0 -2.874167,45.809167,0 -2.681944,45.984444,0 -2.665,45.995,0 -2.643611,46.000278,0 -2.399722,46.026667,0 -2.376667,46.026111,0 -1.663611,45.905833,0</coordinates>
          </LinearRing>
        </outerBoundaryIs>
      </Polygon>
    </Placemark>
    <Placemark>
      <name>A2363/26</name>
      <description>A2363/26 NOTAMN  Q)ZXXX/QRPCA/IV/NBO/W/000/999/3949N11930E009  A)ZBPE ZYSH B)2606301600 C)2608311559   E) A TEMPORARY PROHIBITED AREA ESTABLISHED BOUNDED BY:  N395600E1192100-N395600E1193300-N395100E1193900-N394300E1193900-N39  4300E1192100   BACK TO START.  VERTICAL LIMITS:GND-UNL.  ALL ACFT SHALL BE FORBIDDEN TO FLY INTO THE PROHIBITED AREA.  F)GND G)UNL    CREATED: 23 JUN 2026 05:01  SOURCE: ZBBBYNYX</description>
      <styleUrl>#polyStyle</styleUrl>
      <Polygon>
        <outerBoundaryIs>
          <LinearRing>
            <coordinates>119.35,39.933333,0 119.55,39.933333,0 119.65,39.85,0 119.65,39.716667,0 119.35,39.716667,0 119.35,39.933333,0</coordinates>
          </LinearRing>
        </outerBoundaryIs>
      </Polygon>
    </Placemark>
    <Placemark>
      <name>A3977/26</name>
      <description>A3977/26 NOTAMN  Q)ZLHW/QRDCA/IV/BO/W/000/999/3604N09850E016  A)ZLHW B)2609010152 C)2609010409   E) A TEMPORARY DANGER AREA ESTABLISHED BOUNDED BY:  N362000E0984300-N361700E0990400-N355000E0985700-N355300E0983700,   BACK TO START.VERTICAL LIMITS:SFC-UNL.  AIRCRAFT ARE FORBIDDEN TO FLY INTO THE AREA.  F)SFC G)UNL    CREATED: 27 AUG 2026 07:21  SOURCE: ZBBBYNYX</description>
      <styleUrl>#polyStyle</styleUrl>
      <Polygon>
        <outerBoundaryIs>
          <LinearRing>
            <coordinates>98.716667,36.333333,0 99.066667,36.283333,0 98.95,35.833333,0 98.616667,35.883333,0 98.716667,36.333333,0</coordinates>
          </LinearRing>
        </outerBoundaryIs>
      </Polygon>
    </Placemark>
    <Placemark>
      <name>A3978/26</name>
      <description>A3978/26 NOTAMN  Q)ZLHW/QRDCA/IV/BO/W/000/999/3616N09852E016  A)ZLHW B)2609010152 C)2609010414   E) A TEMPORARY DANGER AREA ESTABLISHED BOUNDED BY:  N363100E0984600-N362800E0990700-N360100E0990000-N360400E0983900,   BACK TO START.VERTICAL LIMITS:SFC-UNL.  AIRCRAFT ARE FORBIDDEN TO FLY INTO THE AREA.  F)SFC G)UNL    CREATED: 27 AUG 2026 07:22  SOURCE: ZBBBYNYX</description>
      <styleUrl>#polyStyle</styleUrl>
      <Polygon>
        <outerBoundaryIs>
          <LinearRing>
            <coordinates>98.766667,36.516667,0 99.116667,36.466667,0 99.0,36.016667,0 98.65,36.066667,0 98.766667,36.516667,0</coordinates>
          </LinearRing>
        </outerBoundaryIs>
      </Polygon>
    </Placemark>
    <Placemark>
      <name>A3979/26</name>
      <description>A3979/26 NOTAMN  Q)ZLHW/QRDCA/IV/BO/W/000/999/3449N09829E019  A)ZLHW B)2609010152 C)2609010418   E) A TEMPORARY DANGER AREA ESTABLISHED BOUNDED BY:  N350800E0982200-N350500E0984400-N343200E0983700-N343500E0981600,   BACK TO START.VERTICAL LIMITS:SFC-UNL.  AIRCRAFT ARE FORBIDDEN TO FLY INTO THE AREA.  F)SFC G)UNL    CREATED: 27 AUG 2026 07:23  SOURCE: ZBBBYNYX</description>
      <styleUrl>#polyStyle</styleUrl>
      <Polygon>
        <outerBoundaryIs>
          <LinearRing>
            <coordinates>98.366667,35.133333,0 98.733333,35.083333,0 98.616667,34.533333,0 98.266667,34.583333,0 98.366667,35.133333,0</coordinates>
          </LinearRing>
        </outerBoundaryIs>
      </Polygon>
    </Placemark>
    <Placemark>
      <name>B4419/26</name>
      <description>B4419/26 NOTAMN  Q) RPHI/QWMLW/IV/BO /W /000/999/1245N11610E038  A) RPHI B) 2609111600 C) 2609142000  D) 1600-2000  E) SPECIAL OPS (AEROSPACE FLT ACT) WILL BE CONDUCTED BY CHINA.  EST FALL AREA FOR UNBURNED DEBRIS WI:  130200N 1153700E -  132100N 1160400E -  122800N 1164300E -  121000N 1161600E -  130200N 1153700E  (230NM WEST OF LUBANG AP).  F) SFC G) UNL    CREATED: 28 AUG 2026 12:33  SOURCE: EUECYIYN</description>
      <styleUrl>#polyStyle</styleUrl>
      <Polygon>
        <outerBoundaryIs>
          <LinearRing>
            <coordinates>115.616667,13.033333,0 116.066667,13.35,0 116.716667,12.466667,0 116.266667,12.166667,0 115.616667,13.033333,0</coordinates>
          </LinearRing>
        </outerBoundaryIs>
      </Polygon>
    </Placemark>
    <Placemark>
      <name>B4420/26</name>
      <description>B4420/26 NOTAMN  Q) RPHI/QWMLW/IV/BO /W /000/999/0811N11926E046  A) RPHI B) 2609111600 C) 2609142000  D) 1600-2000  E) SPECIAL OPS (AEROSPACE FLT ACT) WILL BE CONDUCTED BY CHINA.  EST FALL AREA FOR UNBURNED DEBRIS WI:  083500N 1184800E -  085400N 1191500E -  084300N 1192900E -  075000N 1200600E -  072600N 1193000E -  081900N 1185300E -  083500N 1184800E  (58NM SOUTH OF PUERTO PRINCESA AP).  F) SFC G) UNL    CREATED: 28 AUG 2026 12:44  SOURCE: EUECYIYN</description>
      <styleUrl>#polyStyle</styleUrl>
      <Polygon>
        <outerBoundaryIs>
          <LinearRing>
            <coordinates>118.8,8.583333,0 119.25,8.9,0 119.483333,8.716667,0 120.1,7.833333,0 119.5,7.433333,0 118.883333,8.316667,0 118.8,8.583333,0</coordinates>
          </LinearRing>
        </outerBoundaryIs>
      </Polygon>
    </Placemark>
    <Placemark>
      <name>B4421/26</name>
      <description>B4421/26 NOTAMN  Q) RPHI/QWMLW/IV/BO /W /000/999/1928N12320E036  A) RPHI B) 2609132000 C) 2609182330  D) 2000-2330  E) SPECIAL OPS (AEROSPACE FLT ACT) WILL BE CONDUCTED BY CHINA.  EST FALL AREA FOR UNBURNED DEBRIS WI:  200200N 1231600E -  200200N 1232700E -  185400N 1232500E -  185400N 1231300E -  200200N 1231600E  (76NM SOUTHEAST OF BASCO AP).  F) SFC G) UNL    CREATED: 28 AUG 2026 12:50  SOURCE: EUECYIYN</description>
      <styleUrl>#polyStyle</styleUrl>
      <Polygon>
        <outerBoundaryIs>
          <LinearRing>
            <coordinates>123.266667,20.033333,0 123.45,20.033333,0 123.416667,18.9,0 123.216667,18.9,0 123.266667,20.033333,0</coordinates>
          </LinearRing>
        </outerBoundaryIs>
      </Polygon>
    </Placemark>
  </Document>
</kml>