<?xml version='1.0' encoding='UTF-8'?>
<kml xmlns="http://www.opengis.net/kml/2.2">
  <Document>
    <name>Aerospace NOTAMs</name>
    <Style id="polyStyle">
      <LineStyle>
        <color>ff000000</color>
        <width>2</width>
      </LineStyle>
      <PolyStyle>
        <color>7700ff00</color>
      </PolyStyle>
    </Style>
    <Style id="circleStyle">
      <LineStyle>
        <color>ff000000</color>
        <width>2</width>
      </LineStyle>
      <PolyStyle>
        <color>770000ff</color>
      </PolyStyle>
    </Style>
    <Style id="lineStyle">
      <LineStyle>
        <color>ff000000</color>
        <width>2</width>
      </LineStyle>
      <PolyStyle>
        <color>77ff0000</color>
      </PolyStyle>
    </Style>
    <Placemark>
      <name>J5540/2025</name>
      <description>J5540/25 NOTAMN  Q) YBBB/QFAXX/IV/NBO/A/000/999/1431S13223E005  A) YPTN  B) 2512141600 C) PERM  E) LOCAL TRAFFIC REGULATIONS AMD  CHANGE THE FLW TO READ:  5. MULTI ENG PROPELLER ACFT ARE NOT TO CONDUCT FULL PWR ENG RUNS ON  PAVED HARDSTAND DUE TO CREATION OF FOREIGN OBJECT DEBRIS.  REMOVE THE FLW:  NOTE 2  NOTE 10  AMD EN ROUTE SUPPLEMENT AUSTRALIA (ERSA    CREATED: 02 DEC 2025 02:18  SOURCE: YBBBZEZX</description>
      <styleUrl>#circleStyle</styleUrl>
      <Polygon>
        <outerBoundaryIs>
          <LinearRing>
            <coordinates>132.4694148388005,-14.516666666666667,0 132.46810706730835,-14.502195985194422,0 132.46422348880697,-14.488164988056194,0 132.4578821038639,-14.475000000000001,0 132.44927559225178,-14.463101032526122,0 132.43866545847078,-14.452829629740085,0 132.42637408606691,-14.444497883017965,0 132.4127749421709,-14.438358948267842,0 132.39828122988854,-14.434599353915651,0 132.38333333333333,-14.433333333333334,0 132.3683854367781,-14.434599353915651,0 132.35389172449575,-14.438358948267842,0 132.34029258059974,-14.444497883017965,0 132.32800120819587,-14.452829629740085,0 132.31739107441487,-14.463101032526122,0 132.30878456280274,-14.475000000000001,0 132.3024431778597,-14.488164988056194,0 132.2985595993583,-14.502195985194422,0 132.29725182786615,-14.516666666666667,0 132.2985595993583,-14.531137348138913,0 132.3024431778597,-14.54516834527714,0 132.30878456280274,-14.558333333333334,0 132.31739107441487,-14.570232300807213,0 132.32800120819587,-14.58050370359325,0 132.34029258059974,-14.58883545031537,0 132.35389172449575,-14.594974385065493,0 132.3683854367781,-14.598733979417684,0 132.38333333333333,-14.600000000000001,0 132.39828122988854,-14.598733979417684,0 132.4127749421709,-14.594974385065493,0 132.42637408606691,-14.58883545031537,0 132.43866545847078,-14.58050370359325,0 132.44927559225178,-14.570232300807213,0 132.4578821038639,-14.558333333333334,0 132.46422348880697,-14.54516834527714,0 132.46810706730835,-14.531137348138913,0 132.4694148388005,-14.516666666666667,0</coordinates>
          </LinearRing>
        </outerBoundaryIs>
      </Polygon>
    </Placemark>
    <Placemark>
      <name>R3154/2025</name>
      <description>R3154/25 NOTAMN  Q) LFXX/QRTTT/IV/BO /W /000/999/4551N00432W190  A) LFRR LFBB B) 2601220000 C) 2701212359  E) TRIGGER NOTAM - AIRAC AIP SUP 207/25 MODIFIED :  MISSILE FIRING IN THE ATLANTIC OCEAN REQUIRING THE CREATION OF 6   TEMPORARY RESTRICTED AREAS (&amp;apos;ZRT&amp;apos;), OF 16 TEMPORARY DANGEROUS AREAS   (&amp;apos;ZDT&amp;apos;) AND FLIGHT PLAN BUFFER ZONE (FBZ) ASSOCIATED.  THESE &amp;apos;ZRT/ZDT&amp;apos; ARE ACTIVATED BY NOTAM AT D-7.  -----------------------------------------------------------------  PAGE</description>
      <styleUrl>#polyStyle</styleUrl>
      <Polygon>
        <outerBoundaryIs>
          <LinearRing>
            <coordinates>-1.663611,45.905833,0 -1.661667,45.945278,0 -1.261667,45.876944,0 -1.214722,45.86,0 -1.18,45.824722,0 -1.062222,45.587778,0 -1.066111,45.524167,0 -1.172778,45.479167,0 -1.686389,45.48,0 -1.684167,45.520278,0 -1.933056,45.519444,0 -1.950833,45.521389,0 -1.966944,45.526667,0 -1.98,45.535278,0 -1.988611,45.546111,0 -1.9925,45.558333,0 -1.991111,45.570833,0 -1.965,45.646667,0 -2.1375,45.658333,0 -2.836667,45.691111,0 -2.855278,45.694167,0 -2.871389,45.700833,0 -2.883611,45.710833,0 -2.890833,45.723056,0 -2.8925,45.736111,0 -2.886389,45.787222,0 -2.8825,45.798889,0 -2.874167,45.809167,0 -2.681944,45.984444,0 -2.665,45.995,0 -2.643611,46.000278,0 -2.399722,46.026667,0 -2.376667,46.026111,0 -1.663611,45.905833,0</coordinates>
          </LinearRing>
        </outerBoundaryIs>
      </Polygon>
    </Placemark>
    <Placemark>
      <name>FDC 6/2789</name>
      <description>FDC 6/2789 AIRSPACE SPACE OPERATIONS TFR. Cape Canaveral, FL, Wednesday, August 12, 2026 Local. NOTAM Number : FDC 6/2789 Download shapefiles Issue Date : August 07, 2026 at 1210 UTC Location : Cape Canaveral, Florida Beginning Date and Time : August 12, 2026 at 1354 UTC Ending Date and Time : August 12, 2026 at 1846 UTC Reason for NOTAM : Space Operations Area Type : Space Operations Replaced NOTAM(s) : N/A Pilots May Contact : Miami (ZMA) ARTCC, 305-716-1588 Jump To: Affected Areas Operating R</description>
      <styleUrl>#polyStyle</styleUrl>
      <Polygon>
        <outerBoundaryIs>
          <LinearRing>
            <coordinates>-80.705278,28.854444,0 -80.5,29.125,0 -80.455,29.099167,0 -80.408056,29.085278,0 -80.362222,29.0675,0 -80.318611,29.046667,0 -80.277222,29.022222,0 -80.238333,28.995,0 -80.2025,28.964722,0 -80.169722,28.931944,0 -80.140556,28.896389,0 -80.114722,28.859167,0 -80.092778,28.819722,0 -80.074722,28.779167,0 -80.061111,28.736944,0 -80.051389,28.694167,0 -80.046111,28.650556,0 -80.045,28.606944,0 -80.048333,28.563333,0 -80.056111,28.52,0 -80.067778,28.477778,0 -80.083889,28.436389,0 -80.103889,28.396111,0 -80.1275,28.358056,0 -80.155,28.321667,0 -80.186111,28.2875,0 -80.220278,28.255833,0 -80.257222,28.226944,0 -80.266667,28.225,0 -80.508056,28.416944,0 -80.633056,28.416944,0 -80.695556,28.416944,0 -80.730278,28.5225,0 -80.783611,28.633611,0 -80.845556,28.819444,0 -80.787222,28.854444,0 -80.705278,28.854444,0</coordinates>
          </LinearRing>
        </outerBoundaryIs>
      </Polygon>
    </Placemark>
    <Placemark>
      <name>FDC 6/2788</name>
      <description>FDC 6/2788 AIRSPACE SPACE OPERATIONS TFR. Cape Canaveral, FL, Wednesday, August 12, 2026 Local. NOTAM Number : FDC 6/2788 Download shapefiles Issue Date : August 07, 2026 at 1204 UTC Location : Cape Canaveral, Florida Beginning Date and Time : August 12, 2026 at 1354 UTC Ending Date and Time : August 12, 2026 at 1846 UTC Reason for NOTAM : Space Operations Area Type : Space Operations Replaced NOTAM(s) : N/A Pilots May Contact : Miami (ZMA) ARTCC, 305-716-1588 Jump To: Affected Areas Operating R</description>
      <styleUrl>#polyStyle</styleUrl>
      <Polygon>
        <outerBoundaryIs>
          <LinearRing>
            <coordinates>-80.705278,28.854444,0 -80.5,29.125,0 -80.455,29.099167,0 -80.408056,29.085278,0 -80.362222,29.0675,0 -80.318611,29.046667,0 -80.277222,29.022222,0 -80.238333,28.995,0 -80.2025,28.964722,0 -80.169722,28.931944,0 -80.140556,28.896389,0 -80.114722,28.859167,0 -80.092778,28.819722,0 -80.074722,28.779167,0 -80.061111,28.736944,0 -80.051389,28.694167,0 -80.046111,28.650556,0 -80.045,28.606944,0 -80.048333,28.563333,0 -80.056111,28.52,0 -80.067778,28.477778,0 -80.083889,28.436389,0 -80.103889,28.396111,0 -80.1275,28.358056,0 -80.155,28.321667,0 -80.186111,28.2875,0 -80.220278,28.255833,0 -80.257222,28.226944,0 -80.266667,28.225,0 -80.508056,28.416944,0 -80.633056,28.416944,0 -80.695556,28.416944,0 -80.730278,28.5225,0 -80.783611,28.633611,0 -80.845556,28.819444,0 -80.787222,28.854444,0 -80.705278,28.854444,0</coordinates>
          </LinearRing>
        </outerBoundaryIs>
      </Polygon>
    </Placemark>
    <Placemark>
      <name>FDC 6/2787</name>
      <description>FDC 6/2787 AIRSPACE SPACE OPERATIONS TFR. Cape Canaveral, FL, Tuesday, August 11, 2026 UTC. NOTAM Number : FDC 6/2787 Download shapefiles Issue Date : August 07, 2026 at 1201 UTC Location : Cape Canaveral, Florida Beginning Date and Time : August 11, 2026 at 1416 UTC Ending Date and Time : August 11, 2026 at 1908 UTC Reason for NOTAM : Space Operations Area Type : Space Operations Replaced NOTAM(s) : N/A Pilots May Contact : Miami (ZMA) ARTCC, 305-716-1588 Jump To: Affected Areas Operating Restr</description>
      <styleUrl>#polyStyle</styleUrl>
      <Polygon>
        <outerBoundaryIs>
          <LinearRing>
            <coordinates>-80.705278,28.854444,0 -80.5,29.125,0 -80.455,29.099167,0 -80.408056,29.085278,0 -80.362222,29.0675,0 -80.318611,29.046667,0 -80.277222,29.022222,0 -80.238333,28.995,0 -80.2025,28.964722,0 -80.169722,28.931944,0 -80.140556,28.896389,0 -80.114722,28.859167,0 -80.092778,28.819722,0 -80.074722,28.779167,0 -80.061111,28.736944,0 -80.051389,28.694167,0 -80.046111,28.650556,0 -80.045,28.606944,0 -80.048333,28.563333,0 -80.056111,28.52,0 -80.067778,28.477778,0 -80.083889,28.436389,0 -80.103889,28.396111,0 -80.1275,28.358056,0 -80.155,28.321667,0 -80.186111,28.2875,0 -80.220278,28.255833,0 -80.257222,28.226944,0 -80.266667,28.225,0 -80.508056,28.416944,0 -80.633056,28.416944,0 -80.695556,28.416944,0 -80.730278,28.5225,0 -80.783611,28.633611,0 -80.845556,28.819444,0 -80.787222,28.854444,0 -80.705278,28.854444,0</coordinates>
          </LinearRing>
        </outerBoundaryIs>
      </Polygon>
    </Placemark>
    <Placemark>
      <name>FDC 6/2786</name>
      <description>FDC 6/2786 AIRSPACE SPACE OPERATIONS TFR. Cape Canaveral, FL, Tuesday, August 11, 2026 Local. NOTAM Number : FDC 6/2786 Download shapefiles Issue Date : August 07, 2026 at 1159 UTC Location : Cape Canaveral, Florida Beginning Date and Time : August 11, 2026 at 1416 UTC Ending Date and Time : August 11, 2026 at 1908 UTC Reason for NOTAM : Space Operations Area Type : Space Operations Replaced NOTAM(s) : N/A Pilots May Contact : Miami (ZMA) ARTCC, 305-716-1588 Jump To: Affected Areas Operating Res</description>
      <styleUrl>#polyStyle</styleUrl>
      <Polygon>
        <outerBoundaryIs>
          <LinearRing>
            <coordinates>-80.705278,28.854444,0 -80.5,29.125,0 -80.455,29.099167,0 -80.408056,29.085278,0 -80.362222,29.0675,0 -80.318611,29.046667,0 -80.277222,29.022222,0 -80.238333,28.995,0 -80.2025,28.964722,0 -80.169722,28.931944,0 -80.140556,28.896389,0 -80.114722,28.859167,0 -80.092778,28.819722,0 -80.074722,28.779167,0 -80.061111,28.736944,0 -80.051389,28.694167,0 -80.046111,28.650556,0 -80.045,28.606944,0 -80.048333,28.563333,0 -80.056111,28.52,0 -80.067778,28.477778,0 -80.083889,28.436389,0 -80.103889,28.396111,0 -80.1275,28.358056,0 -80.155,28.321667,0 -80.186111,28.2875,0 -80.220278,28.255833,0 -80.257222,28.226944,0 -80.266667,28.225,0 -80.508056,28.416944,0 -80.633056,28.416944,0 -80.695556,28.416944,0 -80.730278,28.5225,0 -80.783611,28.633611,0 -80.845556,28.819444,0 -80.787222,28.854444,0 -80.705278,28.854444,0</coordinates>
          </LinearRing>
        </outerBoundaryIs>
      </Polygon>
    </Placemark>
    <Placemark>
      <name>FDC 6/2785</name>
      <description>FDC 6/2785 AIRSPACE SPACE OPERATIONS TFR. Cape Canaveral, FL, Monday, August 10, 2026 Local. NOTAM Number : FDC 6/2785 Download shapefiles Issue Date : August 07, 2026 at 1144 UTC Location : Cape Canaveral, Florida Beginning Date and Time : August 10, 2026 at 1439 UTC Ending Date and Time : August 10, 2026 at 1931 UTC Reason for NOTAM : Space Operations Area Type : Space Operations Replaced NOTAM(s) : N/A Pilots May Contact : Miami (ZMA) ARTCC, 305-716-1588 Jump To: Affected Areas Operating Rest</description>
      <styleUrl>#polyStyle</styleUrl>
      <Polygon>
        <outerBoundaryIs>
          <LinearRing>
            <coordinates>-80.705278,28.854444,0 -80.5,29.125,0 -80.455,29.099167,0 -80.408056,29.085278,0 -80.362222,29.0675,0 -80.318611,29.046667,0 -80.277222,29.022222,0 -80.238333,28.995,0 -80.2025,28.964722,0 -80.169722,28.931944,0 -80.140556,28.896389,0 -80.114722,28.859167,0 -80.092778,28.819722,0 -80.074722,28.779167,0 -80.061111,28.736944,0 -80.051389,28.694167,0 -80.046111,28.650556,0 -80.045,28.606944,0 -80.048333,28.563333,0 -80.056111,28.52,0 -80.067778,28.477778,0 -80.083889,28.436389,0 -80.103889,28.396111,0 -80.1275,28.358056,0 -80.155,28.321667,0 -80.186111,28.2875,0 -80.220278,28.255833,0 -80.257222,28.226944,0 -80.266667,28.225,0 -80.508056,28.416944,0 -80.633056,28.416944,0 -80.695556,28.416944,0 -80.730278,28.5225,0 -80.783611,28.633611,0 -80.845556,28.819444,0 -80.787222,28.854444,0 -80.705278,28.854444,0</coordinates>
          </LinearRing>
        </outerBoundaryIs>
      </Polygon>
    </Placemark>
    <Placemark>
      <name>FDC 6/2784</name>
      <description>FDC 6/2784 AIRSPACE SPACE OPERATIONS TFR. Cape Canaveral, FL, Monday, August 10, 2026 Local. NOTAM Number : FDC 6/2784 Download shapefiles Issue Date : August 07, 2026 at 1130 UTC Location : Cape Canaveral, Florida Beginning Date and Time : August 10, 2026 at 1439 UTC Ending Date and Time : August 10, 2026 at 1931 UTC Reason for NOTAM : Space Operations Area Type : Space Operations Replaced NOTAM(s) : N/A Pilots May Contact : Miami (ZMA) ARTCC, 305-716-1588 Jump To: Affected Areas Operating Rest</description>
      <styleUrl>#polyStyle</styleUrl>
      <Polygon>
        <outerBoundaryIs>
          <LinearRing>
            <coordinates>-80.705278,28.854444,0 -80.5,29.125,0 -80.455,29.099167,0 -80.408056,29.085278,0 -80.362222,29.0675,0 -80.318611,29.046667,0 -80.277222,29.022222,0 -80.238333,28.995,0 -80.2025,28.964722,0 -80.169722,28.931944,0 -80.140556,28.896389,0 -80.114722,28.859167,0 -80.092778,28.819722,0 -80.074722,28.779167,0 -80.061111,28.736944,0 -80.051389,28.694167,0 -80.046111,28.650556,0 -80.045,28.606944,0 -80.048333,28.563333,0 -80.056111,28.52,0 -80.067778,28.477778,0 -80.083889,28.436389,0 -80.103889,28.396111,0 -80.1275,28.358056,0 -80.155,28.321667,0 -80.186111,28.2875,0 -80.220278,28.255833,0 -80.257222,28.226944,0 -80.266667,28.225,0 -80.508056,28.416944,0 -80.633056,28.416944,0 -80.695556,28.416944,0 -80.730278,28.5225,0 -80.783611,28.633611,0 -80.845556,28.819444,0 -80.787222,28.854444,0 -80.705278,28.854444,0</coordinates>
          </LinearRing>
        </outerBoundaryIs>
      </Polygon>
    </Placemark>
    <Placemark>
      <name>A2363/26</name>
      <description>A2363/26 NOTAMN  Q)ZXXX/QRPCA/IV/NBO/W/000/999/3949N11930E009  A)ZBPE ZYSH B)2606301600 C)2608311559   E) A TEMPORARY PROHIBITED AREA ESTABLISHED BOUNDED BY:  N395600E1192100-N395600E1193300-N395100E1193900-N394300E1193900-N39  4300E1192100   BACK TO START.  VERTICAL LIMITS:GND-UNL.  ALL ACFT SHALL BE FORBIDDEN TO FLY INTO THE PROHIBITED AREA.  F)GND G)UNL    CREATED: 23 JUN 2026 05:01  SOURCE: ZBBBYNYX</description>
      <styleUrl>#polyStyle</styleUrl>
      <Polygon>
        <outerBoundaryIs>
          <LinearRing>
            <coordinates>119.35,39.933333,0 119.55,39.933333,0 119.65,39.85,0 119.65,39.716667,0 119.35,39.716667,0 119.35,39.933333,0</coordinates>
          </LinearRing>
        </outerBoundaryIs>
      </Polygon>
    </Placemark>
    <Placemark>
      <name>A3378/26</name>
      <description>A3378/26 NOTAMN  Q)ZLHW/QRDCA/IV/BO/W/000/999/3824N10331E011  A)ZLHW B)2608102337 C)2608110014   E) A TEMPORARY DANGER AREA ESTABLISHED BOUNDED BY:  N383500E1032900-N382200E1034400-N381400E1033300-N382700E1031900   BACK TO START.VERTICAL LIMITS:SFC-UNL.  AIRCRAFT ARE FORBIDDEN TO FLY INTO THE AREA.  F)SFC G)UNL    CREATED: 05 AUG 2026 05:53  SOURCE: ZBBBYNYX</description>
      <styleUrl>#polyStyle</styleUrl>
      <Polygon>
        <outerBoundaryIs>
          <LinearRing>
            <coordinates>103.483333,38.583333,0 103.733333,38.366667,0 103.55,38.233333,0 103.316667,38.45,0 103.483333,38.583333,0</coordinates>
          </LinearRing>
        </outerBoundaryIs>
      </Polygon>
    </Placemark>
    <Placemark>
      <name>A3379/26</name>
      <description>A3379/26 NOTAMN  Q)ZLHW/QRDCA/IV/BO/W/000/999/3301N10840E017  A)ZLHW B)2608102340 C)2608110027   E) A TEMPORARY DANGER AREA ESTABLISHED BOUNDED BY:  N331500E1082700-N331800E1083300-N331600E1084500-N325900E1085700-  N324900E1085400-N324600E1084700-N325200E1083500-N330400E1082400   BACK TO START.VERTICAL LIMITS:SFC-UNL.  AIRCRAFT ARE FORBIDDEN TO FLY INTO THE AREA.  F)SFC G)UNL    CREATED: 05 AUG 2026 05:54  SOURCE: ZBBBYNYX</description>
      <styleUrl>#polyStyle</styleUrl>
      <Polygon>
        <outerBoundaryIs>
          <LinearRing>
            <coordinates>108.45,33.25,0 108.55,33.3,0 108.75,33.266667,0 108.95,32.983333,0 108.9,32.816667,0 108.783333,32.766667,0 108.583333,32.866667,0 108.4,33.066667,0 108.45,33.25,0</coordinates>
          </LinearRing>
        </outerBoundaryIs>
      </Polygon>
    </Placemark>
    <Placemark>
      <name>B3622/26</name>
      <description>B3622/26 NOTAMN  Q) RPHI/QWMLW/IV/BO /W /000/999/0907N11916E022  A) RPHI B) 2608170200 C) 2608200600  D) 0200-0600  E) SPECIAL OPS (AEROSPACE FLT ACT) WILL BE CONDUCTED BY CHINA.  EST FALL AREA OF UNBURNED DEBRIS WI:  091600N 1185700E -  092800N 1191300E -  085700N 1193500E -  084600N 1192000E -  091600N 1185700E   (28NM SOUTHEAST OF PUERTO PRINCESA AP).  F) SFC G) UNL    CREATED: 20 JUL 2026 09:34  SOURCE: EUECYIYN</description>
      <styleUrl>#polyStyle</styleUrl>
      <Polygon>
        <outerBoundaryIs>
          <LinearRing>
            <coordinates>118.95,9.266667,0 119.216667,9.466667,0 119.583333,8.95,0 119.333333,8.766667,0 118.95,9.266667,0</coordinates>
          </LinearRing>
        </outerBoundaryIs>
      </Polygon>
    </Placemark>
    <Placemark>
      <name>B3623/26</name>
      <description>B3623/26 NOTAMN  Q) RPHI/QWMLW/IV/BO /W /000/999/1908N11910E037  A) RPHI B) 2608240000 C) 2608310400  D) 0000-0400  E) SPECIAL OPS (AEROSPACE FLT ACT) WILL BE CONDUCTED BY CHINA.  EST FALL AREA OF UNBURNED DEBRIS WI:  192900N 1184000E -  192400N 1194400E -  184700N 1193900E -  185200N 1183700E -  192900N 1184000E  (61NM NORTHWEST OF LAOAG AP).  F) SFC G) UNL    CREATED: 20 JUL 2026 09:39  SOURCE: EUECYIYN</description>
      <styleUrl>#polyStyle</styleUrl>
      <Polygon>
        <outerBoundaryIs>
          <LinearRing>
            <coordinates>118.666667,19.483333,0 119.733333,19.4,0 119.65,18.783333,0 118.616667,18.866667,0 118.666667,19.483333,0</coordinates>
          </LinearRing>
        </outerBoundaryIs>
      </Polygon>
    </Placemark>
    <Placemark>
      <name>B3624/26</name>
      <description>B3624/26 NOTAMN  Q) RPHI/QWMLW/IV/BO /W /000/999/1826N12551E038  A) RPHI B) 2608240000 C) 2608310400  D) 0000-0400  E) SPECIAL OPS (AEROSPACE FLT ACT) WILL BE CONDUCTED BY CHINA.  EST FALL AREA OF UNBURNED DEBRIS WI:  185100N 1252200E -  184300N 1262400E -  180000N 1261900E -  180800N 1251700E -  185100N 1252200E  (178NM NORTHEAST OF PALANAN AP).  F) SFC G) UNL    CREATED: 20 JUL 2026 09:47  SOURCE: EUECYIYN</description>
      <styleUrl>#polyStyle</styleUrl>
      <Polygon>
        <outerBoundaryIs>
          <LinearRing>
            <coordinates>125.366667,18.85,0 126.4,18.716667,0 126.316667,18.0,0 125.283333,18.133333,0 125.366667,18.85,0</coordinates>
          </LinearRing>
        </outerBoundaryIs>
      </Polygon>
    </Placemark>
    <Placemark>
      <name>B3953/26</name>
      <description>B3953/26 NOTAMN  Q) RPHI/QWMLW/IV/BO /W /000/999/1921N11924E047  A) RPHI B) 2608101154 C) 2608101312  E) SPECIAL OPS (AEROSPACE FLT ACT) WILL BE CONDUCTED BY CHINA.  EST FALL AREA OF UNBURNED DEBRIS WI:  194300N 1184200E -  193800N 1200900E -  190000N 1200600E -  190400N 1184000E -  194300N 1184200E  (55NM NORTHWEST OF LAOAG AP).  F) SFC G) UNL    CREATED: 05 AUG 2026 01:38  SOURCE: EUECYIYN</description>
      <styleUrl>#polyStyle</styleUrl>
      <Polygon>
        <outerBoundaryIs>
          <LinearRing>
            <coordinates>118.7,19.716667,0 120.15,19.633333,0 120.1,19.0,0 118.666667,19.066667,0 118.7,19.716667,0</coordinates>
          </LinearRing>
        </outerBoundaryIs>
      </Polygon>
    </Placemark>
    <Placemark>
      <name>B3955/26</name>
      <description>B3955/26 NOTAMN  Q) RPHI/QWMLW/IV/BO /W /000/999/1901N12359E034  A) RPHI B) 2608101156 C) 2608101316  E) SPECIAL OPS (AEROSPACE FLT ACT) WILL BE CONDUCTED BY CHINA.  EST FALL AREA OF UNBURNED DEBRIS WI:  192000N 1233000E -  191500N 1243100E -  184200N 1242800E -  184700N 1232700E -  192000N 1233000E   (101NM NORTHEAST OF LALLO AP).  F) SFC G) UNL    CREATED: 05 AUG 2026 01:51  SOURCE: EUECYIYN</description>
      <styleUrl>#polyStyle</styleUrl>
      <Polygon>
        <outerBoundaryIs>
          <LinearRing>
            <coordinates>123.5,19.333333,0 124.516667,19.25,0 124.466667,18.7,0 123.45,18.783333,0 123.5,19.333333,0</coordinates>
          </LinearRing>
        </outerBoundaryIs>
      </Polygon>
    </Placemark>
    <Placemark>
      <name>B3620/26</name>
      <description>B3620/26 NOTAMN  Q) RPHI/QWMLW/IV/BO /W /000/999/1921N11924E046  A) RPHI B) 2608091100 C) 2608131400  D) 1100-1400  E) SPECIAL OPS (AEROSPACE FLT ACT) WILL BE CONDUCTED BY CHINA.  EST FALL AREA OF UNBURNED DEBRIS WI:  194200N 1184600E -  193700N 1200800E -  185900N 1200500E -  190400N 1184000E -  194200N 1184600E  (55NM NORTHWEST OF LAOAG AP).  F) SFC G) UNL    CREATED: 20 JUL 2026 09:22  SOURCE: EUECYIYN</description>
      <styleUrl>#polyStyle</styleUrl>
      <Polygon>
        <outerBoundaryIs>
          <LinearRing>
            <coordinates>118.766667,19.7,0 120.133333,19.616667,0 120.083333,18.983333,0 118.666667,19.066667,0 118.766667,19.7,0</coordinates>
          </LinearRing>
        </outerBoundaryIs>
      </Polygon>
    </Placemark>
    <Placemark>
      <name>B3621/26</name>
      <description>B3621/26 NOTAMN  Q) RPHI/QWMLW/IV/BO /W /000/999/1900N12359E036  A) RPHI B) 2608091100 C) 2608131400  D) 1100-1400  E) SPECIAL OPS (AEROSPACE FLT ACT) WILL BE CONDUCTED BY CHINA.  EST FALL AREA OF UNBURNED DEBRIS WI:  191900N 1232800E -  191400N 1243300E -  184100N 1243000E -  184700N 1232500E -  191900N 1232800E   (101NM NORTHEAST OF LALLO AP).  F) SFC G) UNL    CREATED: 20 JUL 2026 09:26  SOURCE: EUECYIYN</description>
      <styleUrl>#polyStyle</styleUrl>
      <Polygon>
        <outerBoundaryIs>
          <LinearRing>
            <coordinates>123.466667,19.316667,0 124.55,19.233333,0 124.5,18.683333,0 123.416667,18.783333,0 123.466667,19.316667,0</coordinates>
          </LinearRing>
        </outerBoundaryIs>
      </Polygon>
    </Placemark>
  </Document>
</kml>