<?xml version='1.0' encoding='UTF-8'?>
<kml xmlns="http://www.opengis.net/kml/2.2">
  <Document>
    <name>Aerospace NOTAMs</name>
    <Style id="polyStyle">
      <LineStyle>
        <color>ff000000</color>
        <width>2</width>
      </LineStyle>
      <PolyStyle>
        <color>7700ff00</color>
      </PolyStyle>
    </Style>
    <Style id="circleStyle">
      <LineStyle>
        <color>ff000000</color>
        <width>2</width>
      </LineStyle>
      <PolyStyle>
        <color>770000ff</color>
      </PolyStyle>
    </Style>
    <Style id="lineStyle">
      <LineStyle>
        <color>ff000000</color>
        <width>2</width>
      </LineStyle>
      <PolyStyle>
        <color>77ff0000</color>
      </PolyStyle>
    </Style>
    <Placemark>
      <name>J5540/2025</name>
      <description>J5540/25 NOTAMN  Q) YBBB/QFAXX/IV/NBO/A/000/999/1431S13223E005  A) YPTN  B) 2512141600 C) PERM  E) LOCAL TRAFFIC REGULATIONS AMD  CHANGE THE FLW TO READ:  5. MULTI ENG PROPELLER ACFT ARE NOT TO CONDUCT FULL PWR ENG RUNS ON  PAVED HARDSTAND DUE TO CREATION OF FOREIGN OBJECT DEBRIS.  REMOVE THE FLW:  NOTE 2  NOTE 10  AMD EN ROUTE SUPPLEMENT AUSTRALIA (ERSA    CREATED: 02 DEC 2025 02:18  SOURCE: YBBBZEZX</description>
      <styleUrl>#circleStyle</styleUrl>
      <Polygon>
        <outerBoundaryIs>
          <LinearRing>
            <coordinates>132.4694148388005,-14.516666666666667,0 132.46810706730835,-14.502195985194422,0 132.46422348880697,-14.488164988056194,0 132.4578821038639,-14.475000000000001,0 132.44927559225178,-14.463101032526122,0 132.43866545847078,-14.452829629740085,0 132.42637408606691,-14.444497883017965,0 132.4127749421709,-14.438358948267842,0 132.39828122988854,-14.434599353915651,0 132.38333333333333,-14.433333333333334,0 132.3683854367781,-14.434599353915651,0 132.35389172449575,-14.438358948267842,0 132.34029258059974,-14.444497883017965,0 132.32800120819587,-14.452829629740085,0 132.31739107441487,-14.463101032526122,0 132.30878456280274,-14.475000000000001,0 132.3024431778597,-14.488164988056194,0 132.2985595993583,-14.502195985194422,0 132.29725182786615,-14.516666666666667,0 132.2985595993583,-14.531137348138913,0 132.3024431778597,-14.54516834527714,0 132.30878456280274,-14.558333333333334,0 132.31739107441487,-14.570232300807213,0 132.32800120819587,-14.58050370359325,0 132.34029258059974,-14.58883545031537,0 132.35389172449575,-14.594974385065493,0 132.3683854367781,-14.598733979417684,0 132.38333333333333,-14.600000000000001,0 132.39828122988854,-14.598733979417684,0 132.4127749421709,-14.594974385065493,0 132.42637408606691,-14.58883545031537,0 132.43866545847078,-14.58050370359325,0 132.44927559225178,-14.570232300807213,0 132.4578821038639,-14.558333333333334,0 132.46422348880697,-14.54516834527714,0 132.46810706730835,-14.531137348138913,0 132.4694148388005,-14.516666666666667,0</coordinates>
          </LinearRing>
        </outerBoundaryIs>
      </Polygon>
    </Placemark>
    <Placemark>
      <name>R3154/2025</name>
      <description>R3154/25 NOTAMN  Q) LFXX/QRTTT/IV/BO /W /000/999/4551N00432W190  A) LFRR LFBB B) 2601220000 C) 2701212359  E) TRIGGER NOTAM - AIRAC AIP SUP 207/25 MODIFIED :  MISSILE FIRING IN THE ATLANTIC OCEAN REQUIRING THE CREATION OF 6   TEMPORARY RESTRICTED AREAS (&amp;apos;ZRT&amp;apos;), OF 16 TEMPORARY DANGEROUS AREAS   (&amp;apos;ZDT&amp;apos;) AND FLIGHT PLAN BUFFER ZONE (FBZ) ASSOCIATED.  THESE &amp;apos;ZRT/ZDT&amp;apos; ARE ACTIVATED BY NOTAM AT D-7.  -----------------------------------------------------------------  PAGE</description>
      <styleUrl>#polyStyle</styleUrl>
      <Polygon>
        <outerBoundaryIs>
          <LinearRing>
            <coordinates>-1.663611,45.905833,0 -1.661667,45.945278,0 -1.261667,45.876944,0 -1.214722,45.86,0 -1.18,45.824722,0 -1.062222,45.587778,0 -1.066111,45.524167,0 -1.172778,45.479167,0 -1.686389,45.48,0 -1.684167,45.520278,0 -1.933056,45.519444,0 -1.950833,45.521389,0 -1.966944,45.526667,0 -1.98,45.535278,0 -1.988611,45.546111,0 -1.9925,45.558333,0 -1.991111,45.570833,0 -1.965,45.646667,0 -2.1375,45.658333,0 -2.836667,45.691111,0 -2.855278,45.694167,0 -2.871389,45.700833,0 -2.883611,45.710833,0 -2.890833,45.723056,0 -2.8925,45.736111,0 -2.886389,45.787222,0 -2.8825,45.798889,0 -2.874167,45.809167,0 -2.681944,45.984444,0 -2.665,45.995,0 -2.643611,46.000278,0 -2.399722,46.026667,0 -2.376667,46.026111,0 -1.663611,45.905833,0</coordinates>
          </LinearRing>
        </outerBoundaryIs>
      </Polygon>
    </Placemark>
    <Placemark>
      <name>FDC 6/2193</name>
      <description>FDC 6/2193 AIRSPACE SPACE OPERATIONS TFR. Cape Canaveral, FL, Tuesday, September 15, 2026 Local. NOTAM Number : FDC 6/2193 Download shapefiles Issue Date : September 10, 2026 at 1420 UTC Location : Cape Canaveral, Florida Beginning Date and Time : September 15, 2026 at 1830 UTC Ending Date and Time : September 15, 2026 at 2110 UTC Reason for NOTAM : Space Operations Area Type : Space Operations Replaced NOTAM(s) : N/A Pilots May Contact : Miami Center (ZMA) ARTCC, 305-716-1589 Jump To: Affected </description>
      <styleUrl>#polyStyle</styleUrl>
      <Polygon>
        <outerBoundaryIs>
          <LinearRing>
            <coordinates>-80.787778,28.634722,0 -80.083333,28.844167,0 -80.064648,28.803259,0 -80.050063,28.761203,0 -80.039659,28.718314,0 -80.033486,28.674909,0 -80.031565,28.631306,0 -80.033882,28.587825,0 -80.040396,28.544781,0 -80.051033,28.502486,0 -80.065691,28.461243,0 -80.084239,28.421346,0 -80.10652,28.383077,0 -80.132349,28.346705,0 -80.161519,28.312485,0 -80.193799,28.280652,0 -80.228938,28.251424,0 -80.266667,28.225,0 -80.508056,28.416944,0 -80.633056,28.416944,0 -80.695556,28.416944,0 -80.730278,28.5225,0 -80.787778,28.634722,0</coordinates>
          </LinearRing>
        </outerBoundaryIs>
      </Polygon>
    </Placemark>
    <Placemark>
      <name>FDC 6/2192</name>
      <description>FDC 6/2192 AIRSPACE SPACE OPERATIONS TFR. Cape Canaveral, FL, Sunday, September 13, 2026 Local. NOTAM Number : FDC 6/2192 Download shapefiles Issue Date : September 10, 2026 at 1418 UTC Location : Cape Canaveral, Florida Beginning Date and Time : September 13, 2026 at 1830 UTC Ending Date and Time : September 13, 2026 at 2110 UTC Reason for NOTAM : Space Operations Area Type : Space Operations Replaced NOTAM(s) : N/A Pilots May Contact : Miami Center (ZMA) ARTCC, 305-716-1589 Jump To: Affected A</description>
      <styleUrl>#polyStyle</styleUrl>
      <Polygon>
        <outerBoundaryIs>
          <LinearRing>
            <coordinates>-80.787778,28.634722,0 -80.083333,28.844167,0 -80.064648,28.803259,0 -80.050063,28.761203,0 -80.039659,28.718314,0 -80.033486,28.674909,0 -80.031565,28.631306,0 -80.033882,28.587825,0 -80.040396,28.544781,0 -80.051033,28.502486,0 -80.065691,28.461243,0 -80.084239,28.421346,0 -80.10652,28.383077,0 -80.132349,28.346705,0 -80.161519,28.312485,0 -80.193799,28.280652,0 -80.228938,28.251424,0 -80.266667,28.225,0 -80.508056,28.416944,0 -80.633056,28.416944,0 -80.695556,28.416944,0 -80.730278,28.5225,0 -80.787778,28.634722,0</coordinates>
          </LinearRing>
        </outerBoundaryIs>
      </Polygon>
    </Placemark>
    <Placemark>
      <name>FDC 6/2191</name>
      <description>FDC 6/2191 AIRSPACE SPACE OPERATIONS TFR. Cape Canaveral, FL, Monday, September 14, 2026 Local. NOTAM Number : FDC 6/2191 Download shapefiles Issue Date : September 10, 2026 at 1416 UTC Location : Cape Canaveral, Florida Beginning Date and Time : September 14, 2026 at 1830 UTC Ending Date and Time : September 14, 2026 at 2110 UTC Reason for NOTAM : Space Operations Area Type : Space Operations Replaced NOTAM(s) : N/A Pilots May Contact : Miami Center (ZMA) ARTCC, 305-716-1589 Jump To: Affected A</description>
      <styleUrl>#polyStyle</styleUrl>
      <Polygon>
        <outerBoundaryIs>
          <LinearRing>
            <coordinates>-80.787778,28.634722,0 -80.083333,28.844167,0 -80.064648,28.803259,0 -80.050063,28.761203,0 -80.039659,28.718314,0 -80.033486,28.674909,0 -80.031565,28.631306,0 -80.033882,28.587825,0 -80.040396,28.544781,0 -80.051033,28.502486,0 -80.065691,28.461243,0 -80.084239,28.421346,0 -80.10652,28.383077,0 -80.132349,28.346705,0 -80.161519,28.312485,0 -80.193799,28.280652,0 -80.228938,28.251424,0 -80.266667,28.225,0 -80.508056,28.416944,0 -80.633056,28.416944,0 -80.695556,28.416944,0 -80.730278,28.5225,0 -80.787778,28.634722,0</coordinates>
          </LinearRing>
        </outerBoundaryIs>
      </Polygon>
    </Placemark>
    <Placemark>
      <name>A3278/26</name>
      <description>A3278/26 NOTAMN  Q) RCAA/QRALW/IV/NBO/W/000/999/2807N12337E026  A) RCAA  B) 2609152151 C) 2609152214  E) AIRSPACE BLOCKED DUE TO AEROSPACE FLIGHT ACTIVITY:  1.AFFECTED RTE:    B591 BTN KASKA AND DUBAN    B576 BTN SALMI AND DUBAN    Q11 BTN SALMI AND WP900    L2 BTN KASKA AND TOKAI    L3 BTN SALMI AND EMRET    L4 BTN LIPLO AND WP900  2.FOR DETAILS, CONTACT TAIPEI ACC AT +886 3 3841040  3.AREA AS FLW:    2829N12351E    2745N12349E    2745N12324E    2830N12325E    2829N12351E  F) SFC G) UNL    CREA</description>
      <styleUrl>#polyStyle</styleUrl>
      <Polygon>
        <outerBoundaryIs>
          <LinearRing>
            <coordinates>123.85,28.483333,0 123.816667,27.75,0 123.4,27.75,0 123.416667,28.5,0 123.85,28.483333,0</coordinates>
          </LinearRing>
        </outerBoundaryIs>
      </Polygon>
    </Placemark>
    <Placemark>
      <name>A4352/26</name>
      <description>A4352/26 NOTAMN  Q)ZSHA/QRDCA/IV/BO/W/000/999/3112N12342E011  A)ZSHA B)2609152150 C)2609152211   E) A TEMPORARY DANGER AREA ESTABLISHED,THE AREA WITHIN A CIRCLE   CENTERED AT N311200E1234200 WITH RADIUS OF 20KM.  VERTICAL LIMITS:SFC-UNL.  AIRCRAFT ARE FORBIDDEN TO FLY INTO THE AREA.  F)SFC G)UNL    CREATED: 09 SEP 2026 02:15  SOURCE: ZBBBYNYX</description>
      <styleUrl>#circleStyle</styleUrl>
      <Polygon>
        <outerBoundaryIs>
          <LinearRing>
            <coordinates>123.91433363757673,31.2,0 123.91107742801688,31.231835499238937,0 123.90140773761706,31.262703692943038,0 123.88561837502698,31.291666666666664,0 123.86418909203914,31.317844395109198,0 123.83777100657338,31.34044148123848,0 123.80716681878837,31.358771324027146,0 123.77330642144351,31.372276980477416,0 123.73721864557793,31.380548088052237,0 123.7,31.383333333333333,0 123.66278135442208,31.380548088052237,0 123.6266935785565,31.372276980477416,0 123.59283318121163,31.358771324027146,0 123.56222899342663,31.34044148123848,0 123.53581090796087,31.317844395109198,0 123.51438162497303,31.291666666666664,0 123.49859226238294,31.262703692943038,0 123.48892257198312,31.231835499238937,0 123.48566636242327,31.2,0 123.48892257198312,31.168164500761062,0 123.49859226238294,31.13729630705696,0 123.51438162497303,31.108333333333334,0 123.53581090796087,31.0821556048908,0 123.56222899342663,31.05955851876152,0 123.59283318121163,31.041228675972853,0 123.6266935785565,31.027723019522583,0 123.66278135442208,31.019451911947762,0 123.7,31.016666666666666,0 123.73721864557793,31.019451911947762,0 123.77330642144351,31.027723019522583,0 123.80716681878837,31.041228675972853,0 123.83777100657338,31.05955851876152,0 123.86418909203914,31.0821556048908,0 123.88561837502698,31.108333333333334,0 123.90140773761706,31.13729630705696,0 123.91107742801688,31.168164500761062,0 123.91433363757673,31.2,0</coordinates>
          </LinearRing>
        </outerBoundaryIs>
      </Polygon>
    </Placemark>
    <Placemark>
      <name>A4403/26</name>
      <description>A4403/26 NOTAMN  Q)ZPKM/QRDCA/IV/BO/W/000/999/2924N09943E023  A)ZPKM B)2609150620 C)2609150648   E) A TEMPORARY DANGER AREA ESTABLISHED BOUNDED BY:  N294400E0993000-N294300E0995600-N290500E0995400-N290500E0992900,BAC  K TO START.VERTICAL LIMITS:SFC-UNL.  AIRCRAFT ARE FORBIDDEN TO FLY INTO THE AREA.  F)SFC G)UNL    CREATED: 10 SEP 2026 05:59  SOURCE: ZBBBYNYX</description>
      <styleUrl>#polyStyle</styleUrl>
      <Polygon>
        <outerBoundaryIs>
          <LinearRing>
            <coordinates>99.5,29.733333,0 99.933333,29.716667,0 99.9,29.083333,0 99.483333,29.083333,0 99.5,29.733333,0</coordinates>
          </LinearRing>
        </outerBoundaryIs>
      </Polygon>
    </Placemark>
    <Placemark>
      <name>A4404/26</name>
      <description>A4404/26 NOTAMN  Q)ZLHW/QRDCA/IV/BO/W/000/999/3507N10003E013  A)ZLHW B)2609150618 C)2609150640   E) A TEMPORARY DANGER AREA ESTABLISHED BOUNDED BY:  N351800E0995600-N351800E1001100-N345600E1001000-N345600E0995600,BAC  K TO START.VERTICAL LIMITS:SFC-UNL.  AIRCRAFT ARE FORBIDDEN TO FLY INTO THE AREA.  F)SFC G)UNL    CREATED: 10 SEP 2026 05:59  SOURCE: ZBBBYNYX</description>
      <styleUrl>#polyStyle</styleUrl>
      <Polygon>
        <outerBoundaryIs>
          <LinearRing>
            <coordinates>99.933333,35.3,0 100.183333,35.3,0 100.166667,34.933333,0 99.933333,34.933333,0 99.933333,35.3,0</coordinates>
          </LinearRing>
        </outerBoundaryIs>
      </Polygon>
    </Placemark>
    <Placemark>
      <name>A4453/26</name>
      <description>A4453/26 NOTAMN  Q)ZLHW/QRDCA/IV/BO/W/000/999/3956N10129E014  A)ZLHW B)2609170231 C)2609170312   E) A TEMPORARY DANGER AREA ESTABLISHED BOUNDED BY:  N395800E1011200-N401000E1013100-N395500E1014700-N394300E1012800,BAC  K TO START.VERTICAL LIMITS:SFC-UNL.  AIRCRAFT ARE FORBIDDEN TO FLY INTO THE AREA.  F)SFC G)UNL    CREATED: 11 SEP 2026 04:26  SOURCE: ZBBBYNYX</description>
      <styleUrl>#polyStyle</styleUrl>
      <Polygon>
        <outerBoundaryIs>
          <LinearRing>
            <coordinates>101.2,39.966667,0 101.516667,40.166667,0 101.783333,39.916667,0 101.466667,39.716667,0 101.2,39.966667,0</coordinates>
          </LinearRing>
        </outerBoundaryIs>
      </Polygon>
    </Placemark>
    <Placemark>
      <name>A4454/26</name>
      <description>A4454/26 NOTAMN  Q)ZHWH/QRDCA/IV/BO/W/000/999/3000N11024E033  A)ZHWH B)2609170232 C)2609170315   E) A TEMPORARY DANGER AREA ESTABLISHED BOUNDED BY:  N302000E1095400-N303100E1101300-N302100E1102000-N302100E1102400-  N294100E1105400-N292900E1103200,BACK TO START.VERTICAL   LIMITS:SFC-UNL.  AIRCRAFT ARE FORBIDDEN TO FLY INTO THE AREA.  F)SFC G)UNL    CREATED: 11 SEP 2026 04:28  SOURCE: ZBBBYNYX</description>
      <styleUrl>#polyStyle</styleUrl>
      <Polygon>
        <outerBoundaryIs>
          <LinearRing>
            <coordinates>109.9,30.333333,0 110.216667,30.516667,0 110.333333,30.35,0 110.4,30.35,0 110.9,29.683333,0 110.533333,29.483333,0 109.9,30.333333,0</coordinates>
          </LinearRing>
        </outerBoundaryIs>
      </Polygon>
    </Placemark>
    <Placemark>
      <name>A4456/26</name>
      <description>A4456/26 NOTAMN  Q)ZXXX/QRDCA/IV/BO/W/000/999/3322N11036E013  A)ZLHW ZHWH B)2609191043 C)2609191106   E) A TEMPORARY DANGER AREA ESTABLISHED BOUNDED BY:  N333400E1103100-N333200E1104400-N331000E1104100-N331100E1102700,   BACK TO START.VERTICAL LIMITS:SFC-UNL.  AIRCRAFT ARE FORBIDDEN TO FLY INTO THE AREA.  F)SFC G)UNL    CREATED: 11 SEP 2026 05:09  SOURCE: ZBBBYNYX</description>
      <styleUrl>#polyStyle</styleUrl>
      <Polygon>
        <outerBoundaryIs>
          <LinearRing>
            <coordinates>110.516667,33.566667,0 110.733333,33.533333,0 110.683333,33.166667,0 110.45,33.183333,0 110.516667,33.566667,0</coordinates>
          </LinearRing>
        </outerBoundaryIs>
      </Polygon>
    </Placemark>
    <Placemark>
      <name>A4457/26</name>
      <description>A4457/26 NOTAMN  Q)ZHWH/QRDCA/IV/BO/W/000/999/3015N11005E022  A)ZHWH B)2609191044 C)2609191111   E) A TEMPORARY DANGER AREA ESTABLISHED BOUNDED BY:  N303500E1095700-N303300E1101900-N295400E1101300-N295700E1095100,   BACK TO START.VERTICAL LIMITS:SFC-UNL.  AIRCRAFT ARE FORBIDDEN TO FLY INTO THE AREA.  F)SFC G)UNL    CREATED: 11 SEP 2026 05:10  SOURCE: ZBBBYNYX</description>
      <styleUrl>#polyStyle</styleUrl>
      <Polygon>
        <outerBoundaryIs>
          <LinearRing>
            <coordinates>109.95,30.583333,0 110.316667,30.55,0 110.216667,29.9,0 109.85,29.95,0 109.95,30.583333,0</coordinates>
          </LinearRing>
        </outerBoundaryIs>
      </Polygon>
    </Placemark>
    <Placemark>
      <name>B4714/26</name>
      <description>B4714/26 NOTAMN  Q) RPHI/QWMLW/IV/BO /W /000/999/1928N12319E036  A) RPHI B) 2609152152 C) 2609152224  E) SPECIAL OPS (AEROSPACE FLT ACT) WILL BE CONDUCTED BY CHINA.  EST FALL AREA FOR UNBURNED DEBRIS WI:  200300N 1231500E -  200200N 1232800E -  185400N 1232500E -  185400N 1231300E -  200300N 1231500E  (76NM SOUTHEAST OF BASCO PRINCIPAL AP (CLASS 2)).  F) SFC G) UNL    CREATED: 09 SEP 2026 10:47  SOURCE: EUECYIYN</description>
      <styleUrl>#polyStyle</styleUrl>
      <Polygon>
        <outerBoundaryIs>
          <LinearRing>
            <coordinates>123.25,20.05,0 123.466667,20.033333,0 123.416667,18.9,0 123.216667,18.9,0 123.25,20.05,0</coordinates>
          </LinearRing>
        </outerBoundaryIs>
      </Polygon>
    </Placemark>
    <Placemark>
      <name>B4716/26</name>
      <description>B4716/26 NOTAMN  Q) RPHI/QWMLW/IV/BO /W /000/999/0907N11917E023  A) RPHI B) 2609170025 C) 2609170054  E) SPECIAL OPS (AEROSPACE FLT ACT) WILL BE CONDUCTED BY CHINA.   EST FALL AREA OF UNBURNED DEBRIS WI:  091600N 1185700E -  092800N 1191300E -  085700N 1193600E -  084500N 1192000E -  091600N 1185700E  (29NM SOUTHEAST PUERTO PRINCESA INTL AP).  F) SFC G) UNL    CREATED: 09 SEP 2026 10:56  SOURCE: EUECYIYN</description>
      <styleUrl>#polyStyle</styleUrl>
      <Polygon>
        <outerBoundaryIs>
          <LinearRing>
            <coordinates>118.95,9.266667,0 119.216667,9.466667,0 119.6,8.95,0 119.333333,8.75,0 118.95,9.266667,0</coordinates>
          </LinearRing>
        </outerBoundaryIs>
      </Polygon>
    </Placemark>
    <Placemark>
      <name>F3436/26</name>
      <description>F3436/26 NOTAMN  Q) YMMM/QWMLW/IV/BO/W/000/999/4556S12127E138  A) YMMM  B) 2609152155 C) 2609152236  E) CHINESE AEROSPACE ACTIVITIES WILL TAKE PLACE  FLW ADVICE RECEIVED FROM CIVIL AVIATION ADMINISTRATION OF CHINA:  THE SAFETY OF ACFT IN FLIGHT WI THE FOLLOWING 'AREA PZ' MAY BE  AFFECTED  AREA BOUNDED BY:  4341S12054E - 4343S12209E - 4811S12201E - 4809S12039E  F) SFC G) UNL    CREATED: 09 SEP 2026 05:35  SOURCE: YBBBZEZX</description>
      <styleUrl>#polyStyle</styleUrl>
      <Polygon>
        <outerBoundaryIs>
          <LinearRing>
            <coordinates>120.9,-43.683333,0 122.15,-43.716667,0 122.016667,-48.183333,0 120.65,-48.15,0 120.9,-43.683333,0</coordinates>
          </LinearRing>
        </outerBoundaryIs>
      </Polygon>
    </Placemark>
    <Placemark>
      <name>B4419/26</name>
      <description>B4419/26 NOTAMN  Q) RPHI/QWMLW/IV/BO /W /000/999/1245N11610E038  A) RPHI B) 2609111600 C) 2609142000  D) 1600-2000  E) SPECIAL OPS (AEROSPACE FLT ACT) WILL BE CONDUCTED BY CHINA.  EST FALL AREA FOR UNBURNED DEBRIS WI:  130200N 1153700E -  132100N 1160400E -  122800N 1164300E -  121000N 1161600E -  130200N 1153700E  (230NM WEST OF LUBANG AP).  F) SFC G) UNL    CREATED: 28 AUG 2026 12:33  SOURCE: EUECYIYN</description>
      <styleUrl>#polyStyle</styleUrl>
      <Polygon>
        <outerBoundaryIs>
          <LinearRing>
            <coordinates>115.616667,13.033333,0 116.066667,13.35,0 116.716667,12.466667,0 116.266667,12.166667,0 115.616667,13.033333,0</coordinates>
          </LinearRing>
        </outerBoundaryIs>
      </Polygon>
    </Placemark>
    <Placemark>
      <name>B4420/26</name>
      <description>B4420/26 NOTAMN  Q) RPHI/QWMLW/IV/BO /W /000/999/0811N11926E046  A) RPHI B) 2609111600 C) 2609142000  D) 1600-2000  E) SPECIAL OPS (AEROSPACE FLT ACT) WILL BE CONDUCTED BY CHINA.  EST FALL AREA FOR UNBURNED DEBRIS WI:  083500N 1184800E -  085400N 1191500E -  084300N 1192900E -  075000N 1200600E -  072600N 1193000E -  081900N 1185300E -  083500N 1184800E  (58NM SOUTH OF PUERTO PRINCESA AP).  F) SFC G) UNL    CREATED: 28 AUG 2026 12:44  SOURCE: EUECYIYN</description>
      <styleUrl>#polyStyle</styleUrl>
      <Polygon>
        <outerBoundaryIs>
          <LinearRing>
            <coordinates>118.8,8.583333,0 119.25,8.9,0 119.483333,8.716667,0 120.1,7.833333,0 119.5,7.433333,0 118.883333,8.316667,0 118.8,8.583333,0</coordinates>
          </LinearRing>
        </outerBoundaryIs>
      </Polygon>
    </Placemark>
    <Placemark>
      <name>B4421/26</name>
      <description>B4421/26 NOTAMN  Q) RPHI/QWMLW/IV/BO /W /000/999/1928N12320E036  A) RPHI B) 2609132000 C) 2609182330  D) 2000-2330  E) SPECIAL OPS (AEROSPACE FLT ACT) WILL BE CONDUCTED BY CHINA.  EST FALL AREA FOR UNBURNED DEBRIS WI:  200200N 1231600E -  200200N 1232700E -  185400N 1232500E -  185400N 1231300E -  200200N 1231600E  (76NM SOUTHEAST OF BASCO AP).  F) SFC G) UNL    CREATED: 28 AUG 2026 12:50  SOURCE: EUECYIYN</description>
      <styleUrl>#polyStyle</styleUrl>
      <Polygon>
        <outerBoundaryIs>
          <LinearRing>
            <coordinates>123.266667,20.033333,0 123.45,20.033333,0 123.416667,18.9,0 123.216667,18.9,0 123.266667,20.033333,0</coordinates>
          </LinearRing>
        </outerBoundaryIs>
      </Polygon>
    </Placemark>
    <Placemark>
      <name>B4694/26</name>
      <description>B4694/26 NOTAMN  Q) RPHI/QWMLW/IV/BO /W /000/999/0907N11916E022  A) RPHI B) 2609170000 C) 2609200400  D) 0000-0400  E) SPECIAL OPS (AEROSPACE FLT ACT) WILL BE CONDUCTED BY CHINA.   EST FALL AREA OF UNBURNED DEBRIS WI:  091600N 1185700E -  092800N 1191300E -  085700N 1193500E -  084600N 1192000E -  091600N 1185700E  (29NM SOUTHEAST PUERTO PRINCESA AP).  F) SFC G) UNL    CREATED: 08 SEP 2026 10:36  SOURCE: EUECYIYN</description>
      <styleUrl>#polyStyle</styleUrl>
      <Polygon>
        <outerBoundaryIs>
          <LinearRing>
            <coordinates>118.95,9.266667,0 119.216667,9.466667,0 119.583333,8.95,0 119.333333,8.766667,0 118.95,9.266667,0</coordinates>
          </LinearRing>
        </outerBoundaryIs>
      </Polygon>
    </Placemark>
    <Placemark>
      <name>A3243/26</name>
      <description>A3243/26 NOTAMN  Q) RCAA/QRALW/IV/NBO/W/000/999/2807N12338E025  A) RCAA  B) 2609132000 C) 2609182330  D) 2000-2330  E) AIRSPACE BLOCKED DUE TO AEROSPACE FLIGHT ACTIVITY:  1.AFFECTED RTE:    B591 BTN KASKA AND DUBAN    B576 BTN SALMI AND DUBAN    Q11 BTN SALMI AND WP900    L2 BTN KASKA AND TOKAI    L3 BTN SALMI AND EMRET    L4 BTN LIPLO AND WP900  2.FOR DETAILS, CONTACT TAIPEI ACC AT +886 3 3841040  3.AREA AS FLW:    2829N12350E    2745N12349E    2746N12324E    2829N12326E    2829N12350E  F) SFC </description>
      <styleUrl>#polyStyle</styleUrl>
      <Polygon>
        <outerBoundaryIs>
          <LinearRing>
            <coordinates>123.833333,28.483333,0 123.816667,27.75,0 123.4,27.766667,0 123.433333,28.483333,0 123.833333,28.483333,0</coordinates>
          </LinearRing>
        </outerBoundaryIs>
      </Polygon>
    </Placemark>
    <Placemark>
      <name>A5547/26</name>
      <description>(A5547/26 NOTAMN Q)UAAA/QRDCA/IV/BO/W/000/999/5054N08323E/033 A)UAAA B)2609091600 C)2609131510 D)09 1600-1640, 10 1540-1620, 11 1520-1600, 13 1430-1510 E)DANGER AREA UAD31 ACTIVATED F)GND G)UNL)</description>
      <styleUrl>#circleStyle</styleUrl>
      <Polygon>
        <outerBoundaryIs>
          <LinearRing>
            <coordinates>84.25541338348596,50.9,0 84.24216452290683,50.99550649771681,0 84.20282050109391,51.088111078829115,0 84.13857676624092,51.175,0 84.05138533172249,51.2535331853276,0 83.94389546515546,51.32132444371543,0 83.81937319174298,51.37631397208144,0 83.68160205775136,51.416830941432245,0 83.5347681693714,51.441644264156714,0 83.383333,51.449999999999996,0 83.23189783062858,51.441644264156714,0 83.08506394224862,51.416830941432245,0 82.947292808257,51.37631397208144,0 82.82277053484452,51.32132444371543,0 82.7152806682775,51.2535331853276,0 82.62808923375907,51.175,0 82.56384549890608,51.088111078829115,0 82.52450147709315,50.99550649771681,0 82.51125261651403,50.9,0 82.52450147709315,50.80449350228319,0 82.56384549890608,50.71188892117088,0 82.62808923375907,50.625,0 82.7152806682775,50.5464668146724,0 82.82277053484452,50.478675556284564,0 82.947292808257,50.423686027918556,0 83.08506394224862,50.38316905856775,0 83.23189783062858,50.35835573584328,0 83.383333,50.35,0 83.5347681693714,50.35835573584328,0 83.68160205775136,50.38316905856775,0 83.81937319174298,50.423686027918556,0 83.94389546515546,50.47867555628456,0 84.05138533172249,50.5464668146724,0 84.13857676624092,50.625,0 84.20282050109391,50.71188892117088,0 84.24216452290683,50.80449350228319,0 84.25541338348596,50.9,0</coordinates>
          </LinearRing>
        </outerBoundaryIs>
      </Polygon>
    </Placemark>
    <Placemark>
      <name>K2360/26</name>
      <description>(K2360/26 NOTAMN Q)UACN/QRDCA/IV/BO/W/000/999/4723N06722E/022 A)UACN B)2609091545 C)2609131610 D)09 1545-1745, 10 1520-1720, 11 1500-1700, 13 1410-1610 E)DANGER AREA UAD26 ACTIVATED F)GND G)UNL)</description>
      <styleUrl>#circleStyle</styleUrl>
      <Polygon>
        <outerBoundaryIs>
          <LinearRing>
            <coordinates>67.90820007570436,47.383333,0 67.8999729714662,47.447003998477875,0 67.87554163515088,47.50874038588608,0 67.8356484005495,47.56666633333333,0 67.78150540340846,47.6190217902184,0 67.71475775129821,47.66421596247696,0 67.63743353785219,47.70087564805429,0 67.551882220168,47.727886960954834,0 67.46070323174244,47.744429176104475,0 67.366667,47.74999966666667,0 67.27263076825759,47.744429176104475,0 67.18145177983202,47.727886960954834,0 67.09590046214782,47.70087564805429,0 67.0185762487018,47.66421596247696,0 66.95182859659155,47.6190217902184,0 66.89768559945051,47.56666633333333,0 66.85779236484913,47.50874038588608,0 66.83336102853382,47.447003998477875,0 66.82513392429566,47.383333,0 66.83336102853382,47.319662001522126,0 66.85779236484913,47.25792561411392,0 66.89768559945051,47.19999966666667,0 66.95182859659155,47.1476442097816,0 67.0185762487018,47.10245003752304,0 67.09590046214782,47.06579035194571,0 67.18145177983202,47.03877903904517,0 67.27263076825757,47.022236823895526,0 67.366667,47.01666633333333,0 67.46070323174243,47.022236823895526,0 67.551882220168,47.03877903904517,0 67.63743353785219,47.06579035194571,0 67.71475775129821,47.10245003752304,0 67.78150540340846,47.1476442097816,0 67.8356484005495,47.19999966666667,0 67.87554163515088,47.25792561411392,0 67.8999729714662,47.319662001522126,0 67.90820007570436,47.383333,0</coordinates>
          </LinearRing>
        </outerBoundaryIs>
      </Polygon>
    </Placemark>
    <Placemark>
      <name>C5837/26</name>
      <description>(C5837/26 NOTAMN Q)UAII/QRPCA/IV/NBO/W/000/999/4600N06334E/017 A)UAII B)2609091600 C)2609131455 D)09 1600-1630, 10 1535-1605, 11 1515-1545, 13 1425-1455 E)PROHIBITED AREA ACTIVATED IN AREA RADIUS 16,2 NM CENTRE 455946N 0633351E F)GND G)UNL)</description>
      <styleUrl>#circleStyle</styleUrl>
      <Polygon>
        <outerBoundaryIs>
          <LinearRing>
            <coordinates>63.97454135289396,46.0,0 63.968344824984804,46.04920031700563,0 63.94994351962228,46.0969057072756,0 63.91989655115831,46.141666666666666,0 63.879116881525164,46.18212315607785,0 63.82884358034915,46.21704592555038,0 63.77060417644698,46.24537386440559,0 63.706168244635656,46.26624624255601,0 63.63749363809712,46.27902886335346,0 63.566667,46.28333333333333,0 63.495840361902886,46.27902886335346,0 63.42716575536435,46.26624624255601,0 63.362729823553025,46.24537386440559,0 63.304490419650854,46.21704592555038,0 63.25421711847484,46.18212315607785,0 63.213437448841695,46.141666666666666,0 63.183390480377724,46.0969057072756,0 63.1649891750152,46.04920031700563,0 63.15879264710605,46.0,0 63.1649891750152,45.95079968299437,0 63.183390480377724,45.9030942927244,0 63.213437448841695,45.858333333333334,0 63.25421711847484,45.81787684392215,0 63.304490419650854,45.78295407444962,0 63.362729823553025,45.75462613559441,0 63.42716575536435,45.73375375744399,0 63.495840361902886,45.72097113664654,0 63.566667,45.71666666666667,0 63.63749363809712,45.72097113664654,0 63.706168244635656,45.73375375744399,0 63.77060417644698,45.75462613559441,0 63.82884358034915,45.78295407444962,0 63.879116881525164,45.81787684392215,0 63.91989655115831,45.858333333333334,0 63.94994351962228,45.9030942927244,0 63.968344824984804,45.95079968299437,0 63.97454135289396,46.0,0</coordinates>
          </LinearRing>
        </outerBoundaryIs>
      </Polygon>
    </Placemark>
    <Placemark>
      <name>P4267/26</name>
      <description>P4267/26 NOTAMN  Q)RJJJ/QXXXX/IV/NBO/E/000/165/3016N12604E030  A)RJJJ B)2609090800 C)2609131100  D)0800/1100  E)DUE TO AN AEROSPACE FLIGHT ACTIVITY, THE FLIGHT SAFETY OF THE  AIRCRAFT IN FOLLOWING AREA MAY BE AFFECTED THRU SEP 09-13 2026,  0800-1100 DLY    AREA:  304300N1255000E - 301300N1253300E - 294800N1261500E - 301500N1263600E  - 304300N1255000E    ALTITUDE:  SFC - UNL    RMK: ATC WILL NOT CLEAR IFR FLT THRU THIS AREA FOR THE FLIGHT SAFETY  F)SFC G)UNL    CREATED: 31 AUG 2026 04:34  SOURCE:</description>
      <styleUrl>#polyStyle</styleUrl>
      <Polygon>
        <outerBoundaryIs>
          <LinearRing>
            <coordinates>125.833333,30.716667,0 125.55,30.216667,0 126.25,29.8,0 126.6,30.25,0 125.833333,30.716667,0</coordinates>
          </LinearRing>
        </outerBoundaryIs>
      </Polygon>
    </Placemark>
  </Document>
</kml>