<?xml version='1.0' encoding='UTF-8'?>
<kml xmlns="http://www.opengis.net/kml/2.2">
  <Document>
    <name>Aerospace NOTAMs</name>
    <Style id="polyStyle">
      <LineStyle>
        <color>ff000000</color>
        <width>2</width>
      </LineStyle>
      <PolyStyle>
        <color>7700ff00</color>
      </PolyStyle>
    </Style>
    <Style id="circleStyle">
      <LineStyle>
        <color>ff000000</color>
        <width>2</width>
      </LineStyle>
      <PolyStyle>
        <color>770000ff</color>
      </PolyStyle>
    </Style>
    <Style id="lineStyle">
      <LineStyle>
        <color>ff000000</color>
        <width>2</width>
      </LineStyle>
      <PolyStyle>
        <color>77ff0000</color>
      </PolyStyle>
    </Style>
    <Placemark>
      <name>J5540/2025</name>
      <description>J5540/25 NOTAMN  Q) YBBB/QFAXX/IV/NBO/A/000/999/1431S13223E005  A) YPTN  B) 2512141600 C) PERM  E) LOCAL TRAFFIC REGULATIONS AMD  CHANGE THE FLW TO READ:  5. MULTI ENG PROPELLER ACFT ARE NOT TO CONDUCT FULL PWR ENG RUNS ON  PAVED HARDSTAND DUE TO CREATION OF FOREIGN OBJECT DEBRIS.  REMOVE THE FLW:  NOTE 2  NOTE 10  AMD EN ROUTE SUPPLEMENT AUSTRALIA (ERSA    CREATED: 02 DEC 2025 02:18  SOURCE: YBBBZEZX</description>
      <styleUrl>#circleStyle</styleUrl>
      <Polygon>
        <outerBoundaryIs>
          <LinearRing>
            <coordinates>132.4694148388005,-14.516666666666667,0 132.46810706730835,-14.502195985194422,0 132.46422348880697,-14.488164988056194,0 132.4578821038639,-14.475000000000001,0 132.44927559225178,-14.463101032526122,0 132.43866545847078,-14.452829629740085,0 132.42637408606691,-14.444497883017965,0 132.4127749421709,-14.438358948267842,0 132.39828122988854,-14.434599353915651,0 132.38333333333333,-14.433333333333334,0 132.3683854367781,-14.434599353915651,0 132.35389172449575,-14.438358948267842,0 132.34029258059974,-14.444497883017965,0 132.32800120819587,-14.452829629740085,0 132.31739107441487,-14.463101032526122,0 132.30878456280274,-14.475000000000001,0 132.3024431778597,-14.488164988056194,0 132.2985595993583,-14.502195985194422,0 132.29725182786615,-14.516666666666667,0 132.2985595993583,-14.531137348138913,0 132.3024431778597,-14.54516834527714,0 132.30878456280274,-14.558333333333334,0 132.31739107441487,-14.570232300807213,0 132.32800120819587,-14.58050370359325,0 132.34029258059974,-14.58883545031537,0 132.35389172449575,-14.594974385065493,0 132.3683854367781,-14.598733979417684,0 132.38333333333333,-14.600000000000001,0 132.39828122988854,-14.598733979417684,0 132.4127749421709,-14.594974385065493,0 132.42637408606691,-14.58883545031537,0 132.43866545847078,-14.58050370359325,0 132.44927559225178,-14.570232300807213,0 132.4578821038639,-14.558333333333334,0 132.46422348880697,-14.54516834527714,0 132.46810706730835,-14.531137348138913,0 132.4694148388005,-14.516666666666667,0</coordinates>
          </LinearRing>
        </outerBoundaryIs>
      </Polygon>
    </Placemark>
    <Placemark>
      <name>R3154/2025</name>
      <description>R3154/25 NOTAMN  Q) LFXX/QRTTT/IV/BO /W /000/999/4551N00432W190  A) LFRR LFBB B) 2601220000 C) 2701212359  E) TRIGGER NOTAM - AIRAC AIP SUP 207/25 MODIFIED :  MISSILE FIRING IN THE ATLANTIC OCEAN REQUIRING THE CREATION OF 6   TEMPORARY RESTRICTED AREAS (&amp;apos;ZRT&amp;apos;), OF 16 TEMPORARY DANGEROUS AREAS   (&amp;apos;ZDT&amp;apos;) AND FLIGHT PLAN BUFFER ZONE (FBZ) ASSOCIATED.  THESE &amp;apos;ZRT/ZDT&amp;apos; ARE ACTIVATED BY NOTAM AT D-7.  -----------------------------------------------------------------  PAGE</description>
      <styleUrl>#polyStyle</styleUrl>
      <Polygon>
        <outerBoundaryIs>
          <LinearRing>
            <coordinates>-1.663611,45.905833,0 -1.661667,45.945278,0 -1.261667,45.876944,0 -1.214722,45.86,0 -1.18,45.824722,0 -1.062222,45.587778,0 -1.066111,45.524167,0 -1.172778,45.479167,0 -1.686389,45.48,0 -1.684167,45.520278,0 -1.933056,45.519444,0 -1.950833,45.521389,0 -1.966944,45.526667,0 -1.98,45.535278,0 -1.988611,45.546111,0 -1.9925,45.558333,0 -1.991111,45.570833,0 -1.965,45.646667,0 -2.1375,45.658333,0 -2.836667,45.691111,0 -2.855278,45.694167,0 -2.871389,45.700833,0 -2.883611,45.710833,0 -2.890833,45.723056,0 -2.8925,45.736111,0 -2.886389,45.787222,0 -2.8825,45.798889,0 -2.874167,45.809167,0 -2.681944,45.984444,0 -2.665,45.995,0 -2.643611,46.000278,0 -2.399722,46.026667,0 -2.376667,46.026111,0 -1.663611,45.905833,0</coordinates>
          </LinearRing>
        </outerBoundaryIs>
      </Polygon>
    </Placemark>
    <Placemark>
      <name>A2363/26</name>
      <description>A2363/26 NOTAMN  Q)ZXXX/QRPCA/IV/NBO/W/000/999/3949N11930E009  A)ZBPE ZYSH B)2606301600 C)2608311559   E) A TEMPORARY PROHIBITED AREA ESTABLISHED BOUNDED BY:  N395600E1192100-N395600E1193300-N395100E1193900-N394300E1193900-N39  4300E1192100   BACK TO START.  VERTICAL LIMITS:GND-UNL.  ALL ACFT SHALL BE FORBIDDEN TO FLY INTO THE PROHIBITED AREA.  F)GND G)UNL</description>
      <styleUrl>#polyStyle</styleUrl>
      <Polygon>
        <outerBoundaryIs>
          <LinearRing>
            <coordinates>119.35,39.933333,0 119.55,39.933333,0 119.65,39.85,0 119.65,39.716667,0 119.35,39.933333,0</coordinates>
          </LinearRing>
        </outerBoundaryIs>
      </Polygon>
    </Placemark>
    <Placemark>
      <name>B3620/26</name>
      <description>B3620/26 NOTAMN  Q) RPHI/QWMLW/IV/BO /W /000/999/1921N11924E046  A) RPHI B) 2608091100 C) 2608131400  D) 1100-1400  E) SPECIAL OPS (AEROSPACE FLT ACT) WILL BE CONDUCTED BY CHINA.  EST FALL AREA OF UNBURNED DEBRIS WI:  194200N 1184600E -  193700N 1200800E -  185900N 1200500E -  190400N 1184000E -  194200N 1184600E  (55NM NORTHWEST OF LAOAG AP).  F) SFC G) UNL</description>
      <styleUrl>#polyStyle</styleUrl>
      <Polygon>
        <outerBoundaryIs>
          <LinearRing>
            <coordinates>118.766667,19.7,0 120.133333,19.616667,0 120.083333,18.983333,0 118.666667,19.066667,0 118.766667,19.7,0</coordinates>
          </LinearRing>
        </outerBoundaryIs>
      </Polygon>
    </Placemark>
    <Placemark>
      <name>B3621/26</name>
      <description>B3621/26 NOTAMN  Q) RPHI/QWMLW/IV/BO /W /000/999/1900N12359E036  A) RPHI B) 2608091100 C) 2608131400  D) 1100-1400  E) SPECIAL OPS (AEROSPACE FLT ACT) WILL BE CONDUCTED BY CHINA.  EST FALL AREA OF UNBURNED DEBRIS WI:  191900N 1232800E -  191400N 1243300E -  184100N 1243000E -  184700N 1232500E -  191900N 1232800E   (101NM NORTHEAST OF LALLO AP).  F) SFC G) UNL</description>
      <styleUrl>#polyStyle</styleUrl>
      <Polygon>
        <outerBoundaryIs>
          <LinearRing>
            <coordinates>123.466667,19.316667,0 124.55,19.233333,0 124.5,18.683333,0 123.416667,18.783333,0 123.466667,19.316667,0</coordinates>
          </LinearRing>
        </outerBoundaryIs>
      </Polygon>
    </Placemark>
    <Placemark>
      <name>B3622/26</name>
      <description>B3622/26 NOTAMN  Q) RPHI/QWMLW/IV/BO /W /000/999/0907N11916E022  A) RPHI B) 2608170200 C) 2608200600  D) 0200-0600  E) SPECIAL OPS (AEROSPACE FLT ACT) WILL BE CONDUCTED BY CHINA.  EST FALL AREA OF UNBURNED DEBRIS WI:  091600N 1185700E -  092800N 1191300E -  085700N 1193500E -  084600N 1192000E -  091600N 1185700E   (28NM SOUTHEAST OF PUERTO PRINCESA AP).  F) SFC G) UNL</description>
      <styleUrl>#polyStyle</styleUrl>
      <Polygon>
        <outerBoundaryIs>
          <LinearRing>
            <coordinates>118.95,9.266667,0 119.216667,9.466667,0 119.583333,8.95,0 119.333333,8.766667,0 118.95,9.266667,0</coordinates>
          </LinearRing>
        </outerBoundaryIs>
      </Polygon>
    </Placemark>
    <Placemark>
      <name>B3623/26</name>
      <description>B3623/26 NOTAMN  Q) RPHI/QWMLW/IV/BO /W /000/999/1908N11910E037  A) RPHI B) 2608240000 C) 2608310400  D) 0000-0400  E) SPECIAL OPS (AEROSPACE FLT ACT) WILL BE CONDUCTED BY CHINA.  EST FALL AREA OF UNBURNED DEBRIS WI:  192900N 1184000E -  192400N 1194400E -  184700N 1193900E -  185200N 1183700E -  192900N 1184000E  (61NM NORTHWEST OF LAOAG AP).  F) SFC G) UNL</description>
      <styleUrl>#polyStyle</styleUrl>
      <Polygon>
        <outerBoundaryIs>
          <LinearRing>
            <coordinates>118.666667,19.483333,0 119.733333,19.4,0 119.65,18.783333,0 118.616667,18.866667,0 118.666667,19.483333,0</coordinates>
          </LinearRing>
        </outerBoundaryIs>
      </Polygon>
    </Placemark>
    <Placemark>
      <name>B3624/26</name>
      <description>B3624/26 NOTAMN  Q) RPHI/QWMLW/IV/BO /W /000/999/1826N12551E038  A) RPHI B) 2608240000 C) 2608310400  D) 0000-0400  E) SPECIAL OPS (AEROSPACE FLT ACT) WILL BE CONDUCTED BY CHINA.  EST FALL AREA OF UNBURNED DEBRIS WI:  185100N 1252200E -  184300N 1262400E -  180000N 1261900E -  180800N 1251700E -  185100N 1252200E  (178NM NORTHEAST OF PALANAN AP).  F) SFC G) UNL</description>
      <styleUrl>#polyStyle</styleUrl>
      <Polygon>
        <outerBoundaryIs>
          <LinearRing>
            <coordinates>125.366667,18.85,0 126.4,18.716667,0 126.316667,18.0,0 125.283333,18.133333,0 125.366667,18.85,0</coordinates>
          </LinearRing>
        </outerBoundaryIs>
      </Polygon>
    </Placemark>
    <Placemark>
      <name>B3645/26</name>
      <description>B3645/26 NOTAMN  Q) RPHI/QWMLW/IV/BO /W /000/999/1257N11602E039  A) RPHI B) 2608040844 C) 2608040909  E) SPECIAL OPS (AEROSPACE FLT ACT) WILL BE CONDUCTED BY CHINA.  EST FALL AREA OF UNBURNED DEBRIS WI:  131400N 1152900E -  133300N 1155600E -  124000N 1163500E -  122000N 1160800E -  131400N 1152900E  (211NM NORTHWEST OF BUSUANGA AP).  F) SFC G) UNL</description>
      <styleUrl>#polyStyle</styleUrl>
      <Polygon>
        <outerBoundaryIs>
          <LinearRing>
            <coordinates>115.483333,13.233333,0 115.933333,13.55,0 116.583333,12.666667,0 116.133333,12.333333,0 115.483333,13.233333,0</coordinates>
          </LinearRing>
        </outerBoundaryIs>
      </Polygon>
    </Placemark>
    <Placemark>
      <name>B3647/26</name>
      <description>B3647/26 NOTAMN  Q) RPHI/QWMLW/IV/BO /W /000/999/0816N11923E043  A) RPHI B) 2608040845 C) 2608040920  E) SPECIAL OPS (AEROSPACE FLT ACT) WILL BE CONDUCTED BY CHINA.  EST FALL AREA OF UNBURNED DEBRIS WI:  083700N 1184700E -   085600N 1191500E -  085200N 1192500E -  075900N 1200200E -  073400N 1192600E -  082700N 1184900E -  083700N 1184700E  (60NM SOUTH OF PUERTO PRINCESA AP).  F) SFC G) UNL</description>
      <styleUrl>#polyStyle</styleUrl>
      <Polygon>
        <outerBoundaryIs>
          <LinearRing>
            <coordinates>118.783333,8.616667,0 119.25,8.933333,0 119.416667,8.866667,0 120.033333,7.983333,0 119.433333,7.566667,0 118.816667,8.45,0 118.783333,8.616667,0</coordinates>
          </LinearRing>
        </outerBoundaryIs>
      </Polygon>
    </Placemark>
    <Placemark>
      <name>FDC 6/9344</name>
      <description>FDC 6/9344 AIRSPACE SPACE OPERATIONS TFR. Cape Canaveral, FL, Saturday, August 1, 2026 Local. NOTAM Number : FDC 6/9344 Download shapefiles Issue Date : July 27, 2026 at 2110 UTC Location : Cape Canaveral, Florida Beginning Date and Time : August 01, 2026 at 0621 UTC Ending Date and Time : August 01, 2026 at 0736 UTC Reason for NOTAM : Space Operations Area Type : Space Operations Replaced NOTAM(s) : N/A Pilots May Contact : Miami (ZMA) ARTCC, 305-716-1588 Jump To: Affected Areas Operating Restr</description>
      <styleUrl>#polyStyle</styleUrl>
      <Polygon>
        <outerBoundaryIs>
          <LinearRing>
            <coordinates>-80.705278,28.854444,0 -80.5,29.125,0 -80.455,29.099167,0 -80.408056,29.085,0 -80.362222,29.0675,0 -80.318611,29.046667,0 -80.277222,29.022222,0 -80.238611,28.995,0 -80.2025,28.964722,0 -80.169722,28.931667,0 -80.140556,28.896389,0 -80.114722,28.859167,0 -80.092778,28.82,0 -80.074722,28.779167,0 -80.061111,28.737222,0 -80.051389,28.694167,0 -80.046111,28.650833,0 -80.045,28.606944,0 -80.048333,28.563333,0 -80.056111,28.52,0 -80.067778,28.477778,0 -80.083889,28.436389,0 -80.103889,28.396389,0 -80.1275,28.358056,0 -80.155,28.321667,0 -80.186111,28.2875,0 -80.220278,28.255833,0 -80.257222,28.226944,0 -80.266667,28.225,0 -80.508056,28.416944,0 -80.633056,28.416944,0 -80.695556,28.416944,0 -80.730278,28.5225,0 -80.783611,28.633611,0 -80.845556,28.819444,0 -80.787222,28.854444,0 -80.705278,28.854444,0</coordinates>
          </LinearRing>
        </outerBoundaryIs>
      </Polygon>
    </Placemark>
    <Placemark>
      <name>FDC 6/9341</name>
      <description>FDC 6/9341 AIRSPACE SPACE OPERATIONS TFR. Cape Canaveral, FL, Friday, July 31, 2026 Local. NOTAM Number : FDC 6/9341 Download shapefiles Issue Date : July 27, 2026 at 2107 UTC Location : Cape Canaveral, Florida Beginning Date and Time : July 31, 2026 at 0627 UTC Ending Date and Time : July 31, 2026 at 0756 UTC Reason for NOTAM : Space Operations Area Type : Space Operations Replaced NOTAM(s) : N/A Pilots May Contact : Miami (ZMA) ARTCC, 305-716-1588 Jump To: Affected Areas Operating Restrictions</description>
      <styleUrl>#polyStyle</styleUrl>
      <Polygon>
        <outerBoundaryIs>
          <LinearRing>
            <coordinates>-80.705278,28.854444,0 -80.5,29.125,0 -80.455,29.099167,0 -80.408056,29.085,0 -80.362222,29.0675,0 -80.318611,29.046667,0 -80.277222,29.022222,0 -80.238611,28.995,0 -80.2025,28.964722,0 -80.169722,28.931667,0 -80.140556,28.896389,0 -80.114722,28.859167,0 -80.092778,28.82,0 -80.074722,28.779167,0 -80.061111,28.737222,0 -80.051389,28.694167,0 -80.046111,28.650833,0 -80.045,28.606944,0 -80.048333,28.563333,0 -80.056111,28.52,0 -80.067778,28.477778,0 -80.083889,28.436389,0 -80.103889,28.396389,0 -80.1275,28.358056,0 -80.155,28.321667,0 -80.186111,28.2875,0 -80.220278,28.255833,0 -80.257222,28.226944,0 -80.266667,28.225,0 -80.508056,28.416944,0 -80.633056,28.416944,0 -80.695556,28.416944,0 -80.730278,28.5225,0 -80.783611,28.633611,0 -80.845556,28.819444,0 -80.787222,28.854444,0 -80.705278,28.854444,0</coordinates>
          </LinearRing>
        </outerBoundaryIs>
      </Polygon>
    </Placemark>
    <Placemark>
      <name>FDC 6/9317</name>
      <description>FDC 6/9317 AIRSPACE SPACE OPERATIONS TFR. Cape Canaveral, FL, Saturday, August 1, 2026 Local. NOTAM Number : FDC 6/9317 Download shapefiles Issue Date : July 27, 2026 at 2103 UTC Location : Cape Canaveral, Florida Beginning Date and Time : August 01, 2026 at 0621 UTC Ending Date and Time : August 01, 2026 at 0736 UTC Reason for NOTAM : Space Operations Area Type : Space Operations Replaced NOTAM(s) : N/A Pilots May Contact : Miami (ZMA) ARTCC, 305-716-1588 Jump To: Affected Areas Operating Restr</description>
      <styleUrl>#polyStyle</styleUrl>
      <Polygon>
        <outerBoundaryIs>
          <LinearRing>
            <coordinates>-80.705278,28.854444,0 -80.5,29.125,0 -80.455,29.099167,0 -80.408056,29.085,0 -80.362222,29.0675,0 -80.318611,29.046667,0 -80.277222,29.022222,0 -80.238611,28.995,0 -80.2025,28.964722,0 -80.169722,28.931667,0 -80.140556,28.896389,0 -80.114722,28.859167,0 -80.092778,28.82,0 -80.074722,28.779167,0 -80.061111,28.737222,0 -80.051389,28.694167,0 -80.046111,28.650833,0 -80.045,28.606944,0 -80.048333,28.563333,0 -80.056111,28.52,0 -80.067778,28.477778,0 -80.083889,28.436389,0 -80.103889,28.396389,0 -80.1275,28.358056,0 -80.155,28.321667,0 -80.186111,28.2875,0 -80.220278,28.255833,0 -80.257222,28.226944,0 -80.266667,28.225,0 -80.508056,28.416944,0 -80.633056,28.416944,0 -80.695556,28.416944,0 -80.730278,28.5225,0 -80.783611,28.633611,0 -80.845556,28.819444,0 -80.787222,28.854444,0 -80.705278,28.854444,0</coordinates>
          </LinearRing>
        </outerBoundaryIs>
      </Polygon>
    </Placemark>
    <Placemark>
      <name>FDC 6/9316</name>
      <description>FDC 6/9316 AIRSPACE SPACE OPERATIONS TFR. Cape Canaveral, FL, Friday, July 31, 2026 Local. NOTAM Number : FDC 6/9316 Download shapefiles Issue Date : July 27, 2026 at 2102 UTC Location : Cape Canaveral, Florida Beginning Date and Time : July 31, 2026 at 0627 UTC Ending Date and Time : July 31, 2026 at 0756 UTC Reason for NOTAM : Space Operations Area Type : Space Operations Replaced NOTAM(s) : N/A Pilots May Contact : Miami (ZMA) ARTCC, 305-716-1588 Jump To: Affected Areas Operating Restrictions</description>
      <styleUrl>#polyStyle</styleUrl>
      <Polygon>
        <outerBoundaryIs>
          <LinearRing>
            <coordinates>-80.705278,28.854444,0 -80.5,29.125,0 -80.455,29.099167,0 -80.408056,29.085,0 -80.362222,29.0675,0 -80.318611,29.046667,0 -80.277222,29.022222,0 -80.238611,28.995,0 -80.2025,28.964722,0 -80.169722,28.931667,0 -80.140556,28.896389,0 -80.114722,28.859167,0 -80.092778,28.82,0 -80.074722,28.779167,0 -80.061111,28.737222,0 -80.051389,28.694167,0 -80.046111,28.650833,0 -80.045,28.606944,0 -80.048333,28.563333,0 -80.056111,28.52,0 -80.067778,28.477778,0 -80.083889,28.436389,0 -80.103889,28.396389,0 -80.1275,28.358056,0 -80.155,28.321667,0 -80.186111,28.2875,0 -80.220278,28.255833,0 -80.257222,28.226944,0 -80.266667,28.225,0 -80.508056,28.416944,0 -80.633056,28.416944,0 -80.695556,28.416944,0 -80.730278,28.5225,0 -80.783611,28.633611,0 -80.845556,28.819444,0 -80.787222,28.854444,0 -80.705278,28.854444,0</coordinates>
          </LinearRing>
        </outerBoundaryIs>
      </Polygon>
    </Placemark>
    <Placemark>
      <name>A2363/2026</name>
      <description>A2363/26 NOTAMN  Q)ZXXX/QRPCA/IV/NBO/W/000/999/3949N11930E009  A)ZBPE ZYSH B)2606301600 C)2608311559   E) A TEMPORARY PROHIBITED AREA ESTABLISHED BOUNDED BY:  N395600E1192100-N395600E1193300-N395100E1193900-N394300E1193900-N39  4300E1192100   BACK TO START.  VERTICAL LIMITS:GND-UNL.  ALL ACFT SHALL BE FORBIDDEN TO FLY INTO THE PROHIBITED AREA.  F)GND G)UNL</description>
      <styleUrl>#polyStyle</styleUrl>
      <Polygon>
        <outerBoundaryIs>
          <LinearRing>
            <coordinates>119.35,39.933333,0 119.55,39.933333,0 119.65,39.85,0 119.65,39.716667,0 119.35,39.933333,0</coordinates>
          </LinearRing>
        </outerBoundaryIs>
      </Polygon>
    </Placemark>
    <Placemark>
      <name>B3617/2026</name>
      <description>B3617/26 NOTAMN  Q) RPHI/QWMLW/IV/BO /W /000/999/2058N12318E025  A) RPHI B) 2608040000 C) 2608100600  D) 0000-0600  E) SPECIAL OPS (AEROSPACE FLT ACT) WILL BE CONDUCTED BY CHINA.  EST FALL AREA OF UNBURNED DEBRIS WI:  210648.34N 1225449.91E -  210648.34N 1234132.00E -  204700.00N 1234000.00E -  204900.00N 1225400.00E -  210648.34N 1225449.91E   (56NM NORTHEAST OF BASCO AP).  F) SFC G) UNL</description>
      <styleUrl>#polyStyle</styleUrl>
      <Polygon>
        <outerBoundaryIs>
          <LinearRing>
            <coordinates>122.928778,21.119,0 123.692222,21.119,0 123.666667,20.783333,0 122.9,20.816667,0 122.928778,21.119,0</coordinates>
          </LinearRing>
        </outerBoundaryIs>
      </Polygon>
    </Placemark>
    <Placemark>
      <name>B3668/2026</name>
      <description>B3668/26 NOTAMN  Q) RPHI/QANLC/I /NBO/E /140/999/1237N11621E153  A) RPHI B) 2608040814 C) 2608040919  E) RNAV RTE WI MANILA FIR CLSD:  M765 (PANDI - REKEL) VICE VERSA  DUE SPECIAL OPS (AEROSPACE FLT ACT)    ALT RTE:  PANDI DCT 1212N 11608E DCT REKEL VICE VERSA.</description>
      <styleUrl>#circleStyle</styleUrl>
      <Polygon>
        <outerBoundaryIs>
          <LinearRing>
            <coordinates>118.96309778206864,12.616667,0 118.92339895516021,13.059469853050672,0 118.80550870320192,13.488818365480455,0 118.61300906184421,13.891667,0 118.3517490352802,14.255775404700675,0 118.0296668772131,14.570080329953393,0 117.65654889103432,14.825031779650317,0 117.2437320779471,15.012883183004066,0 116.80375966792171,15.12792677018113,0 116.35,15.166667,0 115.89624033207828,15.12792677018113,0 115.45626792205289,15.012883183004066,0 115.04345110896567,14.825031779650319,0 114.67033312278689,14.570080329953393,0 114.34825096471978,14.255775404700675,0 114.08699093815578,13.891667,0 113.89449129679807,13.488818365480455,0 113.77660104483978,13.059469853050672,0 113.73690221793134,12.616667,0 113.77660104483978,12.173864146949327,0 113.89449129679807,11.744515634519544,0 114.08699093815578,11.341667,0 114.34825096471978,10.977558595299325,0 114.67033312278689,10.663253670046606,0 115.04345110896567,10.408302220349682,0 115.45626792205289,10.220450816995934,0 115.89624033207828,10.10540722981887,0 116.35,10.066666999999999,0 116.80375966792171,10.10540722981887,0 117.2437320779471,10.220450816995934,0 117.65654889103432,10.408302220349682,0 118.0296668772131,10.663253670046606,0 118.3517490352802,10.977558595299325,0 118.61300906184421,11.341667,0 118.80550870320192,11.744515634519544,0 118.92339895516021,12.173864146949327,0 118.96309778206864,12.616667,0</coordinates>
          </LinearRing>
        </outerBoundaryIs>
      </Polygon>
    </Placemark>
    <Placemark>
      <name>B3645/2026</name>
      <description>B3645/26 NOTAMN  Q) RPHI/QWMLW/IV/BO /W /000/999/1257N11602E039  A) RPHI B) 2608040844 C) 2608040909  E) SPECIAL OPS (AEROSPACE FLT ACT) WILL BE CONDUCTED BY CHINA.  EST FALL AREA OF UNBURNED DEBRIS WI:  131400N 1152900E -  133300N 1155600E -  124000N 1163500E -  122000N 1160800E -  131400N 1152900E  (211NM NORTHWEST OF BUSUANGA AP).  F) SFC G) UNL</description>
      <styleUrl>#polyStyle</styleUrl>
      <Polygon>
        <outerBoundaryIs>
          <LinearRing>
            <coordinates>115.483333,13.233333,0 115.933333,13.55,0 116.583333,12.666667,0 116.133333,12.333333,0 115.483333,13.233333,0</coordinates>
          </LinearRing>
        </outerBoundaryIs>
      </Polygon>
    </Placemark>
    <Placemark>
      <name>B3647/2026</name>
      <description>B3647/26 NOTAMN  Q) RPHI/QWMLW/IV/BO /W /000/999/0816N11923E043  A) RPHI B) 2608040845 C) 2608040920  E) SPECIAL OPS (AEROSPACE FLT ACT) WILL BE CONDUCTED BY CHINA.  EST FALL AREA OF UNBURNED DEBRIS WI:  083700N 1184700E -   085600N 1191500E -  085200N 1192500E -  075900N 1200200E -  073400N 1192600E -  082700N 1184900E -  083700N 1184700E  (60NM SOUTH OF PUERTO PRINCESA AP).  F) SFC G) UNL</description>
      <styleUrl>#polyStyle</styleUrl>
      <Polygon>
        <outerBoundaryIs>
          <LinearRing>
            <coordinates>118.783333,8.616667,0 119.25,8.933333,0 119.416667,8.866667,0 120.033333,7.983333,0 119.433333,7.566667,0 118.816667,8.45,0 118.783333,8.616667,0</coordinates>
          </LinearRing>
        </outerBoundaryIs>
      </Polygon>
    </Placemark>
    <Placemark>
      <name>B3620/2026</name>
      <description>B3620/26 NOTAMN  Q) RPHI/QWMLW/IV/BO /W /000/999/1921N11924E046  A) RPHI B) 2608091100 C) 2608131400  D) 1100-1400  E) SPECIAL OPS (AEROSPACE FLT ACT) WILL BE CONDUCTED BY CHINA.  EST FALL AREA OF UNBURNED DEBRIS WI:  194200N 1184600E -  193700N 1200800E -  185900N 1200500E -  190400N 1184000E -  194200N 1184600E  (55NM NORTHWEST OF LAOAG AP).  F) SFC G) UNL</description>
      <styleUrl>#polyStyle</styleUrl>
      <Polygon>
        <outerBoundaryIs>
          <LinearRing>
            <coordinates>118.766667,19.7,0 120.133333,19.616667,0 120.083333,18.983333,0 118.666667,19.066667,0 118.766667,19.7,0</coordinates>
          </LinearRing>
        </outerBoundaryIs>
      </Polygon>
    </Placemark>
    <Placemark>
      <name>B3621/2026</name>
      <description>B3621/26 NOTAMN  Q) RPHI/QWMLW/IV/BO /W /000/999/1900N12359E036  A) RPHI B) 2608091100 C) 2608131400  D) 1100-1400  E) SPECIAL OPS (AEROSPACE FLT ACT) WILL BE CONDUCTED BY CHINA.  EST FALL AREA OF UNBURNED DEBRIS WI:  191900N 1232800E -  191400N 1243300E -  184100N 1243000E -  184700N 1232500E -  191900N 1232800E   (101NM NORTHEAST OF LALLO AP).  F) SFC G) UNL</description>
      <styleUrl>#polyStyle</styleUrl>
      <Polygon>
        <outerBoundaryIs>
          <LinearRing>
            <coordinates>123.466667,19.316667,0 124.55,19.233333,0 124.5,18.683333,0 123.416667,18.783333,0 123.466667,19.316667,0</coordinates>
          </LinearRing>
        </outerBoundaryIs>
      </Polygon>
    </Placemark>
    <Placemark>
      <name>B3622/2026</name>
      <description>B3622/26 NOTAMN  Q) RPHI/QWMLW/IV/BO /W /000/999/0907N11916E022  A) RPHI B) 2608170200 C) 2608200600  D) 0200-0600  E) SPECIAL OPS (AEROSPACE FLT ACT) WILL BE CONDUCTED BY CHINA.  EST FALL AREA OF UNBURNED DEBRIS WI:  091600N 1185700E -  092800N 1191300E -  085700N 1193500E -  084600N 1192000E -  091600N 1185700E   (28NM SOUTHEAST OF PUERTO PRINCESA AP).  F) SFC G) UNL</description>
      <styleUrl>#polyStyle</styleUrl>
      <Polygon>
        <outerBoundaryIs>
          <LinearRing>
            <coordinates>118.95,9.266667,0 119.216667,9.466667,0 119.583333,8.95,0 119.333333,8.766667,0 118.95,9.266667,0</coordinates>
          </LinearRing>
        </outerBoundaryIs>
      </Polygon>
    </Placemark>
    <Placemark>
      <name>B3623/2026</name>
      <description>B3623/26 NOTAMN  Q) RPHI/QWMLW/IV/BO /W /000/999/1908N11910E037  A) RPHI B) 2608240000 C) 2608310400  D) 0000-0400  E) SPECIAL OPS (AEROSPACE FLT ACT) WILL BE CONDUCTED BY CHINA.  EST FALL AREA OF UNBURNED DEBRIS WI:  192900N 1184000E -  192400N 1194400E -  184700N 1193900E -  185200N 1183700E -  192900N 1184000E  (61NM NORTHWEST OF LAOAG AP).  F) SFC G) UNL</description>
      <styleUrl>#polyStyle</styleUrl>
      <Polygon>
        <outerBoundaryIs>
          <LinearRing>
            <coordinates>118.666667,19.483333,0 119.733333,19.4,0 119.65,18.783333,0 118.616667,18.866667,0 118.666667,19.483333,0</coordinates>
          </LinearRing>
        </outerBoundaryIs>
      </Polygon>
    </Placemark>
    <Placemark>
      <name>B3624/2026</name>
      <description>B3624/26 NOTAMN  Q) RPHI/QWMLW/IV/BO /W /000/999/1826N12551E038  A) RPHI B) 2608240000 C) 2608310400  D) 0000-0400  E) SPECIAL OPS (AEROSPACE FLT ACT) WILL BE CONDUCTED BY CHINA.  EST FALL AREA OF UNBURNED DEBRIS WI:  185100N 1252200E -  184300N 1262400E -  180000N 1261900E -  180800N 1251700E -  185100N 1252200E  (178NM NORTHEAST OF PALANAN AP).  F) SFC G) UNL</description>
      <styleUrl>#polyStyle</styleUrl>
      <Polygon>
        <outerBoundaryIs>
          <LinearRing>
            <coordinates>125.366667,18.85,0 126.4,18.716667,0 126.316667,18.0,0 125.283333,18.133333,0 125.366667,18.85,0</coordinates>
          </LinearRing>
        </outerBoundaryIs>
      </Polygon>
    </Placemark>
    <Placemark>
      <name>J19/2026</name>
      <description>J0019/26 NOTAMN  Q) EISN/QRTCA/IV/BO /W /000/031/5408N00947W001  A) EISN B) 2605210919 C) 2608200000EST  E) FLIGHT RESTRICTION IN THE VICINITY OF BANGOR ERRIS, COUNTY MAYO  A TEMPORARY RESTRICTION ON THE FLYING OF AIRCRAFT, INCLUDING  UNMANNED AIRCRAFT SYSTEMS (UAS) AS DEFINED IN S.I. NO. 24 OF 2023  AND COMMISSION IMPLEMENTING REGULATION (EU) 2019/947, AND ROCKETS AS   DEFINED IN S.I. NO. 25 OF 2023, SHALL APPLY IN THE TEMPORARY   RESTRICTED AREA (TRA) CONTAINED WITHIN THE VOLUME OF AIRSPACE   </description>
      <styleUrl>#circleStyle</styleUrl>
      <Polygon>
        <outerBoundaryIs>
          <LinearRing>
            <coordinates>-9.754886783503217,54.133333,0 -9.755318945450105,54.13622713629445,0 -9.756602300268694,54.1390333357221,0 -9.758697853872235,54.14166633333333,0 -9.76154193392488,54.14404612682811,0 -9.765048124493408,54.14610040738532,0 -9.76910989175161,54.147766756729744,0 -9.773603820956698,54.14899454367976,0 -9.778393366343815,54.149746462550205,0 -9.783333,54.149999666666666,0 -9.788272633656186,54.149746462550205,0 -9.793062179043304,54.14899454367976,0 -9.797556108248392,54.147766756729744,0 -9.801617875506594,54.14610040738532,0 -9.805124066075122,54.14404612682811,0 -9.807968146127767,54.14166633333333,0 -9.810063699731307,54.1390333357221,0 -9.811347054549897,54.13622713629445,0 -9.811779216496785,54.133333,0 -9.811347054549897,54.13043886370555,0 -9.810063699731307,54.127632664277904,0 -9.807968146127767,54.12499966666667,0 -9.805124066075122,54.12261987317189,0 -9.801617875506594,54.12056559261468,0 -9.797556108248392,54.118899243270256,0 -9.793062179043304,54.11767145632024,0 -9.788272633656186,54.116919537449796,0 -9.783333,54.116666333333335,0 -9.778393366343815,54.116919537449796,0 -9.773603820956698,54.11767145632024,0 -9.76910989175161,54.118899243270256,0 -9.765048124493408,54.12056559261468,0 -9.76154193392488,54.12261987317189,0 -9.758697853872235,54.12499966666667,0 -9.756602300268694,54.127632664277904,0 -9.755318945450105,54.13043886370555,0 -9.754886783503217,54.133333,0</coordinates>
          </LinearRing>
        </outerBoundaryIs>
      </Polygon>
    </Placemark>
    <Placemark>
      <name>J25/2026</name>
      <description>J0025/26 NOTAMN  Q) EISN/QRTCA/IV/BO /W /000/005/5246N00931W002  A) EISN B) 2606080900 C) 2609071800  D) MON-FRI 0900-1800 EXC AUG 03  E) TEMPORARY RESTRICTED AREA (TRA) IN THE VICINITY OF MULLAGH, CO   CLARE.A TEMPORARY RESTRICTION ON THE FLYING OF AIRCRAFT, AND ROCKETS   AS   DEFINED IN S.I. NO. 25 OF 2023, SHALL APPLY IN THE TEMPORARY   RESTRICTED AREAS (TRA&amp;apos;S) CONTAINED WITHIN THE VOLUME OF AIRSPACE   DEFINED BELOW:    TRA A LATERAL LIMIT:  524452.36N 0093036.12W  524523.14N 0093418.47W</description>
      <styleUrl>#polyStyle</styleUrl>
      <Polygon>
        <outerBoundaryIs>
          <LinearRing>
            <coordinates>-9.512,52.753778,0 -9.5795,52.758722,0 -9.5135,52.783611,0 -9.555611,52.814167,0 -9.545056,52.806389,0 -9.500778,52.808056,0 -9.478333,52.789556,0 -9.504167,52.777611,0 -9.502611,52.760611,0 -9.512,52.753778,0</coordinates>
          </LinearRing>
        </outerBoundaryIs>
      </Polygon>
    </Placemark>
    <Placemark>
      <name>J26/2026</name>
      <description>J0026/26 NOTAMN  Q) EISN/QRTCA/IV/BO /W /000/025/5250N00943W008  A) EISN B) 2606080900 C) 2609071800  D) MON-FRI 0900-1800 EXC AUG 03  E) TEMPORARY RESTRICTED AREA (TRA) IN THE VICINITY OF MULLAGH, CO   CLARE.  A TEMPORARY RESTRICTION ON THE FLYING OF AIRCRAFT, AND ROCKETS AS   DEFINED IN S.I. NO. 25 OF 2023, SHALL APPLY IN THE TEMPORARY   RESTRICTED AREAS (TRA&amp;apos;S) CONTAINED WITHIN THE VOLUME OF AIRSPACE   DEFINED BELOW:    TRA B LATERAL LIMIT:  524523.14N 0093418.47W  524839.19N 0095438.25W</description>
      <styleUrl>#polyStyle</styleUrl>
      <Polygon>
        <outerBoundaryIs>
          <LinearRing>
            <coordinates>-9.5135,52.783611,0 -9.776667,52.967111,0 -9.555611,52.814167,0 -9.5135,52.783611,0</coordinates>
          </LinearRing>
        </outerBoundaryIs>
      </Polygon>
    </Placemark>
    <Placemark>
      <name>J59/2026</name>
      <description>J0059/26 NOTAMN  Q) EISN/QRTCA/IV/BO /W /000/020/5332N00607W004  A) EISN B) 2608021000 C) 2608021700  E) TEMPORARY FLIGHT RESTRICTION IN THE VICINITY OF RUSH, COUNTY   DUBLIN   SUNDAY 02ND AUGUST 2026  A TEMPORARY RESTRICTION ON THE FLYING OF AIRCRAFT, ROCKETS AS   DEFINED IN S.I. NO. 25 OF 2023, SHALL APPLY IN THE TEMPORARY   RESTRICTED AREA (TRA) OF AIRSPACE CONTAINED WITHIN THE FOLLOWING   VOLUME OF AIRSPACE:  LATERAL LIMITS: POINT 533400.00N, 0060520.00W TO ARC OF 2.08 NM   RADIUS CENTRED ON</description>
      <styleUrl>#circleStyle</styleUrl>
      <Polygon>
        <outerBoundaryIs>
          <LinearRing>
            <coordinates>-6.004500594788429,53.533333,0 -6.006204654520136,53.544909545177795,0 -6.011265056722605,53.55613434288838,0 -6.0195280436356,53.56666633333333,0 -6.030742548583045,53.57618550731244,0 -6.044567824506923,53.584402629541266,0 -6.060583797394215,53.59106802691896,0 -6.078303830013214,53.59597917471906,0 -6.09718950813956,53.59898685020081,0 -6.116667,53.59999966666667,0 -6.136144491860439,53.59898685020081,0 -6.1550301699867855,53.59597917471906,0 -6.172750202605784,53.59106802691896,0 -6.188766175493076,53.584402629541266,0 -6.2025914514169544,53.57618550731244,0 -6.213805956364399,53.56666633333333,0 -6.222068943277394,53.55613434288838,0 -6.227129345479863,53.544909545177795,0 -6.22883340521157,53.533333,0 -6.227129345479863,53.5217564548222,0 -6.222068943277394,53.51053165711162,0 -6.213805956364399,53.49999966666667,0 -6.2025914514169544,53.49048049268756,0 -6.188766175493076,53.48226337045873,0 -6.172750202605785,53.47559797308104,0 -6.1550301699867855,53.470686825280936,0 -6.136144491860439,53.46767914979919,0 -6.116667,53.46666633333333,0 -6.09718950813956,53.46767914979919,0 -6.078303830013214,53.470686825280936,0 -6.060583797394215,53.47559797308104,0 -6.044567824506923,53.48226337045873,0 -6.030742548583045,53.49048049268756,0 -6.0195280436356,53.49999966666667,0 -6.011265056722605,53.51053165711162,0 -6.006204654520136,53.5217564548222,0 -6.004500594788429,53.533333,0</coordinates>
          </LinearRing>
        </outerBoundaryIs>
      </Polygon>
    </Placemark>
    <Placemark>
      <name>A5518/2026</name>
      <description>A5518/26 NOTAMN  Q) ENXX/QRDXX/IV/BO /W /000/999/6245N00008E127  A) ENOR ENOB B) 2607020709 C) 2607312359  E) AIP AIRAC SUP 33/2026 CNL - &amp;apos;A TEMPORARY FLIGHT PLAN BUFFER ZONE  (FBZ) ESTABLISHED IN CONNECTION WITH ROCKET LAUNCH FROM SAXAVORD,   SHETLAND&amp;apos;. ACTIVITY POSTPONED. NEW AIP SUP WILL BE ISSUD AT A LATER   TIME  F) GND G) UNL</description>
      <styleUrl>#circleStyle</styleUrl>
      <Polygon>
        <outerBoundaryIs>
          <LinearRing>
            <coordinates>4.756148576043456,62.75,0 4.685917620033192,63.117555309395,0 4.477358684062194,63.473942636706,0 4.136808725864027,63.80833333333333,0 3.6746151835919467,64.11056710716984,0 3.1048215741466754,64.37146073793517,0 2.4447407880217282,64.58308710467706,0 1.7144290458865168,64.73901604733017,0 0.9360765004702473,64.83450974387584,0 0.13333300000000028,64.86666666666666,0 -0.6694105004702466,64.83450974387584,0 -1.4477630458865165,64.73901604733017,0 -2.178074788021727,64.58308710467706,0 -2.8381555741466755,64.37146073793517,0 -3.4079491835919464,64.11056710716984,0 -3.8701427258640266,63.80833333333333,0 -4.2106926840621925,63.473942636706,0 -4.419251620033191,63.117555309395,0 -4.489482576043455,62.75,0 -4.419251620033191,62.382444690605,0 -4.210692684062193,62.026057363294,0 -3.8701427258640257,61.69166666666666,0 -3.407949183591947,61.38943289283016,0 -2.838155574146676,61.12853926206483,0 -2.1780747880217297,60.91691289532294,0 -1.4477630458865158,60.760983952669825,0 -0.6694105004702469,60.66549025612416,0 0.13333299999999915,60.63333333333333,0 0.9360765004702452,60.66549025612416,0 1.7144290458865177,60.760983952669825,0 2.4447407880217282,60.91691289532294,0 3.104821574146675,61.12853926206483,0 3.6746151835919454,61.38943289283016,0 4.136808725864025,61.69166666666666,0 4.477358684062194,62.026057363294,0 4.685917620033192,62.382444690605,0 4.756148576043456,62.75,0</coordinates>
          </LinearRing>
        </outerBoundaryIs>
      </Polygon>
    </Placemark>
    <Placemark>
      <name>A5799/2026</name>
      <description>A5799/26 NOTAMN  Q) ENXX/QRDTT/IV/BO /W /000/999/7357N00947E324  A) ENOR ENOB B) 2608060000 C) 2608192359  E) TRIGGER NOTAM - AIP AIRAC SUP 40/2026 WEF 06 AUG TIL 25 NOV 2026.  TEMPO DANGER AREAS ESTABLISHED IN CONNECTION WITH ROCKET LAUNCH FROM  ANDOYA SPACE. FOR DETAILS SEE SUP AVBL AT  WWW.AVINOR.NO/AIS  F) GND G) UNL</description>
      <styleUrl>#circleStyle</styleUrl>
      <Polygon>
        <outerBoundaryIs>
          <LinearRing>
            <coordinates>29.314857815082974,73.95,0 29.018130066044044,74.88770015940143,0 28.136962741430324,75.79690877395862,0 26.698129664508016,76.65,0 24.745349050234736,77.42105309230732,0 22.337955149420512,78.08663999284248,0 19.549095407541486,78.62653718043597,0 16.463507916623538,79.02434015224391,0 13.17494669119559,79.26796186626592,0 9.783333000000002,79.35000000000001,0 6.391719308804415,79.26796186626592,0 3.103158083376467,79.02434015224391,0 0.017570592458518774,78.62653718043597,0 -2.771289149420511,78.08663999284248,0 -5.178683050234733,77.42105309230732,0 -7.131463664508013,76.65,0 -8.57029674143032,75.79690877395862,0 -9.451464066044041,74.88770015940143,0 -9.74819181508297,73.95,0 -9.451464066044041,73.01229984059857,0 -8.570296741430324,72.10309122604139,0 -7.131463664508013,71.25,0 -5.178683050234735,70.47894690769269,0 -2.7712891494205127,69.81336000715753,0 0.01757059245850634,69.27346281956403,0 3.1031580833764707,68.8756598477561,0 6.391719308804414,68.63203813373408,0 9.783332999999997,68.55,0 13.174946691195581,68.63203813373408,0 16.46350791662354,68.8756598477561,0 19.549095407541486,69.27346281956403,0 22.33795514942051,69.81336000715753,0 24.74534905023473,70.47894690769269,0 26.69812966450801,71.25,0 28.136962741430324,72.10309122604139,0 29.018130066044044,73.01229984059857,0 29.314857815082974,73.95,0</coordinates>
          </LinearRing>
        </outerBoundaryIs>
      </Polygon>
    </Placemark>
    <Placemark>
      <name>A5803/2026</name>
      <description>A5803/26 NOTAMN  Q) ENXX/QRDTT/IV/BO /W /000/999/6245N00008E127  A) ENOR ENOB B) 2608100000 C) 2609142359  E) TRIGGER NOTAM - AIP AIRAC SUP 41/2026 WEF 06 AUG 2026. TEMPO  FLIGHT PLAN BUFFER ZONE END491AZ &amp;apos;RFA FBZ&amp;apos; ESTABLISHED IN CONNECTION  WITH ROCKET LAUNCH FROM SHETLAND UK DURING PERIOD 10 AUG 2026 - 14  SEP 2026. FOR DETAILS SEE SUP AVBL AT WWW.AVINOR.NO/AIS  F) SFC G) UNL</description>
      <styleUrl>#circleStyle</styleUrl>
      <Polygon>
        <outerBoundaryIs>
          <LinearRing>
            <coordinates>4.756148576043456,62.75,0 4.685917620033192,63.117555309395,0 4.477358684062194,63.473942636706,0 4.136808725864027,63.80833333333333,0 3.6746151835919467,64.11056710716984,0 3.1048215741466754,64.37146073793517,0 2.4447407880217282,64.58308710467706,0 1.7144290458865168,64.73901604733017,0 0.9360765004702473,64.83450974387584,0 0.13333300000000028,64.86666666666666,0 -0.6694105004702466,64.83450974387584,0 -1.4477630458865165,64.73901604733017,0 -2.178074788021727,64.58308710467706,0 -2.8381555741466755,64.37146073793517,0 -3.4079491835919464,64.11056710716984,0 -3.8701427258640266,63.80833333333333,0 -4.2106926840621925,63.473942636706,0 -4.419251620033191,63.117555309395,0 -4.489482576043455,62.75,0 -4.419251620033191,62.382444690605,0 -4.210692684062193,62.026057363294,0 -3.8701427258640257,61.69166666666666,0 -3.407949183591947,61.38943289283016,0 -2.838155574146676,61.12853926206483,0 -2.1780747880217297,60.91691289532294,0 -1.4477630458865158,60.760983952669825,0 -0.6694105004702469,60.66549025612416,0 0.13333299999999915,60.63333333333333,0 0.9360765004702452,60.66549025612416,0 1.7144290458865177,60.760983952669825,0 2.4447407880217282,60.91691289532294,0 3.104821574146675,61.12853926206483,0 3.6746151835919454,61.38943289283016,0 4.136808725864025,61.69166666666666,0 4.477358684062194,62.026057363294,0 4.685917620033192,62.382444690605,0 4.756148576043456,62.75,0</coordinates>
          </LinearRing>
        </outerBoundaryIs>
      </Polygon>
    </Placemark>
    <Placemark>
      <name>W628/2026</name>
      <description>W0628/26 NOTAMN  Q) LFBB/QWGLW/IV/M  /W /000/034/4602N00147E005  A) LFBB B) 2604230453 C) 2610231653  D) SR-SS  E) PARAGLIDING WINCH LAUNCH ACTIVITY AT &amp;apos;JANAILLAT&amp;apos; :  - PSN : 460226N 0014647E  - RDL 222/10.6NM LFCE ARP  - SEQUENCE FLASHING LIGHTS ON WINCH  F) SFC G) 900FT AGL</description>
      <styleUrl>#circleStyle</styleUrl>
      <Polygon>
        <outerBoundaryIs>
          <LinearRing>
            <coordinates>1.9033683795232013,46.033333,0 1.9015447723902115,46.047803681472246,0 1.8961293603711882,46.061834678610474,0 1.8872866880199988,46.07499966666666,0 1.875285435461426,46.086898634140546,0 1.8604902546815352,46.09717003692658,0 1.8433506897616008,46.105501783648705,0 1.8243875177086764,46.111640718398824,0 1.8041769249097623,46.115400312751014,0 1.783333,46.116666333333335,0 1.7624890750902378,46.115400312751014,0 1.7422784822913238,46.111640718398824,0 1.7233153102383996,46.105501783648705,0 1.706175745318465,46.09717003692658,0 1.6913805645385742,46.086898634140546,0 1.6793793119800013,46.07499966666666,0 1.670536639628812,46.061834678610474,0 1.6651212276097886,46.047803681472246,0 1.6632976204767989,46.033333,0 1.6651212276097886,46.01886231852775,0 1.670536639628812,46.004831321389524,0 1.6793793119800013,45.991666333333335,0 1.6913805645385742,45.97976736585945,0 1.706175745318465,45.96949596307342,0 1.7233153102383993,45.96116421635129,0 1.7422784822913238,45.95502528160117,0 1.7624890750902378,45.951265687248984,0 1.783333,45.94999966666666,0 1.8041769249097623,45.951265687248984,0 1.8243875177086764,45.95502528160117,0 1.8433506897616008,45.96116421635129,0 1.8604902546815352,45.96949596307342,0 1.875285435461426,45.97976736585945,0 1.8872866880199988,45.991666333333335,0 1.8961293603711882,46.004831321389524,0 1.9015447723902115,46.01886231852775,0 1.9033683795232013,46.033333,0</coordinates>
          </LinearRing>
        </outerBoundaryIs>
      </Polygon>
    </Placemark>
    <Placemark>
      <name>R1871/2026</name>
      <description> R1871/26 NOTAMR R3154/25 Q) LFXX/QRTTT/IV/BO /W /000/999/4551N00432W190 A) LFRR LFBB  PART 1 OF 2  B) 2606181425  C) 2701212359  E) TRIGGER NOTAM - AIRAC AIP SUP 207/25 MODIFIED :  MISSILE FIRING IN THE ATLANTIC OCEAN REQUIRING THE CREATION OF 6   TEMPORARY RESTRICTED AREAS (&amp;apos;ZRT&amp;apos;), OF 16 TEMPORARY DANGEROUS AREAS   (&amp;apos;ZDT&amp;apos;) AND FLIGHT PLAN BUFFER ZONE (FBZ) ASSOCIATED.  THESE &amp;apos;ZRT/ZDT&amp;apos; ARE ACTIVATED BY NOTAM AT D-7.  ------------------------------------------------</description>
      <styleUrl>#polyStyle</styleUrl>
      <Polygon>
        <outerBoundaryIs>
          <LinearRing>
            <coordinates>-1.663611,45.905833,0 -1.661667,45.945278,0 -1.261667,45.876944,0 -1.214722,45.86,0 -1.18,45.824722,0 -1.062222,45.587778,0 -1.066111,45.524167,0 -1.172778,45.479167,0 -1.686389,45.48,0 -1.684167,45.520278,0 -1.933056,45.519444,0 -1.950833,45.521389,0 -1.966944,45.526667,0 -1.98,45.535278,0 -1.988611,45.546111,0 -1.9925,45.558333,0 -1.991111,45.570833,0 -1.965,45.646667,0 -2.1375,45.658333,0 -2.836667,45.691111,0 -2.855278,45.694167,0 -2.871389,45.700833,0 -2.883611,45.710833,0 -2.890833,45.723056,0 -2.8925,45.736111,0 -2.886389,45.787222,0 -2.8825,45.798889,0 -2.874167,45.809167,0 -2.681944,45.984444,0 -2.665,45.995,0 -2.643611,46.000278,0 -2.399722,46.026667,0 -2.376667,46.026111,0 -1.663611,45.905833,0</coordinates>
          </LinearRing>
        </outerBoundaryIs>
      </Polygon>
    </Placemark>
    <Placemark>
      <name>P2326/2026</name>
      <description>P2326/26 NOTAMN  Q)RJJJ/QRTCA/IV/BO/W/000/999/2530N12516E164  A)RJJJ B)2605171653 C)2608171500EST  E)ALL VFR ACFT ARE REQUESTED TO AVOID FLYING IN FOLLOWING AIRSPACE  DUE TO THE ANTIBALLISTIC MISSILES MAY BE LAUNCHED  FOR THE DESTRUCTION OF AN OBJECT PROPELLED BY ROCKET  LAUNCHED FROM NORTH KOREA  (1)AIRSPACE: BOUNDED BY FLW POINTS  264419N1275729E - 255619N1275729E - 255619N1272129E -   264419N1272129E - 264419N1275729E (NAHA-SHI)  (2)AIRSPACE: BOUNDED BY FLW POINTS  251802N1253730E - 243002N12</description>
      <styleUrl>#polyStyle</styleUrl>
      <MultiGeometry>
        <Polygon>
          <outerBoundaryIs>
            <LinearRing>
              <coordinates>127.958056,26.738611,0 127.958056,25.938611,0 127.358056,25.938611,0 127.358056,26.738611,0 127.958056,26.738611,0</coordinates>
            </LinearRing>
          </outerBoundaryIs>
        </Polygon>
        <Polygon>
          <outerBoundaryIs>
            <LinearRing>
              <coordinates>125.625,25.300556,0 125.625,24.500556,0 125.025,24.500556,0 125.025,25.300556,0 125.625,25.300556,0</coordinates>
            </LinearRing>
          </outerBoundaryIs>
        </Polygon>
        <Polygon>
          <outerBoundaryIs>
            <LinearRing>
              <coordinates>124.486667,24.934444,0 124.486667,24.134444,0 123.889167,24.134444,0 123.889167,24.934444,0 124.486667,24.934444,0</coordinates>
            </LinearRing>
          </outerBoundaryIs>
        </Polygon>
        <Polygon>
          <outerBoundaryIs>
            <LinearRing>
              <coordinates>123.254444,24.977222,0 123.254444,24.177222,0 122.654444,24.177222,0 122.654444,24.977222,0 123.254444,24.977222,0</coordinates>
            </LinearRing>
          </outerBoundaryIs>
        </Polygon>
      </MultiGeometry>
    </Placemark>
    <Placemark>
      <name>P2331/2026</name>
      <description>P2331/26 NOTAMN  Q)RJJJ/QWMLW/IV/BO/W/000/999/3310N14118E999  A)RJJJ B)2605180835 C)2608171500EST  E)ALL ACFT INTENDING TO FLY WI FUKUOKA FIR ARE ADVISED TO PAY  SPECIAL ATTENTION TO THE FOLLOWING INFORMATION.  IN ACCORDANCE WITH ARTICLE 82-3 OF JAPAN SELF DEFENSE FORCE LAW,  ANTIBALLISTIC MISSILES MAY BE LAUNCHED FOR THE DESTRUCTION OF THE  ROCKET EXPECTED TO BE LAUNCHED FROM NORTH KOREA.    THE ANTIBALLISTIC MISSILES ARE DEPLOYED AT POSITIONS BLW,  (1)NAHA-SHI     : 261219N1273929E  (2)MIYAKOJ</description>
      <styleUrl>#polyStyle</styleUrl>
      <Polygon>
        <outerBoundaryIs>
          <LinearRing>
            <coordinates>127.658056,26.205278,0 125.325,24.767222,0 124.189167,24.401111,0 122.954444,24.443889,0 127.658056,26.205278,0</coordinates>
          </LinearRing>
        </outerBoundaryIs>
      </Polygon>
    </Placemark>
    <Placemark>
      <name>D1768/2026</name>
      <description>D1768/26 NOTAMN    Q)RKRR/QRPCA/IV/NBO/W/000/999/3735N12659E003  A)RKRR B)2606261500 C)2609261459  E)TEMPO PROHIBITED AREA ACT AS FLW :  1. AREA : A CIRCLE RADIUS 2NM CENTERED ON 373523N1265832E  2. RMK  - EXC SKED CIV ACFT AND INFO ASSET FLT  - EMERG ACFT(FIRE FIGHTING, LIFEGUARD, ETC) OPERATION NEED     PRIOR PERMISSION FROM CAPITAL DEFENSE COMMAND (02-524-0315)  F)SFC G)UNL</description>
      <styleUrl>#circleStyle</styleUrl>
      <Polygon>
        <outerBoundaryIs>
          <LinearRing>
            <coordinates>127.04642710215657,37.583333,0 127.04546856097313,37.59201540888335,0 127.04262206221165,37.600434007166285,0 127.03797409529656,37.608333,0 127.03166588635062,37.61547238048433,0 127.02388910711055,37.62163522215595,0 127.0148800510783,37.62663427018923,0 127.0049124538626,37.6303176310393,0 126.99428917586103,37.632573387650616,0 126.983333,37.633333,0 126.97237682413898,37.632573387650616,0 126.9617535461374,37.6303176310393,0 126.95178594892171,37.62663427018923,0 126.94277689288946,37.62163522215595,0 126.93500011364938,37.61547238048433,0 126.92869190470344,37.608333,0 126.92404393778835,37.600434007166285,0 126.92119743902687,37.59201540888335,0 126.92023889784343,37.583333,0 126.92119743902687,37.57465059111666,0 126.92404393778835,37.56623199283372,0 126.92869190470344,37.558333000000005,0 126.93500011364938,37.55119361951568,0 126.94277689288946,37.545030777844055,0 126.95178594892171,37.54003172981078,0 126.9617535461374,37.53634836896071,0 126.97237682413898,37.53409261234939,0 126.983333,37.533333000000006,0 126.99428917586103,37.53409261234939,0 127.0049124538626,37.53634836896071,0 127.0148800510783,37.54003172981078,0 127.02388910711055,37.545030777844055,0 127.03166588635062,37.55119361951568,0 127.03797409529656,37.558333000000005,0 127.04262206221165,37.56623199283372,0 127.04546856097313,37.57465059111666,0 127.04642710215657,37.583333,0</coordinates>
          </LinearRing>
        </outerBoundaryIs>
      </Polygon>
    </Placemark>
    <Placemark>
      <name>A74/2026</name>
      <description>A0074/26 NOTAMR A0073/26  Q) FIMM/QRALW/IV/NBO/AE/000/999/2025S07540E999   A) FIMM B) 2607162334 C) 2607220259 EST   D) 16 2334-2359  17 0000-0259  17 2334-2359  18 0000-0259  18 2334-2359  19  0000-0259  19 2334-2359  20 0000-0259  20 2334-2359  21 0000-0259  21 2334-2359  22 0000-0259   E) STATIONARY ALTITUDE RESERVATION FOR HAZARDOUS OPERATIONS FROM SFC  TO UNL FOR ATMOSPHERIC RE-ENTRY AND SPLASHDOWN OF SPACEX STARSHIP  FLT-13 FROCKET WI AN AREA BOUNDED BY FLW COORD:   2616S 05700E   2549S 06</description>
      <styleUrl>#polyStyle</styleUrl>
      <Polygon>
        <outerBoundaryIs>
          <LinearRing>
            <coordinates>57.0,-26.266667,0 62.333333,-25.816667,0 66.1,-25.316667,0 72.7,-24.116667,0 75.0,-23.633333,0 75.0,-25.5,0 73.066667,-25.75,0 60.9,-26.85,0 58.733333,-26.85,0 57.0,-26.783333,0 57.0,-26.266667,0</coordinates>
          </LinearRing>
        </outerBoundaryIs>
      </Polygon>
    </Placemark>
  </Document>
</kml>