<?xml version='1.0' encoding='UTF-8'?>
<kml xmlns="http://www.opengis.net/kml/2.2">
  <Document>
    <name>Aerospace NOTAMs</name>
    <Style id="polyStyle">
      <LineStyle>
        <color>ff000000</color>
        <width>2</width>
      </LineStyle>
      <PolyStyle>
        <color>7700ff00</color>
      </PolyStyle>
    </Style>
    <Style id="circleStyle">
      <LineStyle>
        <color>ff000000</color>
        <width>2</width>
      </LineStyle>
      <PolyStyle>
        <color>770000ff</color>
      </PolyStyle>
    </Style>
    <Style id="lineStyle">
      <LineStyle>
        <color>ff000000</color>
        <width>2</width>
      </LineStyle>
      <PolyStyle>
        <color>77ff0000</color>
      </PolyStyle>
    </Style>
    <Placemark>
      <name>J5540/2025</name>
      <description>J5540/25 NOTAMN  Q) YBBB/QFAXX/IV/NBO/A/000/999/1431S13223E005  A) YPTN  B) 2512141600 C) PERM  E) LOCAL TRAFFIC REGULATIONS AMD  CHANGE THE FLW TO READ:  5. MULTI ENG PROPELLER ACFT ARE NOT TO CONDUCT FULL PWR ENG RUNS ON  PAVED HARDSTAND DUE TO CREATION OF FOREIGN OBJECT DEBRIS.  REMOVE THE FLW:  NOTE 2  NOTE 10  AMD EN ROUTE SUPPLEMENT AUSTRALIA (ERSA    CREATED: 02 DEC 2025 02:18  SOURCE: YBBBZEZX</description>
      <styleUrl>#circleStyle</styleUrl>
      <Polygon>
        <outerBoundaryIs>
          <LinearRing>
            <coordinates>132.4694148388005,-14.516666666666667,0 132.46810706730835,-14.502195985194422,0 132.46422348880697,-14.488164988056194,0 132.4578821038639,-14.475000000000001,0 132.44927559225178,-14.463101032526122,0 132.43866545847078,-14.452829629740085,0 132.42637408606691,-14.444497883017965,0 132.4127749421709,-14.438358948267842,0 132.39828122988854,-14.434599353915651,0 132.38333333333333,-14.433333333333334,0 132.3683854367781,-14.434599353915651,0 132.35389172449575,-14.438358948267842,0 132.34029258059974,-14.444497883017965,0 132.32800120819587,-14.452829629740085,0 132.31739107441487,-14.463101032526122,0 132.30878456280274,-14.475000000000001,0 132.3024431778597,-14.488164988056194,0 132.2985595993583,-14.502195985194422,0 132.29725182786615,-14.516666666666667,0 132.2985595993583,-14.531137348138913,0 132.3024431778597,-14.54516834527714,0 132.30878456280274,-14.558333333333334,0 132.31739107441487,-14.570232300807213,0 132.32800120819587,-14.58050370359325,0 132.34029258059974,-14.58883545031537,0 132.35389172449575,-14.594974385065493,0 132.3683854367781,-14.598733979417684,0 132.38333333333333,-14.600000000000001,0 132.39828122988854,-14.598733979417684,0 132.4127749421709,-14.594974385065493,0 132.42637408606691,-14.58883545031537,0 132.43866545847078,-14.58050370359325,0 132.44927559225178,-14.570232300807213,0 132.4578821038639,-14.558333333333334,0 132.46422348880697,-14.54516834527714,0 132.46810706730835,-14.531137348138913,0 132.4694148388005,-14.516666666666667,0</coordinates>
          </LinearRing>
        </outerBoundaryIs>
      </Polygon>
    </Placemark>
    <Placemark>
      <name>R3154/2025</name>
      <description>R3154/25 NOTAMN  Q) LFXX/QRTTT/IV/BO /W /000/999/4551N00432W190  A) LFRR LFBB B) 2601220000 C) 2701212359  E) TRIGGER NOTAM - AIRAC AIP SUP 207/25 MODIFIED :  MISSILE FIRING IN THE ATLANTIC OCEAN REQUIRING THE CREATION OF 6   TEMPORARY RESTRICTED AREAS (&amp;apos;ZRT&amp;apos;), OF 16 TEMPORARY DANGEROUS AREAS   (&amp;apos;ZDT&amp;apos;) AND FLIGHT PLAN BUFFER ZONE (FBZ) ASSOCIATED.  THESE &amp;apos;ZRT/ZDT&amp;apos; ARE ACTIVATED BY NOTAM AT D-7.  -----------------------------------------------------------------  PAGE</description>
      <styleUrl>#polyStyle</styleUrl>
      <Polygon>
        <outerBoundaryIs>
          <LinearRing>
            <coordinates>-1.663611,45.905833,0 -1.661667,45.945278,0 -1.261667,45.876944,0 -1.214722,45.86,0 -1.18,45.824722,0 -1.062222,45.587778,0 -1.066111,45.524167,0 -1.172778,45.479167,0 -1.686389,45.48,0 -1.684167,45.520278,0 -1.933056,45.519444,0 -1.950833,45.521389,0 -1.966944,45.526667,0 -1.98,45.535278,0 -1.988611,45.546111,0 -1.9925,45.558333,0 -1.991111,45.570833,0 -1.965,45.646667,0 -2.1375,45.658333,0 -2.836667,45.691111,0 -2.855278,45.694167,0 -2.871389,45.700833,0 -2.883611,45.710833,0 -2.890833,45.723056,0 -2.8925,45.736111,0 -2.886389,45.787222,0 -2.8825,45.798889,0 -2.874167,45.809167,0 -2.681944,45.984444,0 -2.665,45.995,0 -2.643611,46.000278,0 -2.399722,46.026667,0 -2.376667,46.026111,0 -1.663611,45.905833,0</coordinates>
          </LinearRing>
        </outerBoundaryIs>
      </Polygon>
    </Placemark>
    <Placemark>
      <name>A3278/26</name>
      <description>A3278/26 NOTAMN  Q) RCAA/QRALW/IV/NBO/W/000/999/2807N12337E026  A) RCAA  B) 2609152151 C) 2609152214  E) AIRSPACE BLOCKED DUE TO AEROSPACE FLIGHT ACTIVITY:  1.AFFECTED RTE:    B591 BTN KASKA AND DUBAN    B576 BTN SALMI AND DUBAN    Q11 BTN SALMI AND WP900    L2 BTN KASKA AND TOKAI    L3 BTN SALMI AND EMRET    L4 BTN LIPLO AND WP900  2.FOR DETAILS, CONTACT TAIPEI ACC AT +886 3 3841040  3.AREA AS FLW:    2829N12351E    2745N12349E    2745N12324E    2830N12325E    2829N12351E  F) SFC G) UNL    CREA</description>
      <styleUrl>#polyStyle</styleUrl>
      <Polygon>
        <outerBoundaryIs>
          <LinearRing>
            <coordinates>123.85,28.483333,0 123.816667,27.75,0 123.4,27.75,0 123.416667,28.5,0 123.85,28.483333,0</coordinates>
          </LinearRing>
        </outerBoundaryIs>
      </Polygon>
    </Placemark>
    <Placemark>
      <name>A4352/26</name>
      <description>A4352/26 NOTAMN  Q)ZSHA/QRDCA/IV/BO/W/000/999/3112N12342E011  A)ZSHA B)2609152150 C)2609152211   E) A TEMPORARY DANGER AREA ESTABLISHED,THE AREA WITHIN A CIRCLE   CENTERED AT N311200E1234200 WITH RADIUS OF 20KM.  VERTICAL LIMITS:SFC-UNL.  AIRCRAFT ARE FORBIDDEN TO FLY INTO THE AREA.  F)SFC G)UNL    CREATED: 09 SEP 2026 02:15  SOURCE: ZBBBYNYX</description>
      <styleUrl>#circleStyle</styleUrl>
      <Polygon>
        <outerBoundaryIs>
          <LinearRing>
            <coordinates>123.91433363757673,31.2,0 123.91107742801688,31.231835499238937,0 123.90140773761706,31.262703692943038,0 123.88561837502698,31.291666666666664,0 123.86418909203914,31.317844395109198,0 123.83777100657338,31.34044148123848,0 123.80716681878837,31.358771324027146,0 123.77330642144351,31.372276980477416,0 123.73721864557793,31.380548088052237,0 123.7,31.383333333333333,0 123.66278135442208,31.380548088052237,0 123.6266935785565,31.372276980477416,0 123.59283318121163,31.358771324027146,0 123.56222899342663,31.34044148123848,0 123.53581090796087,31.317844395109198,0 123.51438162497303,31.291666666666664,0 123.49859226238294,31.262703692943038,0 123.48892257198312,31.231835499238937,0 123.48566636242327,31.2,0 123.48892257198312,31.168164500761062,0 123.49859226238294,31.13729630705696,0 123.51438162497303,31.108333333333334,0 123.53581090796087,31.0821556048908,0 123.56222899342663,31.05955851876152,0 123.59283318121163,31.041228675972853,0 123.6266935785565,31.027723019522583,0 123.66278135442208,31.019451911947762,0 123.7,31.016666666666666,0 123.73721864557793,31.019451911947762,0 123.77330642144351,31.027723019522583,0 123.80716681878837,31.041228675972853,0 123.83777100657338,31.05955851876152,0 123.86418909203914,31.0821556048908,0 123.88561837502698,31.108333333333334,0 123.90140773761706,31.13729630705696,0 123.91107742801688,31.168164500761062,0 123.91433363757673,31.2,0</coordinates>
          </LinearRing>
        </outerBoundaryIs>
      </Polygon>
    </Placemark>
    <Placemark>
      <name>A4453/26</name>
      <description>A4453/26 NOTAMN  Q)ZLHW/QRDCA/IV/BO/W/000/999/3956N10129E014  A)ZLHW B)2609170231 C)2609170312   E) A TEMPORARY DANGER AREA ESTABLISHED BOUNDED BY:  N395800E1011200-N401000E1013100-N395500E1014700-N394300E1012800,BAC  K TO START.VERTICAL LIMITS:SFC-UNL.  AIRCRAFT ARE FORBIDDEN TO FLY INTO THE AREA.  F)SFC G)UNL    CREATED: 11 SEP 2026 04:26  SOURCE: ZBBBYNYX</description>
      <styleUrl>#polyStyle</styleUrl>
      <Polygon>
        <outerBoundaryIs>
          <LinearRing>
            <coordinates>101.2,39.966667,0 101.516667,40.166667,0 101.783333,39.916667,0 101.466667,39.716667,0 101.2,39.966667,0</coordinates>
          </LinearRing>
        </outerBoundaryIs>
      </Polygon>
    </Placemark>
    <Placemark>
      <name>A4454/26</name>
      <description>A4454/26 NOTAMN  Q)ZHWH/QRDCA/IV/BO/W/000/999/3000N11024E033  A)ZHWH B)2609170232 C)2609170315   E) A TEMPORARY DANGER AREA ESTABLISHED BOUNDED BY:  N302000E1095400-N303100E1101300-N302100E1102000-N302100E1102400-  N294100E1105400-N292900E1103200,BACK TO START.VERTICAL   LIMITS:SFC-UNL.  AIRCRAFT ARE FORBIDDEN TO FLY INTO THE AREA.  F)SFC G)UNL    CREATED: 11 SEP 2026 04:28  SOURCE: ZBBBYNYX</description>
      <styleUrl>#polyStyle</styleUrl>
      <Polygon>
        <outerBoundaryIs>
          <LinearRing>
            <coordinates>109.9,30.333333,0 110.216667,30.516667,0 110.333333,30.35,0 110.4,30.35,0 110.9,29.683333,0 110.533333,29.483333,0 109.9,30.333333,0</coordinates>
          </LinearRing>
        </outerBoundaryIs>
      </Polygon>
    </Placemark>
    <Placemark>
      <name>A4456/26</name>
      <description>A4456/26 NOTAMN  Q)ZXXX/QRDCA/IV/BO/W/000/999/3322N11036E013  A)ZLHW ZHWH B)2609191043 C)2609191106   E) A TEMPORARY DANGER AREA ESTABLISHED BOUNDED BY:  N333400E1103100-N333200E1104400-N331000E1104100-N331100E1102700,   BACK TO START.VERTICAL LIMITS:SFC-UNL.  AIRCRAFT ARE FORBIDDEN TO FLY INTO THE AREA.  F)SFC G)UNL    CREATED: 11 SEP 2026 05:09  SOURCE: ZBBBYNYX</description>
      <styleUrl>#polyStyle</styleUrl>
      <Polygon>
        <outerBoundaryIs>
          <LinearRing>
            <coordinates>110.516667,33.566667,0 110.733333,33.533333,0 110.683333,33.166667,0 110.45,33.183333,0 110.516667,33.566667,0</coordinates>
          </LinearRing>
        </outerBoundaryIs>
      </Polygon>
    </Placemark>
    <Placemark>
      <name>A4457/26</name>
      <description>A4457/26 NOTAMN  Q)ZHWH/QRDCA/IV/BO/W/000/999/3015N11005E022  A)ZHWH B)2609191044 C)2609191111   E) A TEMPORARY DANGER AREA ESTABLISHED BOUNDED BY:  N303500E1095700-N303300E1101900-N295400E1101300-N295700E1095100,   BACK TO START.VERTICAL LIMITS:SFC-UNL.  AIRCRAFT ARE FORBIDDEN TO FLY INTO THE AREA.  F)SFC G)UNL    CREATED: 11 SEP 2026 05:10  SOURCE: ZBBBYNYX</description>
      <styleUrl>#polyStyle</styleUrl>
      <Polygon>
        <outerBoundaryIs>
          <LinearRing>
            <coordinates>109.95,30.583333,0 110.316667,30.55,0 110.216667,29.9,0 109.85,29.95,0 109.95,30.583333,0</coordinates>
          </LinearRing>
        </outerBoundaryIs>
      </Polygon>
    </Placemark>
    <Placemark>
      <name>B4714/26</name>
      <description>B4714/26 NOTAMN  Q) RPHI/QWMLW/IV/BO /W /000/999/1928N12319E036  A) RPHI B) 2609152152 C) 2609152224  E) SPECIAL OPS (AEROSPACE FLT ACT) WILL BE CONDUCTED BY CHINA.  EST FALL AREA FOR UNBURNED DEBRIS WI:  200300N 1231500E -  200200N 1232800E -  185400N 1232500E -  185400N 1231300E -  200300N 1231500E  (76NM SOUTHEAST OF BASCO PRINCIPAL AP (CLASS 2)).  F) SFC G) UNL    CREATED: 09 SEP 2026 10:47  SOURCE: EUECYIYN</description>
      <styleUrl>#polyStyle</styleUrl>
      <Polygon>
        <outerBoundaryIs>
          <LinearRing>
            <coordinates>123.25,20.05,0 123.466667,20.033333,0 123.416667,18.9,0 123.216667,18.9,0 123.25,20.05,0</coordinates>
          </LinearRing>
        </outerBoundaryIs>
      </Polygon>
    </Placemark>
    <Placemark>
      <name>B4716/26</name>
      <description>B4716/26 NOTAMN  Q) RPHI/QWMLW/IV/BO /W /000/999/0907N11917E023  A) RPHI B) 2609170025 C) 2609170054  E) SPECIAL OPS (AEROSPACE FLT ACT) WILL BE CONDUCTED BY CHINA.   EST FALL AREA OF UNBURNED DEBRIS WI:  091600N 1185700E -  092800N 1191300E -  085700N 1193600E -  084500N 1192000E -  091600N 1185700E  (29NM SOUTHEAST PUERTO PRINCESA INTL AP).  F) SFC G) UNL    CREATED: 09 SEP 2026 10:56  SOURCE: EUECYIYN</description>
      <styleUrl>#polyStyle</styleUrl>
      <Polygon>
        <outerBoundaryIs>
          <LinearRing>
            <coordinates>118.95,9.266667,0 119.216667,9.466667,0 119.6,8.95,0 119.333333,8.75,0 118.95,9.266667,0</coordinates>
          </LinearRing>
        </outerBoundaryIs>
      </Polygon>
    </Placemark>
    <Placemark>
      <name>F3436/26</name>
      <description>F3436/26 NOTAMN  Q) YMMM/QWMLW/IV/BO/W/000/999/4556S12127E138  A) YMMM  B) 2609152155 C) 2609152236  E) CHINESE AEROSPACE ACTIVITIES WILL TAKE PLACE  FLW ADVICE RECEIVED FROM CIVIL AVIATION ADMINISTRATION OF CHINA:  THE SAFETY OF ACFT IN FLIGHT WI THE FOLLOWING 'AREA PZ' MAY BE  AFFECTED  AREA BOUNDED BY:  4341S12054E - 4343S12209E - 4811S12201E - 4809S12039E  F) SFC G) UNL    CREATED: 09 SEP 2026 05:35  SOURCE: YBBBZEZX</description>
      <styleUrl>#polyStyle</styleUrl>
      <Polygon>
        <outerBoundaryIs>
          <LinearRing>
            <coordinates>120.9,-43.683333,0 122.15,-43.716667,0 122.016667,-48.183333,0 120.65,-48.15,0 120.9,-43.683333,0</coordinates>
          </LinearRing>
        </outerBoundaryIs>
      </Polygon>
    </Placemark>
    <Placemark>
      <name>G0275/26</name>
      <description>G0275/26 NOTAMN Q) SOOO/QRRCA/IV/BO /W /245/999/0514N05247W019 A) SOOO B) 2609140900 C) 2609250151 E) ZONE SO-R4 ACTIVE - VEGA VV30 LAUNCHING F) FL245 G) UNL</description>
      <styleUrl>#circleStyle</styleUrl>
      <Polygon>
        <outerBoundaryIs>
          <LinearRing>
            <coordinates>-52.46534078364324,5.233333,0 -52.47017179993433,5.288321589594528,0 -52.4845180608222,5.341639378719795,0 -52.50794366242933,5.391666333333333,0 -52.539736829704815,5.43688240973407,0 -52.578931543349114,5.47591374032101,0 -52.62433689182162,5.5075743778650725,0 -52.67457325658521,5.530902329915538,0 -52.72811423111738,5.545188788453866,0 -52.783333,5.549999666666666,0 -52.83855176888262,5.545188788453866,0 -52.892092743414786,5.530902329915538,0 -52.94232910817838,5.5075743778650725,0 -52.987734456650884,5.47591374032101,0 -53.02692917029518,5.43688240973407,0 -53.05872233757067,5.391666333333333,0 -53.0821479391778,5.341639378719795,0 -53.09649420006567,5.288321589594528,0 -53.101325216356756,5.233333,0 -53.09649420006567,5.178344410405472,0 -53.0821479391778,5.125026621280205,0 -53.05872233757067,5.074999666666667,0 -53.02692917029518,5.02978359026593,0 -52.987734456650884,4.99075225967899,0 -52.94232910817838,4.9590916221349275,0 -52.892092743414786,4.935763670084462,0 -52.83855176888262,4.921477211546134,0 -52.783333,4.916666333333334,0 -52.72811423111738,4.921477211546134,0 -52.67457325658521,4.935763670084462,0 -52.62433689182162,4.9590916221349275,0 -52.578931543349114,4.99075225967899,0 -52.539736829704815,5.02978359026593,0 -52.50794366242933,5.074999666666667,0 -52.4845180608222,5.125026621280205,0 -52.47017179993433,5.178344410405472,0 -52.46534078364324,5.233333,0</coordinates>
          </LinearRing>
        </outerBoundaryIs>
      </Polygon>
    </Placemark>
    <Placemark>
      <name>G0276/26</name>
      <description>G0276/26 NOTAMN Q) SOOO/QRDCA/IV/BO /W /000/999/0558N05258W046 A) SOOO B) 2609150021 C) 2609250151 D) 0021-0151 E) SO-D1 ACTIVATED - 'VEGA VV30' LAUNCHING. F) SFC G) UNL</description>
      <styleUrl>#circleStyle</styleUrl>
      <Polygon>
        <outerBoundaryIs>
          <LinearRing>
            <coordinates>-52.19582432292344,5.966667,0 -52.20753515526232,6.099797269544647,0 -52.242311824564304,6.228882443216346,0 -52.2990976593305,6.350000333333334,0 -52.376167250706544,6.459470834093014,0 -52.47117887815759,6.55396773972455,0 -52.58124566146172,6.63061980956807,0 -52.703023277104734,6.687098009269197,0 -52.83281157385776,6.7216862773093595,0 -52.966667,6.733333666666667,0 -53.10052242614224,6.7216862773093595,0 -53.23031072289527,6.687098009269197,0 -53.35208833853828,6.63061980956807,0 -53.462155121842414,6.55396773972455,0 -53.55716674929346,6.459470834093014,0 -53.6342363406695,6.350000333333334,0 -53.6910221754357,6.228882443216346,0 -53.72579884473768,6.099797269544647,0 -53.73750967707656,5.966667,0 -53.72579884473768,5.833536730455354,0 -53.6910221754357,5.7044515567836545,0 -53.6342363406695,5.583333666666666,0 -53.55716674929346,5.4738631659069865,0 -53.462155121842414,5.37936626027545,0 -53.35208833853828,5.302714190431931,0 -53.23031072289527,5.246235990730804,0 -53.10052242614224,5.211647722690641,0 -52.966667,5.200000333333334,0 -52.83281157385776,5.211647722690641,0 -52.703023277104734,5.246235990730804,0 -52.58124566146172,5.302714190431931,0 -52.47117887815759,5.37936626027545,0 -52.376167250706544,5.4738631659069865,0 -52.2990976593305,5.583333666666666,0 -52.242311824564304,5.7044515567836545,0 -52.20753515526232,5.833536730455354,0 -52.19582432292344,5.966667,0</coordinates>
          </LinearRing>
        </outerBoundaryIs>
      </Polygon>
    </Placemark>
    <Placemark>
      <name>G0277/26</name>
      <description>G0277/26 NOTAMN Q) SOOO/QRDCA/IV/BO /W /000/999/0558N05221W052 A) SOOO B) 2609150021 C) 2609250151 D) 0021-0151 E) SO-D2 ACTIVATED - 'VEGA VV30' LAUNCHING. F) SFC G) UNL</description>
      <styleUrl>#circleStyle</styleUrl>
      <Polygon>
        <outerBoundaryIs>
          <LinearRing>
            <coordinates>-51.478612625913456,5.966667,0 -51.491850958122626,6.11716208731134,0 -51.53116371472487,6.2630844575489135,0 -51.59535639750404,6.400000333333334,0 -51.68247854427697,6.523749595061668,0 -51.78988299269988,6.630572184036447,0 -51.91430631295673,6.717222349946514,0 -52.05196796542274,6.781067271347787,0 -52.1986851704479,6.82016705261058,0 -52.35,6.833333666666666,0 -52.5013148295521,6.82016705261058,0 -52.64803203457726,6.781067271347787,0 -52.78569368704327,6.717222349946514,0 -52.91011700730012,6.630572184036447,0 -53.017521455723035,6.523749595061668,0 -53.10464360249596,6.400000333333334,0 -53.168836285275134,6.2630844575489135,0 -53.20814904187738,6.11716208731134,0 -53.22138737408655,5.966667,0 -53.20814904187738,5.81617191268866,0 -53.168836285275134,5.670249542451088,0 -53.10464360249596,5.533333666666667,0 -53.017521455723035,5.409584404938332,0 -52.91011700730012,5.302761815963553,0 -52.78569368704328,5.216111650053487,0 -52.64803203457726,5.152266728652213,0 -52.5013148295521,5.11316694738942,0 -52.35,5.100000333333334,0 -52.1986851704479,5.11316694738942,0 -52.05196796542274,5.152266728652213,0 -51.91430631295673,5.216111650053486,0 -51.78988299269988,5.302761815963552,0 -51.68247854427697,5.409584404938332,0 -51.59535639750404,5.533333666666667,0 -51.53116371472487,5.670249542451088,0 -51.491850958122626,5.81617191268866,0 -51.478612625913456,5.966667,0</coordinates>
          </LinearRing>
        </outerBoundaryIs>
      </Polygon>
    </Placemark>
    <Placemark>
      <name>G0278/26</name>
      <description>G0278/26 NOTAMN Q) SOOO/QWMLW/IV/BO /W /000/999/0909N05244W029 A) SOOO B) 2609150021 C) 2609250151 D) 0021-0151 E) RISK OF ELEMENTS FALLOUT DURING THE LAUNCH OF 'VEGA VV30' ROCKET: LATERAL LIMITS (ZA/VV30): 093600N 0524500W 093600N 0524200W 084100N 0524300W 084100N 0524600W 093600N 0524500W. F) SFC G) UNL</description>
      <styleUrl>#polyStyle</styleUrl>
      <Polygon>
        <outerBoundaryIs>
          <LinearRing>
            <coordinates>-52.75,9.6,0 -52.7,9.6,0 -52.716667,8.683333,0 -52.766667,8.683333,0 -52.75,9.6,0</coordinates>
          </LinearRing>
        </outerBoundaryIs>
      </Polygon>
    </Placemark>
    <Placemark>
      <name>G0280/26</name>
      <description>G0280/26 NOTAMN Q) SOOO/QRRCA/IV/BO /W /000/660/0518N05247W024 A) SOOO B) 2609142045 C) 2609250221 D) 2045-0221 E) SOR1 ACTIVATION FOR VV30 LAUNCHING PROTECTION. MANDATORY BYPASS DURING ACTIVATION. F) GND G) FL660</description>
      <styleUrl>#circleStyle</styleUrl>
      <Polygon>
        <outerBoundaryIs>
          <LinearRing>
            <coordinates>-52.38161553659944,5.3,0 -52.38771852752273,5.369459271066772,0 -52.40584206400166,5.436808057330268,0 -52.435435471551266,5.5,0 -52.47559956945815,5.5571150438746155,0 -52.52511399193141,5.606417777247591,0 -52.58247426829972,5.646410161513775,0 -52.645937535591315,5.675877048314363,0 -52.71357549454351,5.693923101204883,0 -52.783333,5.7,0 -52.853090505456485,5.693923101204883,0 -52.92072846440868,5.675877048314363,0 -52.98419173170028,5.646410161513775,0 -53.041552008068585,5.606417777247591,0 -53.09106643054185,5.5571150438746155,0 -53.13123052844873,5.5,0 -53.16082393599834,5.436808057330268,0 -53.17894747247727,5.369459271066772,0 -53.18505046340056,5.3,0 -53.17894747247727,5.230540728933228,0 -53.16082393599834,5.163191942669732,0 -53.13123052844873,5.1,0 -53.09106643054185,5.042884956125384,0 -53.041552008068585,4.9935822227524085,0 -52.98419173170028,4.9535898384862245,0 -52.92072846440868,4.924122951685637,0 -52.853090505456485,4.906076898795116,0 -52.783333,4.8999999999999995,0 -52.71357549454351,4.906076898795116,0 -52.645937535591315,4.924122951685637,0 -52.58247426829972,4.9535898384862245,0 -52.52511399193141,4.9935822227524085,0 -52.47559956945815,5.042884956125384,0 -52.435435471551266,5.1,0 -52.40584206400166,5.163191942669733,0 -52.38771852752273,5.230540728933228,0 -52.38161553659944,5.3,0</coordinates>
          </LinearRing>
        </outerBoundaryIs>
      </Polygon>
    </Placemark>
    <Placemark>
      <name>A1026/26</name>
      <description>A1026/26 NOTAMN Q) KZWY/QRACA/IV/NBO/W/000/999/ A) KZWY B) 2609150021 C) 2609250151 D) DAILY 0021-0151 E) ZWY AIRSPACE DUE TO A FRENCH GUIANA SPACE CENTER LAUNCH, VEGA VV30, ZNY OCEANIC CTA/FIR ZNY WILL NOT ACCEPT IFR FLIGHTS WI AN AREA DEFINED AS 241400N0552000W TO 241600N0550400W TO 212100N0543800W TO 211900N0545400W TO POINT OF ORIGIN. SFC-UNL F) SFC G) UNL</description>
      <styleUrl>#polyStyle</styleUrl>
      <Polygon>
        <outerBoundaryIs>
          <LinearRing>
            <coordinates>-55.333333,24.233333,0 -55.066667,24.266667,0 -54.633333,21.35,0 -54.9,21.316667,0 -55.333333,24.233333,0</coordinates>
          </LinearRing>
        </outerBoundaryIs>
      </Polygon>
    </Placemark>
    <Placemark>
      <name>A5906/26</name>
      <description>(A5906/26 NOTAMN Q)UAAA/QRDCA/IV/BO/W/000/999/5054N08323E/033 A)UAAA B)2609161325 C)2609191250 D)SEP 16 1325-1355, SEP 18 1240-1310, SEP 19 1220-1250 E)DANGER AREA UAD31 ACTIVATED. F)GND G)UNL)</description>
      <styleUrl>#circleStyle</styleUrl>
      <Polygon>
        <outerBoundaryIs>
          <LinearRing>
            <coordinates>84.25541338348596,50.9,0 84.24216452290683,50.99550649771681,0 84.20282050109391,51.088111078829115,0 84.13857676624092,51.175,0 84.05138533172249,51.2535331853276,0 83.94389546515546,51.32132444371543,0 83.81937319174298,51.37631397208144,0 83.68160205775136,51.416830941432245,0 83.5347681693714,51.441644264156714,0 83.383333,51.449999999999996,0 83.23189783062858,51.441644264156714,0 83.08506394224862,51.416830941432245,0 82.947292808257,51.37631397208144,0 82.82277053484452,51.32132444371543,0 82.7152806682775,51.2535331853276,0 82.62808923375907,51.175,0 82.56384549890608,51.088111078829115,0 82.52450147709315,50.99550649771681,0 82.51125261651403,50.9,0 82.52450147709315,50.80449350228319,0 82.56384549890608,50.71188892117088,0 82.62808923375907,50.625,0 82.7152806682775,50.5464668146724,0 82.82277053484452,50.478675556284564,0 82.947292808257,50.423686027918556,0 83.08506394224862,50.38316905856775,0 83.23189783062858,50.35835573584328,0 83.383333,50.35,0 83.5347681693714,50.35835573584328,0 83.68160205775136,50.38316905856775,0 83.81937319174298,50.423686027918556,0 83.94389546515546,50.47867555628456,0 84.05138533172249,50.5464668146724,0 84.13857676624092,50.625,0 84.20282050109391,50.71188892117088,0 84.24216452290683,50.80449350228319,0 84.25541338348596,50.9,0</coordinates>
          </LinearRing>
        </outerBoundaryIs>
      </Polygon>
    </Placemark>
    <Placemark>
      <name>K2526/26</name>
      <description>(K2526/26 NOTAMN Q)UACN/QRDCA/IV/BO/W/000/999/4723N06722E/022 A)UACN B)2609161300 C)2609191350 D)SEP 16 1300-1500, SEP 18 1215-1415, SEP 19 1150-1350 E)DANGER AREA UAD26 ACTIVATED F)GND G)UNL)</description>
      <styleUrl>#circleStyle</styleUrl>
      <Polygon>
        <outerBoundaryIs>
          <LinearRing>
            <coordinates>67.90820007570436,47.383333,0 67.8999729714662,47.447003998477875,0 67.87554163515088,47.50874038588608,0 67.8356484005495,47.56666633333333,0 67.78150540340846,47.6190217902184,0 67.71475775129821,47.66421596247696,0 67.63743353785219,47.70087564805429,0 67.551882220168,47.727886960954834,0 67.46070323174244,47.744429176104475,0 67.366667,47.74999966666667,0 67.27263076825759,47.744429176104475,0 67.18145177983202,47.727886960954834,0 67.09590046214782,47.70087564805429,0 67.0185762487018,47.66421596247696,0 66.95182859659155,47.6190217902184,0 66.89768559945051,47.56666633333333,0 66.85779236484913,47.50874038588608,0 66.83336102853382,47.447003998477875,0 66.82513392429566,47.383333,0 66.83336102853382,47.319662001522126,0 66.85779236484913,47.25792561411392,0 66.89768559945051,47.19999966666667,0 66.95182859659155,47.1476442097816,0 67.0185762487018,47.10245003752304,0 67.09590046214782,47.06579035194571,0 67.18145177983202,47.03877903904517,0 67.27263076825757,47.022236823895526,0 67.366667,47.01666633333333,0 67.46070323174243,47.022236823895526,0 67.551882220168,47.03877903904517,0 67.63743353785219,47.06579035194571,0 67.71475775129821,47.10245003752304,0 67.78150540340846,47.1476442097816,0 67.8356484005495,47.19999966666667,0 67.87554163515088,47.25792561411392,0 67.8999729714662,47.319662001522126,0 67.90820007570436,47.383333,0</coordinates>
          </LinearRing>
        </outerBoundaryIs>
      </Polygon>
    </Placemark>
    <Placemark>
      <name>C6157/26</name>
      <description>(C6157/26 NOTAMN Q)UAII/QRPCA/IV/NBO/W/000/999/4600N06334E/017 A)UAII B)2609161320 C)2609191245 D)SEP 16 1320-1350, SEP 18 1230-1300, SEP 19 1215-1245 E)PROHIBITED AREA ACTIVATED IN AREA RADIUS 16,2 NM CENTRE 455946N 0633351E F)GND G)UNL)</description>
      <styleUrl>#circleStyle</styleUrl>
      <Polygon>
        <outerBoundaryIs>
          <LinearRing>
            <coordinates>63.97454135289396,46.0,0 63.968344824984804,46.04920031700563,0 63.94994351962228,46.0969057072756,0 63.91989655115831,46.141666666666666,0 63.879116881525164,46.18212315607785,0 63.82884358034915,46.21704592555038,0 63.77060417644698,46.24537386440559,0 63.706168244635656,46.26624624255601,0 63.63749363809712,46.27902886335346,0 63.566667,46.28333333333333,0 63.495840361902886,46.27902886335346,0 63.42716575536435,46.26624624255601,0 63.362729823553025,46.24537386440559,0 63.304490419650854,46.21704592555038,0 63.25421711847484,46.18212315607785,0 63.213437448841695,46.141666666666666,0 63.183390480377724,46.0969057072756,0 63.1649891750152,46.04920031700563,0 63.15879264710605,46.0,0 63.1649891750152,45.95079968299437,0 63.183390480377724,45.9030942927244,0 63.213437448841695,45.858333333333334,0 63.25421711847484,45.81787684392215,0 63.304490419650854,45.78295407444962,0 63.362729823553025,45.75462613559441,0 63.42716575536435,45.73375375744399,0 63.495840361902886,45.72097113664654,0 63.566667,45.71666666666667,0 63.63749363809712,45.72097113664654,0 63.706168244635656,45.73375375744399,0 63.77060417644698,45.75462613559441,0 63.82884358034915,45.78295407444962,0 63.879116881525164,45.81787684392215,0 63.91989655115831,45.858333333333334,0 63.94994351962228,45.9030942927244,0 63.968344824984804,45.95079968299437,0 63.97454135289396,46.0,0</coordinates>
          </LinearRing>
        </outerBoundaryIs>
      </Polygon>
    </Placemark>
  </Document>
</kml>